{
  "type": "FeatureCollection",
  "name": "provisional_jingzhang_ai_belt_boundaries",
  "features": [
    {
      "type": "Feature",
      "id": "PROV-SITE-001",
      "properties": {
        "id": "PROV-SITE-001",
        "layer": "SITE_BOUNDARY",
        "scope_id": "overall_design_area",
        "name_zh": "总体设计范围粗略替代边界",
        "source_type": "agent_inferred_from_public_data",
        "confidence": "medium",
        "geometry_role": "provisional_constraint",
        "official_boundary": false,
        "boundary_precision": "provisional_text_constrained",
        "source_id": "PROVISIONAL-BOUNDARY-TEXT-AND-BBOX",
        "source_title": "依据公告文字四至（北五环路;学院路/西土城路;西直门外大街;大钟寺东路/荷清路）插值，未使用 OSM/GIS 实测数据",
        "area_sqm_declared": 11400000,
        "area_sqm_calculated": 11412825.386,
        "usage_note": "Densified from text 四至 constraints. Vertices interpolated along named road corridors. Replace with official GIS data from qualification documents. Do NOT use for precise area calculation."
      },
      "geometry": {
        "type": "Polygon",
        "coordinates": [
          [
            [
              116.3407,
              39.939
            ],
            [
              116.34232222222222,
              39.939
            ],
            [
              116.34394444444445,
              39.939
            ],
            [
              116.34556666666667,
              39.939
            ],
            [
              116.3471888888889,
              39.939
            ],
            [
              116.3488111111111,
              39.939
            ],
            [
              116.35043333333333,
              39.939
            ],
            [
              116.35205555555555,
              39.939
            ],
            [
              116.35367777777778,
              39.939
            ],
            [
              116.3553,
              39.939
            ],
            [
              116.3553,
              39.94188888888889
            ],
            [
              116.3553,
              39.94477777777778
            ],
            [
              116.3553,
              39.94766666666667
            ],
            [
              116.3553,
              39.95055555555556
            ],
            [
              116.3553,
              39.95344444444444
            ],
            [
              116.3553,
              39.95633333333333
            ],
            [
              116.3553,
              39.95922222222222
            ],
            [
              116.3553,
              39.96211111111111
            ],
            [
              116.3553,
              39.965
            ],
            [
              116.35507777777778,
              39.96777777777778
            ],
            [
              116.35485555555556,
              39.970555555555556
            ],
            [
              116.35463333333334,
              39.973333333333336
            ],
            [
              116.35441111111112,
              39.976111111111116
            ],
            [
              116.35418888888888,
              39.97888888888889
            ],
            [
              116.35396666666666,
              39.98166666666667
            ],
            [
              116.35374444444444,
              39.98444444444445
            ],
            [
              116.35352222222222,
              39.98722222222222
            ],
            [
              116.3533,
              39.99
            ],
            [
              116.35352222222222,
              39.994055555555555
            ],
            [
              116.35374444444444,
              39.998111111111115
            ],
            [
              116.35396666666666,
              40.00216666666667
            ],
            [
              116.35418888888888,
              40.00622222222222
            ],
            [
              116.35441111111112,
              40.01027777777778
            ],
            [
              116.35463333333334,
              40.01433333333333
            ],
            [
              116.35485555555556,
              40.018388888888886
            ],
            [
              116.35507777777778,
              40.022444444444446
            ],
            [
              116.3553,
              40.0265
            ],
            [
              116.3539,
              40.0265
            ],
            [
              116.3525,
              40.0265
            ],
            [
              116.3511,
              40.0265
            ],
            [
              116.3497,
              40.0265
            ],
            [
              116.3483,
              40.0265
            ],
            [
              116.34689999999999,
              40.0265
            ],
            [
              116.34549999999999,
              40.0265
            ],
            [
              116.3441,
              40.0265
            ],
            [
              116.3427,
              40.0265
            ],
            [
              116.34258888888888,
              40.02422222222222
            ],
            [
              116.34247777777777,
              40.02194444444444
            ],
            [
              116.34236666666666,
              40.019666666666666
            ],
            [
              116.34225555555555,
              40.01738888888889
            ],
            [
              116.34214444444444,
              40.01511111111111
            ],
            [
              116.34203333333333,
              40.01283333333333
            ],
            [
              116.34192222222222,
              40.010555555555555
            ],
            [
              116.34181111111111,
              40.00827777777778
            ],
            [
              116.3417,
              40.006
            ],
            [
              116.34147777777778,
              40.00255555555555
            ],
            [
              116.34125555555555,
              39.99911111111111
            ],
            [
              116.34103333333333,
              39.995666666666665
            ],
            [
              116.34081111111111,
              39.992222222222225
            ],
            [
              116.34058888888889,
              39.98877777777778
            ],
            [
              116.34036666666667,
              39.98533333333334
            ],
            [
              116.34014444444445,
              39.98188888888889
            ],
            [
              116.33992222222221,
              39.97844444444445
            ],
            [
              116.3397,
              39.975
            ],
            [
              116.3398111111111,
              39.971000000000004
            ],
            [
              116.33992222222221,
              39.967
            ],
            [
              116.34003333333332,
              39.963
            ],
            [
              116.34014444444443,
              39.959
            ],
            [
              116.34025555555556,
              39.955
            ],
            [
              116.34036666666667,
              39.951
            ],
            [
              116.34047777777778,
              39.947
            ],
            [
              116.34058888888889,
              39.943
            ],
            [
              116.3407,
              39.939
            ]
          ]
        ]
      }
    },
    {
      "type": "Feature",
      "id": "PROV-RESEARCH-001",
      "properties": {
        "id": "PROV-RESEARCH-001",
        "layer": "SITE_BOUNDARY",
        "scope_id": "coordinated_research_area",
        "name_zh": "统筹研究范围粗略替代边界",
        "source_type": "agent_inferred_from_public_data",
        "confidence": "medium",
        "geometry_role": "provisional_constraint",
        "official_boundary": false,
        "boundary_precision": "provisional_text_constrained",
        "source_id": "PROVISIONAL-BOUNDARY-TEXT-AND-BBOX",
        "source_title": "依据公告文字四至（北五环路;学院路/西土城路;西直门外大街;大钟寺东路/荷清路）插值，未使用 OSM/GIS 实测数据",
        "area_sqm_declared": 43600000,
        "area_sqm_calculated": 43609232.558,
        "usage_note": "Densified from text 四至 constraints. Vertices interpolated along named road corridors. Replace with official GIS data from qualification documents. Do NOT use for precise area calculation."
      },
      "geometry": {
        "type": "Polygon",
        "coordinates": [
          [
            [
              116.31885,
              39.938
            ],
            [
              116.32410555555555,
              39.938
            ],
            [
              116.32936111111111,
              39.938
            ],
            [
              116.33461666666666,
              39.938
            ],
            [
              116.33987222222223,
              39.938
            ],
            [
              116.34512777777778,
              39.938
            ],
            [
              116.35038333333334,
              39.938
            ],
            [
              116.35563888888889,
              39.938
            ],
            [
              116.36089444444445,
              39.938
            ],
            [
              116.36615,
              39.938
            ],
            [
              116.36681666666667,
              39.941
            ],
            [
              116.36748333333334,
              39.944
            ],
            [
              116.36815,
              39.947
            ],
            [
              116.36881666666667,
              39.95
            ],
            [
              116.36948333333333,
              39.953
            ],
            [
              116.37015000000001,
              39.956
            ],
            [
              116.37081666666667,
              39.959
            ],
            [
              116.37148333333334,
              39.962
            ],
            [
              116.37215,
              39.965
            ],
            [
              116.37215,
              39.97188888888889
            ],
            [
              116.37215,
              39.97877777777778
            ],
            [
              116.37215,
              39.98566666666667
            ],
            [
              116.37215,
              39.992555555555555
            ],
            [
              116.37215,
              39.99944444444445
            ],
            [
              116.37215,
              40.00633333333334
            ],
            [
              116.37215,
              40.013222222222225
            ],
            [
              116.37215,
              40.02011111111111
            ],
            [
              116.37215,
              40.027
            ],
            [
              116.36778333333334,
              40.027
            ],
            [
              116.36341666666667,
              40.027
            ],
            [
              116.35905,
              40.027
            ],
            [
              116.35468333333333,
              40.027
            ],
            [
              116.35031666666667,
              40.027
            ],
            [
              116.34595,
              40.027
            ],
            [
              116.34158333333333,
              40.027
            ],
            [
              116.33721666666666,
              40.027
            ],
            [
              116.33285,
              40.027
            ],
            [
              116.33151666666666,
              40.024
            ],
            [
              116.33018333333332,
              40.021
            ],
            [
              116.32884999999999,
              40.018
            ],
            [
              116.32751666666665,
              40.015
            ],
            [
              116.32618333333333,
              40.012
            ],
            [
              116.32485,
              40.009
            ],
            [
              116.32351666666666,
              40.006
            ],
            [
              116.32218333333333,
              40.003
            ],
            [
              116.32085,
              40.0
            ],
            [
              116.3199611111111,
              39.99611111111111
            ],
            [
              116.31907222222222,
              39.992222222222225
            ],
            [
              116.31818333333332,
              39.98833333333334
            ],
            [
              116.31729444444444,
              39.98444444444445
            ],
            [
              116.31640555555555,
              39.980555555555554
            ],
            [
              116.31551666666667,
              39.97666666666667
            ],
            [
              116.31462777777777,
              39.97277777777778
            ],
            [
              116.31373888888889,
              39.96888888888889
            ],
            [
              116.31285,
              39.965
            ],
            [
              116.31351666666666,
              39.962
            ],
            [
              116.31418333333333,
              39.959
            ],
            [
              116.31484999999999,
              39.956
            ],
            [
              116.31551666666667,
              39.953
            ],
            [
              116.31618333333333,
              39.95
            ],
            [
              116.31685,
              39.947
            ],
            [
              116.31751666666666,
              39.944
            ],
            [
              116.31818333333334,
              39.941
            ],
            [
              116.31885,
              39.938
            ]
          ]
        ]
      }
    },
    {
      "type": "Feature",
      "id": "PROV-KEY-SCOPE-001",
      "properties": {
        "id": "PROV-KEY-SCOPE-001",
        "layer": "SITE_BOUNDARY",
        "scope_id": "key_detailed_design_area",
        "name_zh": "重点区域范围粗略替代边界",
        "source_type": "agent_inferred_from_public_data",
        "confidence": "medium",
        "geometry_role": "provisional_constraint",
        "official_boundary": false,
        "boundary_precision": "provisional_rough",
        "source_id": "PROVISIONAL-BOUNDARY-TEXT-AND-BBOX",
        "source_title": "依据三处重点片区临时 polygon 汇总形成的重点区域范围",
        "area_sqm_declared": 3684000,
        "area_sqm_calculated": 3692893.005,
        "usage_note": "仅用于 AI agent 生成、展示和临时自检；不得作为 official detailed-design boundary、审批依据或精确面积复算依据。三处重点片区仍以 PROV-KEY-001/002/003 分别表达。"
      },
      "geometry": {
        "type": "MultiPolygon",
        "coordinates": [
          [
            [
              [
                116.343,
                40.0075
              ],
              [
                116.354,
                40.0075
              ],
              [
                116.354,
                40.026
              ],
              [
                116.343,
                40.026
              ],
              [
                116.343,
                40.0075
              ]
            ]
          ],
          [
            [
              [
                116.342,
                39.9835
              ],
              [
                116.353,
                39.9835
              ],
              [
                116.353,
                39.9935
              ],
              [
                116.342,
                39.9935
              ],
              [
                116.342,
                39.9835
              ]
            ]
          ],
          [
            [
              [
                116.342,
                39.944
              ],
              [
                116.355,
                39.944
              ],
              [
                116.355,
                39.94984
              ],
              [
                116.342,
                39.94984
              ],
              [
                116.342,
                39.944
              ]
            ]
          ]
        ]
      }
    },
    {
      "type": "Feature",
      "id": "PROV-KEY-001",
      "properties": {
        "id": "PROV-KEY-001",
        "layer": "KEY_AREA",
        "parent_scope_id": "key_detailed_design_area",
        "area_id": "zhongzhiyuan_ai_acceleration_area",
        "name_zh": "众智园AI自主创新加速区粗略范围",
        "source_type": "agent_inferred_from_public_data",
        "confidence": "medium",
        "geometry_role": "provisional_constraint",
        "official_boundary": false,
        "boundary_precision": "provisional_rough",
        "announced_area_sqm": 1921000,
        "area_sqm_calculated": 1929201.877,
        "source_id": "PROVISIONAL-BOUNDARY-TEXT-AND-BBOX",
        "source_title": "依据公告重点片区名称、南北顺序、公告约面积和临时 SITE_BOUNDARY 形成的临时粗略范围",
        "usage_note": "仅用于 AI agent 生成、展示和临时自检；不得作为 official key-area polygon、审批依据或精确面积复算依据。"
      },
      "geometry": {
        "type": "Polygon",
        "coordinates": [
          [
            [
              116.343,
              40.0075
            ],
            [
              116.354,
              40.0075
            ],
            [
              116.354,
              40.026
            ],
            [
              116.343,
              40.026
            ],
            [
              116.343,
              40.0075
            ]
          ]
        ]
      }
    },
    {
      "type": "Feature",
      "id": "PROV-KEY-002",
      "properties": {
        "id": "PROV-KEY-002",
        "layer": "KEY_AREA",
        "parent_scope_id": "key_detailed_design_area",
        "area_id": "beijing_ai_origin_community",
        "name_zh": "北京AI原点社区粗略范围",
        "source_type": "agent_inferred_from_public_data",
        "confidence": "medium",
        "geometry_role": "provisional_constraint",
        "official_boundary": false,
        "boundary_precision": "provisional_rough",
        "announced_area_sqm": 1043000,
        "area_sqm_calculated": 1043236.909,
        "source_id": "PROVISIONAL-BOUNDARY-TEXT-AND-BBOX",
        "source_title": "依据公告重点片区名称、南北顺序、公告约面积和临时 SITE_BOUNDARY 形成的临时粗略范围",
        "usage_note": "仅用于 AI agent 生成、展示和临时自检；不得作为 official key-area polygon、审批依据或精确面积复算依据。"
      },
      "geometry": {
        "type": "Polygon",
        "coordinates": [
          [
            [
              116.342,
              39.9835
            ],
            [
              116.353,
              39.9835
            ],
            [
              116.353,
              39.9935
            ],
            [
              116.342,
              39.9935
            ],
            [
              116.342,
              39.9835
            ]
          ]
        ]
      }
    },
    {
      "type": "Feature",
      "id": "PROV-KEY-003",
      "properties": {
        "id": "PROV-KEY-003",
        "layer": "KEY_AREA",
        "parent_scope_id": "key_detailed_design_area",
        "area_id": "dazhongsi_ai_industry_cluster",
        "name_zh": "大钟寺AI产业聚集区粗略范围",
        "source_type": "agent_inferred_from_public_data",
        "confidence": "medium",
        "geometry_role": "provisional_constraint",
        "official_boundary": false,
        "boundary_precision": "provisional_rough",
        "announced_area_sqm": 720000,
        "area_sqm_calculated": 720454.221,
        "source_id": "PROVISIONAL-BOUNDARY-TEXT-AND-BBOX",
        "source_title": "依据公告重点片区名称、南北顺序、公告约面积和临时 SITE_BOUNDARY 形成的临时粗略范围",
        "usage_note": "仅用于 AI agent 生成、展示和临时自检；不得作为 official key-area polygon、审批依据或精确面积复算依据。"
      },
      "geometry": {
        "type": "Polygon",
        "coordinates": [
          [
            [
              116.342,
              39.944
            ],
            [
              116.355,
              39.944
            ],
            [
              116.355,
              39.94984
            ],
            [
              116.342,
              39.94984
            ],
            [
              116.342,
              39.944
            ]
          ]
        ]
      }
    }
  ]
}