{"type": "FeatureCollection", "name": "corridor_intersection_points_open_data", "crs": {"type": "name", "properties": {"name": "EPSG:4326"}}, "metadata": {"title": "北京开放平台海淀子集走廊内点位（地理编码后）", "generated_at": "2026-08-18", "source": "北京市公共数据开放平台 3 数据集 + 高德地理编码（GCJ-02→WGS84）", "authority": "official 名录经地理编码定位；坐标为编码结果，精度受地址文本与编码质量影响"}, "features": [{"type": "Feature", "properties": {"category": "kindergarten", "label": "幼儿园", "name": "北京明天幼稚集团", "address": "北京市海淀区迎春园甲7号", "source_row": "4"}, "geometry": {"type": "Point", "coordinates": [116.354225, 39.977537]}}, {"type": "Feature", "properties": {"category": "kindergarten", "label": "幼儿园", "name": "北京明天幼稚集团一幼塔院园", "address": "北京市海淀区塔院小区迎春园甲7号", "source_row": "5"}, "geometry": {"type": "Point", "coordinates": [116.354225, 39.977537]}}, {"type": "Feature", "properties": {"category": "kindergarten", "label": "幼儿园", "name": "北京明天幼稚集团二幼双榆树园", "address": "北京市海淀区双榆树东里36号", "source_row": "6"}, "geometry": {"type": "Point", "coordinates": [116.320673, 39.967539]}}, {"type": "Feature", "properties": {"category": "kindergarten", "label": "幼儿园", "name": "北京明天幼稚集团二幼南区园", "address": "北京市海淀区双榆树南里1号", "source_row": "7"}, "geometry": {"type": "Point", "coordinates": [116.323455, 39.964146]}}, {"type": "Feature", "properties": {"category": "kindergarten", "label": "幼儿园", "name": "北京明天幼稚集团三幼学院路园", "address": "北京市海淀区蓟门里小区明天三幼学院路园", "source_row": "9"}, "geometry": {"type": "Point", "coordinates": [116.34712, 39.990709]}}, {"type": "Feature", "properties": {"category": "kindergarten", "label": "幼儿园", "name": "北京明天幼稚集团四幼知春里园", "address": "北京市海淀区双榆树北路63号", "source_row": "10"}, "geometry": {"type": "Point", "coordinates": [116.314558, 39.973076]}}, {"type": "Feature", "properties": {"category": "kindergarten", "label": "幼儿园", "name": "北京明天幼稚集团五幼东升园", "address": "北京市海淀区五道口东升园公寓5号楼", "source_row": "12"}, "geometry": {"type": "Point", "coordinates": [116.32999, 39.98876]}}, {"type": "Feature", "properties": {"category": "kindergarten", "label": "幼儿园", "name": "北京林业大学幼儿园", "address": "海淀区清华东路35号", "source_row": "25"}, "geometry": {"type": "Point", "coordinates": [116.339121, 40.001829]}}, {"type": "Feature", "properties": {"category": "kindergarten", "label": "幼儿园", "name": "北京市海淀区中关村街道第一幼儿园", "address": "北京市海淀区中关村北一街甲十三楼", "source_row": "26"}, "geometry": {"type": "Point", "coordinates": [116.317001, 39.984861]}}, {"type": "Feature", "properties": {"category": "kindergarten", "label": "幼儿园", "name": "北京市海淀区本真幼儿园", "address": "北京市海淀区学院路二里庄小区内", "source_row": "27"}, "geometry": {"type": "Point", "coordinates": [116.361673, 39.993973]}}, {"type": "Feature", "properties": {"category": "kindergarten", "label": "幼儿园", "name": "北京邮电大学幼儿园", "address": "北京市海淀区西土城路10号", "source_row": "28"}, "geometry": {"type": "Point", "coordinates": [116.351734, 39.960729]}}, {"type": "Feature", "properties": {"category": "kindergarten", "label": "幼儿园", "name": "北京市海淀区现代睿智融合幼儿园", "address": "北京市海淀区知春路罗庄西里7号楼现代艺术幼儿园", "source_row": "29"}, "geometry": {"type": "Point", "coordinates": [116.338445, 39.972175]}}, {"type": "Feature", "properties": {"category": "kindergarten", "label": "幼儿园", "name": "北京市海淀区北太平庄街道蓟门里幼儿园", "address": "北京市海淀区学院路蓟门里小区甲一号", "source_row": "34"}, "geometry": {"type": "Point", "coordinates": [116.344611, 39.96834]}}, {"type": "Feature", "properties": {"category": "kindergarten", "label": "幼儿园", "name": "中国农业大学东校区幼儿园", "address": "海淀区清华东路17号", "source_row": "39"}, "geometry": {"type": "Point", "coordinates": [116.350795, 40.00322]}}, {"type": "Feature", "properties": {"category": "kindergarten", "label": "幼儿园", "name": "北京语言大学幼儿园", "address": "北京市海淀区学院路15号", "source_row": "44"}, "geometry": {"type": "Point", "coordinates": [116.350306, 39.997814]}}, {"type": "Feature", "properties": {"category": "kindergarten", "label": "幼儿园", "name": "北京市海淀区长河湾汇佳幼儿园", "address": "北京市海淀区高粱桥斜街59号长河湾小区", "source_row": "46"}, "geometry": {"type": "Point", "coordinates": [116.343194, 39.942525]}}, {"type": "Feature", "properties": {"category": "kindergarten", "label": "幼儿园", "name": "北京交通大学幼儿园", "address": "北京市海淀区高粱桥斜街44号", "source_row": "48"}, "geometry": {"type": "Point", "coordinates": [116.340614, 39.946403]}}, {"type": "Feature", "properties": {"category": "kindergarten", "label": "幼儿园", "name": "北京市海淀区中科幼教中关村实验幼儿园", "address": "北京市海淀区中国科学院东南小区西区甲932幢", "source_row": "53"}, "geometry": {"type": "Point", "coordinates": [116.319937, 39.979205]}}, {"type": "Feature", "properties": {"category": "kindergarten", "label": "幼儿园", "name": "北京市海淀区英才幼儿园", "address": "海淀区北四环中路志新村小区12号", "source_row": "57"}, "geometry": {"type": "Point", "coordinates": [116.360244, 39.989824]}}, {"type": "Feature", "properties": {"category": "kindergarten", "label": "幼儿园", "name": "中国科学院第一幼儿园", "address": "北京市海淀区中关村科源小区24楼旁", "source_row": "58"}, "geometry": {"type": "Point", "coordinates": [116.3117, 39.985995]}}, {"type": "Feature", "properties": {"category": "kindergarten", "label": "幼儿园", "name": "北京市海淀区北太平庄街道威凯幼儿园", "address": "北京市海淀区北太平庄红联南村3号", "source_row": "60"}, "geometry": {"type": "Point", "coordinates": [116.354633, 39.947434]}}, {"type": "Feature", "properties": {"category": "kindergarten", "label": "幼儿园", "name": "中央军委机关事务管理总局红星幼儿园（花园路园）", "address": "海淀区北三环中路69号", "source_row": "61"}, "geometry": {"type": "Point", "coordinates": [116.355989, 39.967048]}}, {"type": "Feature", "properties": {"category": "kindergarten", "label": "幼儿园", "name": "中国科学院第三幼儿园", "address": "北京市海淀区中关村南一街二号", "source_row": "67"}, "geometry": {"type": "Point", "coordinates": [116.314182, 39.98224]}}, {"type": "Feature", "properties": {"category": "kindergarten", "label": "幼儿园", "name": "中国科学院第三幼儿园北一街分园", "address": "北京市海淀区中关村北一街4号", "source_row": "69"}, "geometry": {"type": "Point", "coordinates": [116.315294, 39.987299]}}, {"type": "Feature", "properties": {"category": "kindergarten", "label": "幼儿园", "name": "中国科学院第三幼儿园小月河分园", "address": "北京市海淀区石板房南路双泉嘉苑", "source_row": "74"}, "geometry": {"type": "Point", "coordinates": [116.352336, 40.009147]}}, {"type": "Feature", "properties": {"category": "kindergarten", "label": "幼儿园", "name": "中国科学院幼儿园", "address": "海淀区中关村北二街4号水清木华园7号楼", "source_row": "79"}, "geometry": {"type": "Point", "coordinates": [116.324826, 39.989516]}}, {"type": "Feature", "properties": {"category": "kindergarten", "label": "幼儿园", "name": "北京师范大学实验幼儿园", "address": "海淀区新街口外大街19号", "source_row": "81"}, "geometry": {"type": "Point", "coordinates": [116.360081, 39.960195]}}, {"type": "Feature", "properties": {"category": "kindergarten", "label": "幼儿园", "name": "北京师范大学实验幼儿园明光分部", "address": "海淀区北太平庄街道明光村小区", "source_row": "83"}, "geometry": {"type": "Point", "coordinates": [116.34736, 39.95418]}}, {"type": "Feature", "properties": {"category": "kindergarten", "label": "幼儿园", "name": "中国音乐学院附属幼儿园健翔园", "address": "北京市海淀区北四环中路209健翔园小区H座", "source_row": "85"}, "geometry": {"type": "Point", "coordinates": [116.368487, 39.988638]}}, {"type": "Feature", "properties": {"category": "kindergarten", "label": "幼儿园", "name": "北京有色金属研究总院幼儿园", "address": "新街口外大街3号院", "source_row": "86"}, "geometry": {"type": "Point", "coordinates": [116.363102, 39.964743]}}, {"type": "Feature", "properties": {"category": "kindergarten", "label": "幼儿园", "name": "北京有色金属研究总院幼儿园分园", "address": "北三环中路43号院18号楼", "source_row": "87"}, "geometry": {"type": "Point", "coordinates": [116.364552, 39.969989]}}, {"type": "Feature", "properties": {"category": "kindergarten", "label": "幼儿园", "name": "北京市海淀区人民政府机关幼儿园", "address": "北京市海淀区知春东里14号楼", "source_row": "89"}, "geometry": {"type": "Point", "coordinates": [116.319292, 39.973292]}}, {"type": "Feature", "properties": {"category": "kindergarten", "label": "幼儿园", "name": "中国气象局幼儿园", "address": "海淀区中关村南大街46号", "source_row": "90"}, "geometry": {"type": "Point", "coordinates": [116.32219, 39.946303]}}, {"type": "Feature", "properties": {"category": "kindergarten", "label": "幼儿园", "name": "北京市清华洁华幼儿园", "address": "北京市海淀区清华大学校内洁华幼儿园", "source_row": "99"}, "geometry": {"type": "Point", "coordinates": [116.320793, 40.0019]}}, {"type": "Feature", "properties": {"category": "kindergarten", "label": "幼儿园", "name": "北京市清华洁华幼儿园双清苑分园", "address": "北京市 海淀区双清路双清苑小区", "source_row": "100"}, "geometry": {"type": "Point", "coordinates": [116.336015, 40.013477]}}, {"type": "Feature", "properties": {"category": "kindergarten", "label": "幼儿园", "name": "北京航空航天大学幼儿园", "address": "北京市海淀区学院路37号", "source_row": "107"}, "geometry": {"type": "Point", "coordinates": [116.344749, 39.979269]}}, {"type": "Feature", "properties": {"category": "kindergarten", "label": "幼儿园", "name": "北京大学医学部幼儿园", "address": "北京市海淀区学院路38号", "source_row": "110"}, "geometry": {"type": "Point", "coordinates": [116.351698, 39.983387]}}, {"type": "Feature", "properties": {"category": "kindergarten", "label": "幼儿园", "name": "北京市海淀区布朗幼儿园", "address": "北京市海淀区魏公街1号韦伯豪家园10号楼", "source_row": "112"}, "geometry": {"type": "Point", "coordinates": [116.312835, 39.952712]}}, {"type": "Feature", "properties": {"category": "kindergarten", "label": "幼儿园", "name": "钢铁研究总院幼儿园", "address": "北京市海淀区高粱桥斜街13号院甲27号", "source_row": "121"}, "geometry": {"type": "Point", "coordinates": [116.32895, 39.948663]}}, {"type": "Feature", "properties": {"category": "kindergarten", "label": "幼儿园", "name": "中国农业科学院幼儿园", "address": "中关村南大街12号", "source_row": "123"}, "geometry": {"type": "Point", "coordinates": [116.322129, 39.958971]}}, {"type": "Feature", "properties": {"category": "kindergarten", "label": "幼儿园", "name": "中国铁道科学研究院集团有限公司幼儿园", "address": "海淀区西直门外大柳树路2号", "source_row": "124"}, "geometry": {"type": "Point", "coordinates": [116.334795, 39.955274]}}, {"type": "Feature", "properties": {"category": "kindergarten", "label": "幼儿园", "name": "北京市海淀区太阳幼儿园", "address": "北京市海淀区大钟寺太阳园小区7号楼", "source_row": "126"}, "geometry": {"type": "Point", "coordinates": [116.333221, 39.969095]}}, {"type": "Feature", "properties": {"category": "kindergarten", "label": "幼儿园", "name": "北京市海淀区太阳幼儿园（太月园）", "address": "北京市海淀区太阳幼儿园（太月园）", "source_row": "127"}, "geometry": {"type": "Point", "coordinates": [116.334445, 39.969695]}}, {"type": "Feature", "properties": {"category": "kindergarten", "label": "幼儿园", "name": "兵器工业机关服务中心幼儿园", "address": "北京市海淀区车道沟十号院兵器社区", "source_row": "129"}, "geometry": {"type": "Point", "coordinates": [116.339244, 39.971052]}}, {"type": "Feature", "properties": {"category": "kindergarten", "label": "幼儿园", "name": "中央民族大学幼儿园", "address": "海淀区法华寺原址", "source_row": "142"}, "geometry": {"type": "Point", "coordinates": [116.310212, 39.949148]}}, {"type": "Feature", "properties": {"category": "kindergarten", "label": "幼儿园", "name": "北京市海淀区紫竹院街道第二幼儿园", "address": "北京市海淀区魏公村小区16楼西侧", "source_row": "143"}, "geometry": {"type": "Point", "coordinates": [116.310172, 39.952749]}}, {"type": "Feature", "properties": {"category": "kindergarten", "label": "幼儿园", "name": "中国石油集团科学技术研究院幼儿园", "address": "北京市海淀区学院路20号", "source_row": "144"}, "geometry": {"type": "Point", "coordinates": [116.351575, 39.994072]}}, {"type": "Feature", "properties": {"category": "kindergarten", "label": "幼儿园", "name": "北京科技大学幼儿教育中心学院路分园", "address": "海淀区学院路30号十区", "source_row": "146"}, "geometry": {"type": "Point", "coordinates": [116.349999, 39.992332]}}, {"type": "Feature", "properties": {"category": "kindergarten", "label": "幼儿园", "name": "北京市育龙幼儿园", "address": "北京市海淀区清华东路东王庄小区七号", "source_row": "147"}, "geometry": {"type": "Point", "coordinates": [116.341054, 39.998588]}}, {"type": "Feature", "properties": {"category": "kindergarten", "label": "幼儿园", "name": "北京市海淀区未来之星幼儿园", "address": "海淀区学院路14号新区", "source_row": "148"}, "geometry": {"type": "Point", "coordinates": [116.345491, 40.002123]}}, {"type": "Feature", "properties": {"category": "kindergarten", "label": "幼儿园", "name": "北京市海淀区学院路街道展春园幼儿园", "address": "北京市海淀区展春园小区20号", "source_row": "149"}, "geometry": {"type": "Point", "coordinates": [116.335525, 39.987492]}}, {"type": "Feature", "properties": {"category": "kindergarten", "label": "幼儿园", "name": "北京大学附属幼儿园", "address": "北京市海淀区北京大学燕东园26号", "source_row": "152"}, "geometry": {"type": "Point", "coordinates": [116.311846, 39.995551]}}, {"type": "Feature", "properties": {"category": "kindergarten", "label": "幼儿园", "name": "中央军委机关事务管理总局北极寺老干部服务管理局幼儿园", "address": "北京市海淀区花园东路8号院", "source_row": "177"}, "geometry": {"type": "Point", "coordinates": [116.366966, 39.981555]}}, {"type": "Feature", "properties": {"category": "kindergarten", "label": "幼儿园", "name": "北京公交鸿运承幼教中心第三幼儿园", "address": "北京市海淀区小西天电车宿舍内", "source_row": "188"}, "geometry": {"type": "Point", "coordinates": [116.356572, 39.956977]}}, {"type": "Feature", "properties": {"category": "kindergarten", "label": "幼儿园", "name": "北京市海淀区赫泽幼儿园", "address": "花园北路35号院红黄蓝幼儿园", "source_row": "189"}, "geometry": {"type": "Point", "coordinates": [116.359926, 39.981121]}}, {"type": "Feature", "properties": {"category": "kindergarten", "label": "幼儿园", "name": "中央军委机关事务管理总局红星幼儿园（新街口园）", "address": "新街口外大街23号院", "source_row": "193"}, "geometry": {"type": "Point", "coordinates": [116.365165, 39.955606]}}, {"type": "Feature", "properties": {"category": "kindergarten", "label": "幼儿园", "name": "北京应用物理与计算数学研究所九一幼儿园", "address": "北京市海淀区花园路一号", "source_row": "194"}, "geometry": {"type": "Point", "coordinates": [116.357189, 39.978193]}}, {"type": "Feature", "properties": {"category": "kindergarten", "label": "幼儿园", "name": "北京市海淀区智合幼儿园", "address": "北京海淀区清河清缘东里3号楼", "source_row": "195"}, "geometry": {"type": "Point", "coordinates": [116.352351, 40.028352]}}, {"type": "Feature", "properties": {"category": "kindergarten", "label": "幼儿园", "name": "北京市海淀区何嘉仁菁英幼儿园", "address": "海淀区 文慧园北路9号 今典花园小区 西北角 独栋楼", "source_row": "200"}, "geometry": {"type": "Point", "coordinates": [116.355149, 39.952327]}}, {"type": "Feature", "properties": {"category": "kindergarten", "label": "幼儿园", "name": "北京市海淀区龙岗路幼儿园", "address": "北京市海淀区清河龙岗路甲25号", "source_row": "202"}, "geometry": {"type": "Point", "coordinates": [116.356953, 40.029644]}}, {"type": "Feature", "properties": {"category": "kindergarten", "label": "幼儿园", "name": "北京市海淀区北京师范大学实验幼儿园牡丹园分园幼儿园", "address": "北土城西路牡丹东里18号", "source_row": "204"}, "geometry": {"type": "Point", "coordinates": [116.366701, 39.976155]}}, {"type": "Feature", "properties": {"category": "kindergarten", "label": "幼儿园", "name": "北京市海淀区民族幼儿园", "address": "北京市海淀区马甸玉兰园小区2号楼", "source_row": "206"}, "geometry": {"type": "Point", "coordinates": [116.345321, 39.983166]}}, {"type": "Feature", "properties": {"category": "kindergarten", "label": "幼儿园", "name": "北京市海淀区蓝宝特幼儿园", "address": "北京市海淀区四道口路1号8号楼", "source_row": "207"}, "geometry": {"type": "Point", "coordinates": [116.337978, 39.960978]}}, {"type": "Feature", "properties": {"category": "kindergarten", "label": "幼儿园", "name": "北京市福娃娃特殊教育中心", "address": "北京市海淀区清河三街52号", "source_row": "212"}, "geometry": {"type": "Point", "coordinates": [116.337737, 40.026166]}}, {"type": "Feature", "properties": {"category": "kindergarten", "label": "幼儿园", "name": "北京市海淀区大风车幼儿园", "address": "首体南路1号院", "source_row": "213"}, "geometry": {"type": "Point", "coordinates": [116.3171, 39.936838]}}, {"type": "Feature", "properties": {"category": "kindergarten", "label": "幼儿园", "name": "北京市海淀区三色幼儿园", "address": "北京市海淀区高粱桥斜街19号院2号楼", "source_row": "218"}, "geometry": {"type": "Point", "coordinates": [116.334962, 39.945555]}}, {"type": "Feature", "properties": {"category": "kindergarten", "label": "幼儿园", "name": "北京市海淀区恩济里体大幼儿园", "address": "北京市海淀区信息路48号", "source_row": "226"}, "geometry": {"type": "Point", "coordinates": [116.312769, 40.02153]}}, {"type": "Feature", "properties": {"category": "kindergarten", "label": "幼儿园", "name": "北京市海淀区太极艾嘉幼儿园", "address": "北京市海淀区北四环中路211号院内生活区北3号楼北侧及4号楼南侧", "source_row": "242"}, "geometry": {"type": "Point", "coordinates": [116.366905, 39.987077]}}, {"type": "Feature", "properties": {"category": "kindergarten", "label": "幼儿园", "name": "北京市海淀区成志幼儿园", "address": "北京市海淀区清河三街33号", "source_row": "251"}, "geometry": {"type": "Point", "coordinates": [116.337381, 40.029042]}}, {"type": "Feature", "properties": {"category": "kindergarten", "label": "幼儿园", "name": "北京市海淀区学院路博雅学园幼儿园", "address": "北京市海淀区清华园暂安处甲9号", "source_row": "261"}, "geometry": {"type": "Point", "coordinates": [116.323966, 39.990171]}}, {"type": "Feature", "properties": {"category": "kindergarten", "label": "幼儿园", "name": "中国农业科学院附属小学附设幼儿班", "address": "海淀区明光村23号", "source_row": "277"}, "geometry": {"type": "Point", "coordinates": [116.344217, 39.96194]}}, {"type": "Feature", "properties": {"category": "kindergarten", "label": "幼儿园", "name": "清华附中上庄学校附设幼儿班", "address": "北京市海淀区上庄镇东小营2号", "source_row": "278"}, "geometry": {"type": "Point", "coordinates": [116.345321, 39.983166]}}, {"type": "Feature", "properties": {"category": "health", "label": "社区卫生", "name": "北京大学医学部社区卫生服务中心", "address": "北京市海淀区学院路38号", "source_row": "1"}, "geometry": {"type": "Point", "coordinates": [116.351698, 39.983387]}}, {"type": "Feature", "properties": {"category": "health", "label": "社区卫生", "name": "北京航空航天大学社区卫生服务中心（北京航空航天大学医院）", "address": "北京市海淀区学院路37号", "source_row": "2"}, "geometry": {"type": "Point", "coordinates": [116.344749, 39.979269]}}, {"type": "Feature", "properties": {"category": "health", "label": "社区卫生", "name": "北京交通大学社区卫生服务中心（北京交通大学医院）", "address": "北京市海淀区西直门外上园村3号", "source_row": "3"}, "geometry": {"type": "Point", "coordinates": [116.335963, 39.949875]}}, {"type": "Feature", "properties": {"category": "health", "label": "社区卫生", "name": "北京科技大学社区卫生服务中心（北京科技大学医院）", "address": "海淀区学院路30号", "source_row": "4"}, "geometry": {"type": "Point", "coordinates": [116.358721, 39.988013]}}, {"type": "Feature", "properties": {"category": "health", "label": "社区卫生", "name": "北京林业大学社区卫生服务中心（北京林业大学医院）", "address": "北京市海淀区清华东路35号", "source_row": "6"}, "geometry": {"type": "Point", "coordinates": [116.339121, 40.001829]}}, {"type": "Feature", "properties": {"category": "health", "label": "社区卫生", "name": "北京师范大学社区卫生服务中心（北京师范大学医院）", "address": "北京市海淀区新街口外大街19号", "source_row": "7"}, "geometry": {"type": "Point", "coordinates": [116.360081, 39.960195]}}, {"type": "Feature", "properties": {"category": "health", "label": "社区卫生", "name": "北京市海淀区北太平庄街道明光村社区卫生服务站", "address": "海淀区明光村小区19号楼1号", "source_row": "14"}, "geometry": {"type": "Point", "coordinates": [116.34796, 39.954063]}}, {"type": "Feature", "properties": {"category": "health", "label": "社区卫生", "name": "北京市海淀区北太平庄街道太月园社区卫生服务站", "address": "海淀区太月园小区10号楼地下一层", "source_row": "15"}, "geometry": {"type": "Point", "coordinates": [116.340065, 39.971952]}}, {"type": "Feature", "properties": {"category": "health", "label": "社区卫生", "name": "北京市海淀区北太平庄街道冶建院社区卫生服务站", "address": "北京市海淀区西土城路31号", "source_row": "16"}, "geometry": {"type": "Point", "coordinates": [116.346493, 39.962008]}}, {"type": "Feature", "properties": {"category": "health", "label": "社区卫生", "name": "北京市海淀区北太平庄街道有色金属研究总院社区卫生服务站", "address": "北京市海淀区新街口外大街3号", "source_row": "17"}, "geometry": {"type": "Point", "coordinates": [116.363405, 39.964581]}}, {"type": "Feature", "properties": {"category": "health", "label": "社区卫生", "name": "北京市海淀区北太平庄社区卫生服务中心（北京市海淀区北太平庄医院）", "address": "北京市海淀区文慧园6号楼", "source_row": "18"}, "geometry": {"type": "Point", "coordinates": [116.357077, 39.94942]}}, {"type": "Feature", "properties": {"category": "health", "label": "社区卫生", "name": "北京市海淀区北下关街道动物园社区卫生服务站", "address": "北京市海淀区北下关西外大街太平庄动物园家委会", "source_row": "19"}, "geometry": {"type": "Point", "coordinates": [116.350922, 39.95053]}}, {"type": "Feature", "properties": {"category": "health", "label": "社区卫生", "name": "北京市海淀区北下关街道钢研社区卫生服务站", "address": "北京市海淀区高粱斜街13号院内二层小楼", "source_row": "20"}, "geometry": {"type": "Point", "coordinates": [116.339783, 39.943886]}}, {"type": "Feature", "properties": {"category": "health", "label": "社区卫生", "name": "北京市海淀区北下关街道青云社区卫生服务站", "address": "北京市海淀区北三环西路40号", "source_row": "21"}, "geometry": {"type": "Point", "coordinates": [116.320904, 39.964264]}}, {"type": "Feature", "properties": {"category": "health", "label": "社区卫生", "name": "北京市海淀区北下关街道双安社区卫生服务站", "address": "北京市海淀区双榆树南里二里3号平房", "source_row": "22"}, "geometry": {"type": "Point", "coordinates": [116.323455, 39.964146]}}, {"type": "Feature", "properties": {"category": "health", "label": "社区卫生", "name": "北京市海淀区北下关街道皂君庙社区卫生服务站", "address": "北京市海淀区学院南路皂君东里", "source_row": "23"}, "geometry": {"type": "Point", "coordinates": [116.330916, 39.95804]}}, {"type": "Feature", "properties": {"category": "health", "label": "社区卫生", "name": "北京市海淀区北下关街道中国铁道科学研究院社区卫生服务站", "address": "北京市海淀区西直门外大柳树路2号", "source_row": "24"}, "geometry": {"type": "Point", "coordinates": [116.334795, 39.955274]}}, {"type": "Feature", "properties": {"category": "health", "label": "社区卫生", "name": "北京市海淀区北下关街道中央财经大学社区卫生服务站", "address": "海淀区学院南路39号院", "source_row": "25"}, "geometry": {"type": "Point", "coordinates": [116.338436, 39.956992]}}, {"type": "Feature", "properties": {"category": "health", "label": "社区卫生", "name": "北京市海淀区北下关社区卫生服务中心（北京市海淀区北下关医院）", "address": "北京市海淀区北下关财院东侧路", "source_row": "26"}, "geometry": {"type": "Point", "coordinates": [116.332566, 39.954642]}}, {"type": "Feature", "properties": {"category": "health", "label": "社区卫生", "name": "北京市海淀区东升镇八家嘉园社区卫生服务站", "address": "北京市海淀区东升镇八家嘉园19号楼地上一层", "source_row": "27"}, "geometry": {"type": "Point", "coordinates": [116.339145, 40.014781]}}, {"type": "Feature", "properties": {"category": "health", "label": "社区卫生", "name": "北京市海淀区东升镇社区卫生服务中心（北京市海淀区东升卫生院）", "address": "北京市海淀区东升镇潘庄村西路", "source_row": "29"}, "geometry": {"type": "Point", "coordinates": [116.328018, 39.993782]}}, {"type": "Feature", "properties": {"category": "health", "label": "社区卫生", "name": "北京市海淀区东升镇朱房前街社区卫生服务站", "address": "北京市海淀区清河朱房前街4号院", "source_row": "30"}, "geometry": {"type": "Point", "coordinates": [116.322508, 40.025616]}}, {"type": "Feature", "properties": {"category": "health", "label": "社区卫生", "name": "北京市海淀区花园路街道1201社区卫生服务站", "address": "北京市海淀区花园路5号院11号楼南侧", "source_row": "46"}, "geometry": {"type": "Point", "coordinates": [116.35512, 39.97312]}}, {"type": "Feature", "properties": {"category": "health", "label": "社区卫生", "name": "北京市海淀区花园路街道北科欣兴社区卫生服务站", "address": "北京市海淀区花园路街道花园路3号院2号楼北侧平房", "source_row": "47"}, "geometry": {"type": "Point", "coordinates": [116.345321, 39.983166]}}, {"type": "Feature", "properties": {"category": "health", "label": "社区卫生", "name": "北京市海淀区花园路街道北影社区卫生服务站", "address": "北京市海淀区北三环中路77号", "source_row": "48"}, "geometry": {"type": "Point", "coordinates": [116.351488, 39.971429]}}, {"type": "Feature", "properties": {"category": "health", "label": "社区卫生", "name": "北京市海淀区花园路街道金尚嘉园社区卫生服务站", "address": "北京市海淀区花园路甲2号3号楼7-101", "source_row": "49"}, "geometry": {"type": "Point", "coordinates": [116.345321, 39.983166]}}, {"type": "Feature", "properties": {"category": "health", "label": "社区卫生", "name": "北京市海淀区花园路街道塔院社区卫生服务站", "address": "北京市海淀区塔院小区朗秋园3楼1门103", "source_row": "50"}, "geometry": {"type": "Point", "coordinates": [116.354867, 39.975522]}}, {"type": "Feature", "properties": {"category": "health", "label": "社区卫生", "name": "北京市海淀区花园路社区卫生服务中心", "address": "北京市海淀区马甸西路月季园小区", "source_row": "51"}, "geometry": {"type": "Point", "coordinates": [116.367544, 39.970247]}}, {"type": "Feature", "properties": {"category": "health", "label": "社区卫生", "name": "北京市海淀区蓟门里社区卫生服务中心(北京市海淀区蓟门里医院)", "address": "北京市海淀区蓟门里小区内", "source_row": "52"}, "geometry": {"type": "Point", "coordinates": [116.345389, 39.968417]}}, {"type": "Feature", "properties": {"category": "health", "label": "社区卫生", "name": "北京市海淀区清河街道社会福利社区卫生服务中心", "address": "北京市海淀区清河三街52号北京市社会福利院门诊楼一层", "source_row": "69"}, "geometry": {"type": "Point", "coordinates": [116.337737, 40.026166]}}, {"type": "Feature", "properties": {"category": "health", "label": "社区卫生", "name": "北京市海淀区清河街道朱房社区卫生服务站", "address": "北京市海淀区清河街道前街56号", "source_row": "72"}, "geometry": {"type": "Point", "coordinates": [116.333711, 40.029495]}}, {"type": "Feature", "properties": {"category": "health", "label": "社区卫生", "name": "北京市海淀区上地街道上地社区卫生服务站", "address": "海淀区上地南路6号院1楼", "source_row": "76"}, "geometry": {"type": "Point", "coordinates": [116.311992, 40.028534]}}, {"type": "Feature", "properties": {"category": "health", "label": "社区卫生", "name": "北京市海淀区曙光街道烟树园社区卫生服务站", "address": "北京市海淀区曙光街道烟树园社区", "source_row": "100"}, "geometry": {"type": "Point", "coordinates": [116.339244, 39.971052]}}, {"type": "Feature", "properties": {"category": "health", "label": "社区卫生", "name": "北京市海淀区双榆树社区卫生服务中心(北京市海淀区中医医院)", "address": "海淀区双榆树西里12号", "source_row": "101"}, "geometry": {"type": "Point", "coordinates": [116.318563, 39.968632]}}, {"type": "Feature", "properties": {"category": "health", "label": "社区卫生", "name": "北京市海淀区西三旗街道龙岗社区卫生服务站", "address": "北京市海淀区西三旗街道龙岗路3号", "source_row": "165"}, "geometry": {"type": "Point", "coordinates": [116.34378, 40.028606]}}, {"type": "Feature", "properties": {"category": "health", "label": "社区卫生", "name": "北京市海淀区西三旗街道永泰社区卫生服务站", "address": "北京市海淀区清缘里中区1号楼底商", "source_row": "168"}, "geometry": {"type": "Point", "coordinates": [116.351497, 40.028647]}}, {"type": "Feature", "properties": {"category": "health", "label": "社区卫生", "name": "北京市海淀区学院路街道城建第四社区卫生服务站", "address": "北京市海淀区王庄路27号", "source_row": "172"}, "geometry": {"type": "Point", "coordinates": [116.332802, 39.994982]}}, {"type": "Feature", "properties": {"category": "health", "label": "社区卫生", "name": "北京市海淀区学院路街道大华无线电仪器厂社区卫生服务站", "address": "北京市海淀区学院路14号", "source_row": "173"}, "geometry": {"type": "Point", "coordinates": [116.345457, 40.002124]}}, {"type": "Feature", "properties": {"category": "health", "label": "社区卫生", "name": "北京市海淀区学院路街道东王庄社区卫生服务站", "address": "东王庄小区8号楼一层", "source_row": "174"}, "geometry": {"type": "Point", "coordinates": [116.340481, 39.99833]}}, {"type": "Feature", "properties": {"category": "health", "label": "社区卫生", "name": "北京市海淀区学院路街道二里庄社区卫生服务站", "address": "北京市海淀区二里庄5号楼一层", "source_row": "175"}, "geometry": {"type": "Point", "coordinates": [116.360569, 39.996773]}}, {"type": "Feature", "properties": {"category": "health", "label": "社区卫生", "name": "北京市海淀区学院路街道建清园社区卫生服务站", "address": "北京市海淀区学院路建清园小区3号楼、北京市海淀区双泉堡125号院2号楼1号", "source_row": "176"}, "geometry": {"type": "Point", "coordinates": [116.351406, 40.013473]}}, {"type": "Feature", "properties": {"category": "health", "label": "社区卫生", "name": "北京市海淀区学院路街道军休社区卫生服务站", "address": "海淀区二里庄15号", "source_row": "177"}, "geometry": {"type": "Point", "coordinates": [116.361673, 39.993972]}}, {"type": "Feature", "properties": {"category": "health", "label": "社区卫生", "name": "北京市海淀区学院路街道信息产业部电子第六研究所社区卫生服务站", "address": "北京市海淀区学院路16号1号楼", "source_row": "179"}, "geometry": {"type": "Point", "coordinates": [116.347847, 39.997605]}}, {"type": "Feature", "properties": {"category": "health", "label": "社区卫生", "name": "北京市海淀区学院路街道志新村社区卫生服务站", "address": "北京市海淀区志新村小区8号楼", "source_row": "180"}, "geometry": {"type": "Point", "coordinates": [116.360996, 39.989599]}}, {"type": "Feature", "properties": {"category": "health", "label": "社区卫生", "name": "北京市海淀区学院路社区卫生服务中心", "address": "海淀区北四环中路279号展春园小区30号楼", "source_row": "181"}, "geometry": {"type": "Point", "coordinates": [116.337335, 39.987023]}}, {"type": "Feature", "properties": {"category": "health", "label": "社区卫生", "name": "北京市海淀区中关村街道保福寺社区卫生服务站", "address": "中关村南二条甲334楼101", "source_row": "199"}, "geometry": {"type": "Point", "coordinates": [116.32788, 39.981575]}}, {"type": "Feature", "properties": {"category": "health", "label": "社区卫生", "name": "北京市海淀区中关村街道华清园社区卫生服务站", "address": "北京市海淀区东升园公寓10号楼5南侧", "source_row": "200"}, "geometry": {"type": "Point", "coordinates": [116.329858, 39.988019]}}, {"type": "Feature", "properties": {"category": "health", "label": "社区卫生", "name": "北京市海淀区中关村街道科学园南里社区卫生服务站", "address": "科学园南里东街6-5", "source_row": "201"}, "geometry": {"type": "Point", "coordinates": [116.377434, 39.996219]}}, {"type": "Feature", "properties": {"category": "health", "label": "社区卫生", "name": "北京市海淀区中关村街道青云北区社区卫生服务站", "address": "北京市海淀区青云北宿舍区", "source_row": "202"}, "geometry": {"type": "Point", "coordinates": [116.325326, 39.973398]}}, {"type": "Feature", "properties": {"category": "health", "label": "社区卫生", "name": "北京市海淀区中关村街道水清木华园社区卫生服务站", "address": "北京市海淀区中关村北二街水清木华园1-107", "source_row": "203"}, "geometry": {"type": "Point", "coordinates": [116.321802, 39.986768]}}, {"type": "Feature", "properties": {"category": "health", "label": "社区卫生", "name": "北京市海淀区中关村街道知春东里社区卫生服务站", "address": "海淀区双榆树知春东里9号楼", "source_row": "204"}, "geometry": {"type": "Point", "coordinates": [116.32043, 39.974598]}}, {"type": "Feature", "properties": {"category": "health", "label": "社区卫生", "name": "北京市海淀区紫竹院街道厂洼社区卫生服务站", "address": "海淀区紫竹院街道社区卫生服务中心一层", "source_row": "205"}, "geometry": {"type": "Point", "coordinates": [116.339244, 39.971052]}}, {"type": "Feature", "properties": {"category": "health", "label": "社区卫生", "name": "北京市海淀区紫竹院街道魏公村社区卫生服务站", "address": "魏公村小区19号楼西侧平房", "source_row": "209"}, "geometry": {"type": "Point", "coordinates": [116.310933, 39.951732]}}, {"type": "Feature", "properties": {"category": "health", "label": "社区卫生", "name": "北京体育大学社区卫生服务中心（北京体育大学医院）", "address": "北京海淀中关村北大街（圆明园东路）", "source_row": "210"}, "geometry": {"type": "Point", "coordinates": [116.314492, 40.02078]}}, {"type": "Feature", "properties": {"category": "health", "label": "社区卫生", "name": "北京邮电大学社区卫生服务中心（北京邮电大学医院）", "address": "北京海淀区西土城路10号", "source_row": "212"}, "geometry": {"type": "Point", "coordinates": [116.351734, 39.960729]}}, {"type": "Feature", "properties": {"category": "health", "label": "社区卫生", "name": "北京语言大学社区卫生服务中心", "address": "北京海淀区学院路15号", "source_row": "213"}, "geometry": {"type": "Point", "coordinates": [116.350306, 39.997814]}}, {"type": "Feature", "properties": {"category": "health", "label": "社区卫生", "name": "清华大学社区卫生服务中心", "address": "北京市海淀区清华园1号清华大学医院三层及一层、二层部分房间", "source_row": "215"}, "geometry": {"type": "Point", "coordinates": [116.320793, 40.0019]}}, {"type": "Feature", "properties": {"category": "health", "label": "社区卫生", "name": "中国地质大学（北京）社区卫生服务中心", "address": "海淀区学院路29号", "source_row": "217"}, "geometry": {"type": "Point", "coordinates": [116.342688, 39.989971]}}, {"type": "Feature", "properties": {"category": "health", "label": "社区卫生", "name": "中国矿业大学(北京)社区卫生服务站", "address": "北京市海淀区学院路丁11号", "source_row": "218"}, "geometry": {"type": "Point", "coordinates": [116.342183, 39.996189]}}, {"type": "Feature", "properties": {"category": "health", "label": "社区卫生", "name": "中国农业大学东区社区卫生服务中心（中国农业大学东区医院）", "address": "北京市海淀区清华东路17号", "source_row": "219"}, "geometry": {"type": "Point", "coordinates": [116.350795, 40.00322]}}, {"type": "Feature", "properties": {"category": "health", "label": "社区卫生", "name": "中央民族大学社区卫生服务中心", "address": "北京市海淀区中关村南大街27号", "source_row": "222"}, "geometry": {"type": "Point", "coordinates": [116.313558, 39.949391]}}, {"type": "Feature", "properties": {"category": "charging", "label": "充电站", "name": "汇智大厦", "address": "海淀区学清路9号汇智大厦进门右转", "source_row": "3"}, "geometry": {"type": "Point", "coordinates": [116.344833, 40.018511]}}, {"type": "Feature", "properties": {"category": "charging", "label": "充电站", "name": "北京市海淀区京仪大厦地面公共充电站", "address": "北京市海淀区大钟寺东路9号京仪宾馆地面停车场", "source_row": "6"}, "geometry": {"type": "Point", "coordinates": [116.331982, 39.970321]}}, {"type": "Feature", "properties": {"category": "charging", "label": "充电站", "name": "北京市海淀区清华大学汽车所公共充电站", "address": "北京市海淀区清华大学校内汽车工程系停车场", "source_row": "7"}, "geometry": {"type": "Point", "coordinates": [116.320793, 40.0019]}}, {"type": "Feature", "properties": {"category": "charging", "label": "充电站", "name": "北京市海淀区腾达大厦地下公共充电站", "address": "北京市海淀区西直门外大街168号，腾达大厦地下停车场（B1地下车库015.016.017,021-030)", "source_row": "10"}, "geometry": {"type": "Point", "coordinates": [116.321973, 39.93667]}}, {"type": "Feature", "properties": {"category": "charging", "label": "充电站", "name": "北京市海淀区翠微商场公共充电站", "address": "北京市海淀区花园路2号翠微商场西门入口左侧", "source_row": "11"}, "geometry": {"type": "Point", "coordinates": [116.345321, 39.983166]}}, {"type": "Feature", "properties": {"category": "charging", "label": "充电站", "name": "北京市海淀区牡丹电子集团公共充电站", "address": "北京市海淀区花园路2号牡丹电子集团地面停车场东侧过道内", "source_row": "12"}, "geometry": {"type": "Point", "coordinates": [116.345321, 39.983166]}}, {"type": "Feature", "properties": {"category": "charging", "label": "充电站", "name": "北京市海淀区清华科技园公共充电站", "address": "北京市海淀区中关村东路1号谷歌大厦门口", "source_row": "14"}, "geometry": {"type": "Point", "coordinates": [116.324043, 39.992004]}}, {"type": "Feature", "properties": {"category": "charging", "label": "充电站", "name": "中科院软件园充电站", "address": "北京市海淀区中关村南四街4号（地面）", "source_row": "18"}, "geometry": {"type": "Point", "coordinates": [116.329481, 39.978992]}}, {"type": "Feature", "properties": {"category": "charging", "label": "充电站", "name": "数码大厦", "address": "北京市海淀区中关村南大街2号院", "source_row": "19"}, "geometry": {"type": "Point", "coordinates": [116.317013, 39.964807]}}, {"type": "Feature", "properties": {"category": "charging", "label": "充电站", "name": "首都体育学院地上充电站", "address": "北京市海淀北三环西路11", "source_row": "25"}, "geometry": {"type": "Point", "coordinates": [116.341363, 39.968795]}}, {"type": "Feature", "properties": {"category": "charging", "label": "充电站", "name": "钻河中心", "address": "海淀区交大东路66号院地面及地下车库", "source_row": "27"}, "geometry": {"type": "Point", "coordinates": [116.344591, 39.943534]}}, {"type": "Feature", "properties": {"category": "charging", "label": "充电站", "name": "中科院计算机技术研究所", "address": "海淀区北四环保福寺桥", "source_row": "28"}, "geometry": {"type": "Point", "coordinates": [116.327141, 39.984403]}}, {"type": "Feature", "properties": {"category": "charging", "label": "充电站", "name": "北大附中", "address": "海淀黄庄北京大学附属中学地下停车场", "source_row": "29"}, "geometry": {"type": "Point", "coordinates": [116.31406, 39.976053]}}, {"type": "Feature", "properties": {"category": "charging", "label": "充电站", "name": "海淀区中航广场地下停车场公共充电站", "address": "海淀区北三环西路43号", "source_row": "31"}, "geometry": {"type": "Point", "coordinates": [116.323887, 39.967654]}}, {"type": "Feature", "properties": {"category": "charging", "label": "充电站", "name": "北京市海淀区国家图书馆公共充电站", "address": "北京市海淀区中关村南大街33号", "source_row": "33"}, "geometry": {"type": "Point", "coordinates": [116.317802, 39.943094]}}, {"type": "Feature", "properties": {"category": "charging", "label": "充电站", "name": "北京市海淀区顺事嘉业创业园公共充电站", "address": "北京市海淀区朱房路66号顺事嘉业创业园", "source_row": "36"}, "geometry": {"type": "Point", "coordinates": [116.327973, 40.025728]}}, {"type": "Feature", "properties": {"category": "charging", "label": "充电站", "name": "北京市海淀区用友软件园公共充电站", "address": "北京市海淀区中科院光电技术所食堂楼停车场", "source_row": "37"}, "geometry": {"type": "Point", "coordinates": [116.324299, 39.981876]}}, {"type": "Feature", "properties": {"category": "charging", "label": "充电站", "name": "北京市海淀区中国农业科学院公共充电站", "address": "北京市海淀区北下关街道中国农科院社区", "source_row": "38"}, "geometry": {"type": "Point", "coordinates": [116.319525, 39.956606]}}, {"type": "Feature", "properties": {"category": "charging", "label": "充电站", "name": "北京市海淀区铁科嘉苑饭店公共充电站", "address": "北京市海淀区大柳树路6号铁科嘉苑饭店停车场", "source_row": "39"}, "geometry": {"type": "Point", "coordinates": [116.330309, 39.952183]}}, {"type": "Feature", "properties": {"category": "charging", "label": "充电站", "name": "北京市海淀区中科院自动化所院外公共充电站", "address": "北京市海淀区中关村东路95号中科院自动化所院外停车场", "source_row": "40"}, "geometry": {"type": "Point", "coordinates": [116.326876, 39.978033]}}, {"type": "Feature", "properties": {"category": "charging", "label": "充电站", "name": "海淀区大钟寺家居广场优易充小站", "address": "海淀区北三环西路蓝景丽家大钟寺家居广场南", "source_row": "50"}, "geometry": {"type": "Point", "coordinates": [116.333273, 39.96541]}}, {"type": "Feature", "properties": {"category": "charging", "label": "充电站", "name": "海淀区节能大厦优易充小站", "address": "海淀区西直门北大街道路东侧节能大厦门前", "source_row": "51"}, "geometry": {"type": "Point", "coordinates": [116.350757, 39.949739]}}, {"type": "Feature", "properties": {"category": "charging", "label": "充电站", "name": "海淀区北京邮电大学优易充小站", "address": "海淀区北太平庄学院南路道路北京邮电大学旁", "source_row": "53"}, "geometry": {"type": "Point", "coordinates": [116.351898, 39.960186]}}, {"type": "Feature", "properties": {"category": "charging", "label": "充电站", "name": "方圆大厦", "address": "海淀区中关村南大街甲56号地下停车场", "source_row": "54"}, "geometry": {"type": "Point", "coordinates": [116.323521, 39.938062]}}, {"type": "Feature", "properties": {"category": "charging", "label": "充电站", "name": "海淀区京宝行地上公共充电站", "address": "北京市海淀区学院路34号", "source_row": "64"}, "geometry": {"type": "Point", "coordinates": [116.346039, 39.98627]}}, {"type": "Feature", "properties": {"category": "charging", "label": "充电站", "name": "北京市海淀区中科院物理所北院公共充电站", "address": "北京市海淀区中关村南三街8号中科院物理所北院停车场", "source_row": "71"}, "geometry": {"type": "Point", "coordinates": [116.324299, 39.981876]}}, {"type": "Feature", "properties": {"category": "charging", "label": "充电站", "name": "北京市海淀区中科院物理所南院公共充电站", "address": "北京市海淀区中关村南三街8号中科院基础科学园区M楼东侧", "source_row": "73"}, "geometry": {"type": "Point", "coordinates": [116.324299, 39.981876]}}, {"type": "Feature", "properties": {"category": "charging", "label": "充电站", "name": "北京市海淀区中航工业勘察设计研究院公共充电站", "address": "北京海淀区中关村东路中航工业勘察设计研究院对面拓中航市场停车场", "source_row": "74"}, "geometry": {"type": "Point", "coordinates": [116.327315, 39.983046]}}, {"type": "Feature", "properties": {"category": "charging", "label": "充电站", "name": "万马爱充东大停车场（南区）", "address": "北京市海淀区上地西路与G7京新高速出口交叉口西南50米东大停车场内", "source_row": "81"}, "geometry": {"type": "Point", "coordinates": [116.318749, 40.02996]}}, {"type": "Feature", "properties": {"category": "charging", "label": "充电站", "name": "万马爱充东大停车场站（北区）", "address": "北京市海淀区上地西路与G7京新高速出口交叉口西南50米东大停车场内", "source_row": "82"}, "geometry": {"type": "Point", "coordinates": [116.318749, 40.02996]}}, {"type": "Feature", "properties": {"category": "charging", "label": "充电站", "name": "北京海淀区航空航天大学本校IRC大楼南侧充电站", "address": "北京市海淀区学院路37号", "source_row": "83"}, "geometry": {"type": "Point", "coordinates": [116.344749, 39.979269]}}, {"type": "Feature", "properties": {"category": "charging", "label": "充电站", "name": "北京海淀区航空航天大学本校校医院西侧充电站", "address": "北京市海淀区学院路37号", "source_row": "84"}, "geometry": {"type": "Point", "coordinates": [116.344749, 39.979269]}}, {"type": "Feature", "properties": {"category": "charging", "label": "充电站", "name": "北京语言大学充电站", "address": "北京市海淀区学院路15号", "source_row": "86"}, "geometry": {"type": "Point", "coordinates": [116.350306, 39.997814]}}, {"type": "Feature", "properties": {"category": "charging", "label": "充电站", "name": "北京市海淀区师范大学科技楼西侧停车场", "address": "北京市海淀区新街口外大街19号科技楼西侧", "source_row": "87"}, "geometry": {"type": "Point", "coordinates": [116.360081, 39.960195]}}, {"type": "Feature", "properties": {"category": "charging", "label": "充电站", "name": "北京海淀银网中心充电站", "address": "知春路113号银网中心地下二层停车场", "source_row": "88"}, "geometry": {"type": "Point", "coordinates": [116.314655, 39.975333]}}, {"type": "Feature", "properties": {"category": "charging", "label": "充电站", "name": "海淀区城建大厦优易充小站", "address": "海淀区北太平庄路18号", "source_row": "90"}, "geometry": {"type": "Point", "coordinates": [116.364827, 39.967471]}}, {"type": "Feature", "properties": {"category": "charging", "label": "充电站", "name": "北科大体育馆地上充电站", "address": "北京市海淀区学院路30号", "source_row": "96"}, "geometry": {"type": "Point", "coordinates": [116.358721, 39.988013]}}, {"type": "Feature", "properties": {"category": "charging", "label": "充电站", "name": "海淀区中关村资本大厦", "address": "北京市海淀区学院路62号", "source_row": "99"}, "geometry": {"type": "Point", "coordinates": [116.346385, 39.976945]}}, {"type": "Feature", "properties": {"category": "charging", "label": "充电站", "name": "北京市海淀区友谊宾馆充电站", "address": "北京市海淀区中关村南大街1号", "source_row": "103"}, "geometry": {"type": "Point", "coordinates": [116.313407, 39.962949]}}, {"type": "Feature", "properties": {"category": "charging", "label": "充电站", "name": "北京舞蹈学院", "address": "北京市海淀区万寿寺路1号", "source_row": "105"}, "geometry": {"type": "Point", "coordinates": [116.313084, 39.945752]}}, {"type": "Feature", "properties": {"category": "charging", "label": "充电站", "name": "八家嘉园园区地面停车位", "address": "海淀区月泉路八家嘉园园区地面停车场", "source_row": "107"}, "geometry": {"type": "Point", "coordinates": [116.337303, 40.015175]}}, {"type": "Feature", "properties": {"category": "charging", "label": "充电站", "name": "八家嘉园地下停车场", "address": "海淀区月泉路八家嘉园地下停车场", "source_row": "110"}, "geometry": {"type": "Point", "coordinates": [116.337145, 40.014301]}}, {"type": "Feature", "properties": {"category": "charging", "label": "充电站", "name": "北京金五星科技园充电站", "address": "北京市海淀区中关村东路118号南门停车场", "source_row": "112"}, "geometry": {"type": "Point", "coordinates": [116.32873, 39.967484]}}, {"type": "Feature", "properties": {"category": "charging", "label": "充电站", "name": "北京国际大厦", "address": "北京市海淀区北下关街道中关村南大街甲18号北京·国际大厦北侧", "source_row": "120"}, "geometry": {"type": "Point", "coordinates": [116.318138, 39.952598]}}, {"type": "Feature", "properties": {"category": "charging", "label": "充电站", "name": "北京海淀嘉豪国际充电站", "address": "北京市海淀区嘉豪国际大厦地面停车场", "source_row": "121"}, "geometry": {"type": "Point", "coordinates": [116.318138, 39.952598]}}, {"type": "Feature", "properties": {"category": "charging", "label": "充电站", "name": "北京市海淀区京果商厦直流站", "address": "四道口路2号", "source_row": "142"}, "geometry": {"type": "Point", "coordinates": [116.339346, 39.958815]}}, {"type": "Feature", "properties": {"category": "charging", "label": "充电站", "name": "北京市海淀文化艺术大厦直流站", "address": "北京市海淀区中关村街道知春路海淀剧院中关村大街与知春路交叉口东侧108米", "source_row": "143"}, "geometry": {"type": "Point", "coordinates": [116.318801, 39.974041]}}, {"type": "Feature", "properties": {"category": "charging", "label": "充电站", "name": "中国人民大学立德楼地库充电站", "address": "北京市市辖区海淀区海淀街道中国人民大学", "source_row": "144"}, "geometry": {"type": "Point", "coordinates": [116.313701, 39.968989]}}, {"type": "Feature", "properties": {"category": "charging", "label": "充电站", "name": "吉事充五道口嘉园充电站", "address": "北京市海淀区学院路街道暂安处2号院五道口嘉园", "source_row": "146"}, "geometry": {"type": "Point", "coordinates": [116.333521, 39.988632]}}, {"type": "Feature", "properties": {"category": "charging", "label": "充电站", "name": "北京市海淀区大钟寺怡和8号院直流站", "address": "北京市海淀区四道口北街大钟寺8号", "source_row": "149"}, "geometry": {"type": "Point", "coordinates": [116.333273, 39.96541]}}, {"type": "Feature", "properties": {"category": "charging", "label": "充电站", "name": "海淀区蓝景丽家大钟寺充电站", "address": "中关村街道北三环西路219号", "source_row": "159"}, "geometry": {"type": "Point", "coordinates": [116.32362, 39.96746]}}, {"type": "Feature", "properties": {"category": "charging", "label": "充电站", "name": "北京蓝景丽家大钟寺家居S4小鹏超快充站", "address": "蓝景丽家地面车位（入口：北三环西路辅路），北京市海淀区北三环西路23号院", "source_row": "174"}, "geometry": {"type": "Point", "coordinates": [116.323177, 39.965854]}}, {"type": "Feature", "properties": {"category": "charging", "label": "充电站", "name": "中国矿业大学学院路校区充电站", "address": "北京海淀区学院路丁11号东1们进直行500米右转再直行200米侧逸夫楼旁边", "source_row": "181"}, "geometry": {"type": "Point", "coordinates": [116.342183, 39.996189]}}, {"type": "Feature", "properties": {"category": "charging", "label": "充电站", "name": "蔚来超充站北京清河水木天成", "address": "北京市海淀区G6辅路与清河路交叉口东北方向60米", "source_row": "188"}, "geometry": {"type": "Point", "coordinates": [116.344567, 40.025945]}}, {"type": "Feature", "properties": {"category": "charging", "label": "充电站", "name": "（公共站）北京市海淀区中关村集成电路设计园2号楼C座地下二层停车场公共充电站", "address": "北京市海淀区中关村集成电路设计园2号楼D座地下二层停车场", "source_row": "194"}, "geometry": {"type": "Point", "coordinates": [116.345321, 39.983166]}}, {"type": "Feature", "properties": {"category": "charging", "label": "充电站", "name": "（公共站）北京市海淀区中关村集成电路设计园2号楼D座地下二层停车场公共充电站", "address": "北京市海淀区中关村集成电路设计园2号楼D座地下二层停车场", "source_row": "195"}, "geometry": {"type": "Point", "coordinates": [116.345321, 39.983166]}}]}