{"type": "FeatureCollection", "name": "haidian_district_gaode", "crs": {"type": "name", "properties": {"name": "EPSG:4326"}}, "metadata": {"title": "haidian_district_gaode", "generated_at": "2026-08-14", "source": "高德开放平台 Web 服务（restapi.amap.com）", "license_attribution": "数据 © 高德地图（高德开放平台 Web 服务），background_reference", "crs_note": "高德原始坐标为 GCJ-02，已近似逆变换为 WGS84（误差数米）；background_reference，非 official", "purpose": "海淀区行政边界背景参考，与锚点/文字四至对照（GAP-BOUNDARY-001/002 背景）", "authority": "background_reference（公开商业地图背景参考，不构成 official 红线）"}, "features": [{"type": "Feature", "properties": {"layer": "GAODE_DISTRICT_BOUNDARY", "name": "海淀区", "adcode": "110108", "source": "DATA-SRC-GAODE-DISTRICT-BOUNDARY-20260814", "official_boundary": false, "usable_for_formal": "background_only", "crs_source": "GCJ-02→WGS84 近似转换（误差数米）", "precision_note": "高德行政区划轮廓为背景参考，非官方红线；边界精度数米级，实际以规自委 official 为准"}, "geometry": {"type": "Polygon", "coordinates": [[[[116.04257238472987, 40.083948662030885], [116.0425374580701, 40.08399273290583], [116.04261516326937, 40.08491650434198], [116.0427278607194, 40.08529024020988], [116.04277171601356, 40.085646122810154], [116.04288439086052, 40.08620184645289], [116.0429801540971, 40.0863706331888], [116.04323156413761, 40.086584090992254], [116.04340616189997, 40.08668771892179], [116.0437354106006, 40.08685702211313], [116.04388306490242, 40.087013705192405], [116.04398681889792, 40.08715248093777], [116.0440047002111, 40.08776840038683], [116.0441094542808, 40.08789417540543], [116.04442172880253, 40.08823350959715], [116.04475989214845, 40.089036761405794], [116.0450033080474, 40.08950023349758], [116.04514196861518, 40.08982592927099], [116.04544627596646, 40.090160291393616], [116.04554205338553, 40.09030808825594], [116.04571568341633, 40.0903247389971], [116.0461317981021, 40.090399904002666], [116.04658382732505, 40.09062499391038], [116.04687020943284, 40.09082941681063], [116.04715661187377, 40.090906851955545], [116.04737415977758, 40.09097242448356], [116.04752085178484, 40.09105113475195], [116.04774735145264, 40.09138067388432], [116.04776429936328, 40.09151963116251], [116.04773830579833, 40.091875655253304], [116.04782509128461, 40.092183465851626], [116.04800767036292, 40.09260508475134], [116.04809447374032, 40.09278290564299], [116.0481293687997, 40.09305581892084], [116.04811236403397, 40.09335582933177], [116.0486671876339, 40.09394173184647], [116.04957926618883, 40.095065941164464], [116.04989163327721, 40.095330344191645], [116.04997846256396, 40.09537018143368], [116.050204025374, 40.09543876260822], [116.0503776781648, 40.09558743436257], [116.05056929788876, 40.09574307414743], [116.05082979554116, 40.09586459349967], [116.05119410326373, 40.09599992838788], [116.05136778063142, 40.09602561606585], [116.05173309382636, 40.09618195536178], [116.05193272460616, 40.09624259841202], [116.05206247560568, 40.09636036137768], [116.0521413066201, 40.09657220714025], [116.0522361226523, 40.09668103292333], [116.05237486469157, 40.09675978469922], [116.05258348949592, 40.096794419209544], [116.0526793020561, 40.09693324267462], [116.05280107055177, 40.0970630223566], [116.0530436344199, 40.09714559853157], [116.05341697490924, 40.097227954219434], [116.05359066985484, 40.09727165597014], [116.05378233230158, 40.097341326666], [116.05427649689746, 40.09731949973914], [116.05439829049169, 40.09733329601046], [116.05453704155832, 40.097463056027244], [116.05480655813884, 40.0977365904706], [116.05498924320682, 40.097840282777206], [116.05517093992825, 40.09787998291663], [116.05541453796154, 40.097918584137], [116.0555533008552, 40.09801435246648], [116.05563115390733, 40.098179214386406], [116.05581376782797, 40.098895866250544], [116.05593553672092, 40.099177649749834], [116.05605720261988, 40.10026337217023], [116.05608314629129, 40.10038032182428], [116.05604818837111, 40.100484369484654], [116.0560222195767, 40.10056240486134], [116.0561530007528, 40.10064918992739], [116.05646546635558, 40.10097467011076], [116.0565692814662, 40.101148493196845], [116.0566132000107, 40.10124841643674], [116.05658722320257, 40.10138244683799], [116.05660418936426, 40.1014394157568], [116.05692566826042, 40.101612899460534], [116.0576725025542, 40.10183473075861], [116.05812381268107, 40.10196903581166], [116.0582795714046, 40.102059794489065], [116.05861006060076, 40.1022772838752], [116.05883572090283, 40.1023819412875], [116.0590184549733, 40.102411669745244], [116.05937394858759, 40.102425149002414], [116.0596086236812, 40.102390811558536], [116.05994715163183, 40.10240832366475], [116.06061624563016, 40.10237737884677], [116.06095479231429, 40.10239490548688], [116.06118048831691, 40.10244758943887], [116.06132728866608, 40.10250838296803], [116.06169279001719, 40.10271186883324], [116.06209225479343, 40.102924314258885], [116.06228300579896, 40.1029990539571], [116.0623698907475, 40.103050934512105], [116.06244778273609, 40.10313782453448], [116.06261256402648, 40.10325459799987], [116.06270844006701, 40.103302468309714], [116.06282129694507, 40.10334231745644], [116.06312590397219, 40.10352890682336], [116.06322077387061, 40.10365477441015], [116.06334259755221, 40.1038935988442], [116.06342947199145, 40.104066473818165], [116.06347239800279, 40.104245404758025], [116.06349834662348, 40.104405358939694], [116.06362016715187, 40.10468318165882], [116.06377694203555, 40.10500495724581], [116.06387179638219, 40.10527781573363], [116.06392471757893, 40.10541273831506], [116.06409848300852, 40.105677499154176], [116.06425427344354, 40.10592028538807], [116.06433216303036, 40.106089175093004], [116.06441105221666, 40.106255064051595], [116.0644280190711, 40.10636303440252], [116.06452389644434, 40.106475906984684], [116.06463576202788, 40.10654576378853], [116.06478358955891, 40.10660657792643], [116.06504428718722, 40.10672325172143], [116.06523606979331, 40.10678901525966], [116.06537491315846, 40.10684084473555], [116.06543484477635, 40.106871770701055], [116.0654787909737, 40.10692371415612], [116.06554869897279, 40.10705762024471], [116.06561761102434, 40.10717052941226], [116.06565255530558, 40.1073144764299], [116.06569550206503, 40.10737442082678], [116.0657654225587, 40.10741833480927], [116.06602613114525, 40.1075620175891], [116.0661469975781, 40.10762687167655], [116.06626086192055, 40.107769728182035], [116.06632977894692, 40.10786564083747], [116.06635573613347, 40.10799160070683], [116.06634671672451, 40.10821259315703], [116.06638165972993, 40.108377539508936], [116.06652049062156, 40.10859536243685], [116.06658141063149, 40.108738281137825], [116.06659838176094, 40.10882925434393], [116.06651246067482, 40.108889347660885], [116.06639058098732, 40.10891548541198], [116.0662946732069, 40.10895959234717], [116.06618178136351, 40.109019718066534], [116.06619974939905, 40.10912368874212], [116.0662426933481, 40.10921563150088], [116.06624267989646, 40.10931962300804], [116.06626064514815, 40.10944559191627], [116.06638149300619, 40.10966643441821], [116.06641644733195, 40.10974438782285], [116.0664423994702, 40.10991034438298], [116.06663317870988, 40.110127108323546], [116.06672007648987, 40.11024399982965], [116.06690287672919, 40.11038278149492], [116.06704172246097, 40.1105176142111], [116.06711164052774, 40.11062152731835], [116.06715458449888, 40.11073047032575], [116.06725047108935, 40.11088635056936], [116.06729340699027, 40.11106028845351], [116.0672843988682, 40.11119028769141], [116.06725840215225, 40.11135930257382], [116.06722441426695, 40.111520327031464], [116.06719842721304, 40.11161534809165], [116.06719840974787, 40.111750336888456], [116.0671464485631, 40.111841387296124], [116.06705052217792, 40.11199748165525], [116.06694657496183, 40.11237956657479], [116.06692857589496, 40.11250957598289], [116.0669115539947, 40.11280857014757], [116.06691153432985, 40.112960557432494], [116.06694646822824, 40.11320449760434], [116.06701539362271, 40.113256415747294], [116.0671032995536, 40.11331731209805], [116.0671722227162, 40.11339122886827], [116.06722415318445, 40.11353815861829], [116.06736297841638, 40.11385097809255], [116.06741491669335, 40.113941912960904], [116.06751081194493, 40.11404179875249], [116.0677975286935, 40.11413347717707], [116.06796237196752, 40.11415529654974], [116.06813621305659, 40.11414211042682], [116.06831805145504, 40.11410691898378], [116.06850987876133, 40.11410271583333], [116.06883959088718, 40.11406437310649], [116.06923924821122, 40.1140339627963], [116.06960394500922, 40.11399459556303], [116.06980278792827, 40.113934401101595], [116.06998564791616, 40.11386022541245], [116.07015052814663, 40.11375607141571], [116.07025445558682, 40.113673976353795], [116.07034139606398, 40.11359989765206], [116.07042833749331, 40.113521819620345], [116.07054125232028, 40.113495712442806], [116.07064517148176, 40.113495612294095], [116.07107982986862, 40.11357419199135], [116.07154048032281, 40.11365275617502], [116.07173932804884, 40.11372656762163], [116.07193017640691, 40.11385638334513], [116.07215700545356, 40.11396017070075], [116.07239082304322, 40.11413894785051], [116.07273854869906, 40.11447361511648], [116.07285145953621, 40.11459450719228], [116.07287743768042, 40.114633481495495], [116.07289442334644, 40.114659464667334], [116.0729383932238, 40.114673425683094], [116.0731032887036, 40.11466828513251], [116.07318123668713, 40.11469021705246], [116.07327717212347, 40.11472513296468], [116.07336311089904, 40.11478605547488], [116.0735030182695, 40.114837934043244], [116.07378083811325, 40.114937695792634], [116.07416260321067, 40.11503337757484], [116.07424955035646, 40.11505930566527], [116.07432750299398, 40.11508524125495], [116.07445742475254, 40.11512913445417], [116.07458734593537, 40.11518502739211], [116.07467529234854, 40.11522895483159], [116.0747272570098, 40.115284909568054], [116.07477022535569, 40.11535087055445], [116.07485716093095, 40.11548979140138], [116.07488313484019, 40.1155847632577], [116.07493509391193, 40.1156887143784], [116.07507401000835, 40.115775600586346], [116.075108986197, 40.115819570185266], [116.07519592801157, 40.11592349530927], [116.0752219091644, 40.115966471979604], [116.07521290080723, 40.11606647023902], [116.07523887965469, 40.11612744538714], [116.07547374636043, 40.11624525917367], [116.07560366276729, 40.11639714980111], [116.07577754055696, 40.11669199672608], [116.0758644850953, 40.11680092398705], [116.0759944056126, 40.11694381762679], [116.07607236108686, 40.11700875595868], [116.07609034438644, 40.117073737465766], [116.0760993295032, 40.11715672387813], [116.0760293410609, 40.11731676033073], [116.07597734942355, 40.117438787272114], [116.07597734048751, 40.11750778132092], [116.07607228636101, 40.11758570625086], [116.07622920400185, 40.117668587035375], [116.07644609947815, 40.117729428721844], [116.07669798668282, 40.11776025097461], [116.07701884956688, 40.11779002951879], [116.07720177292121, 40.11781590457572], [116.07736670061588, 40.11787678996729], [116.07749664023524, 40.11795969750901], [116.07755760381485, 40.11806364875407], [116.0775925715748, 40.11821161319935], [116.07761854675687, 40.11832858620273], [116.07765352202333, 40.1184195556698], [116.07774047771481, 40.11851549130462], [116.07787941021499, 40.11865039076261], [116.07796536804564, 40.118741328337244], [116.07805332561395, 40.118832264984285], [116.07808731156285, 40.118850242092805], [116.0781393179908, 40.1186632258457], [116.07824330372763, 40.11850217517261], [116.07836527511958, 40.11841110784049], [116.07853023416642, 40.11831601540108], [116.0787561609332, 40.11833787757999], [116.07934699192555, 40.11832953373357], [116.07953795089038, 40.11825543216677], [116.07998085005097, 40.118190193671914], [116.08020680258385, 40.118160075132366], [116.08051874381192, 40.1181039165272], [116.08070171328234, 40.1180608264172], [116.08150057841291, 40.11806043438803], [116.08171755490932, 40.118008337379976], [116.08189054506218, 40.11791326619104], [116.08223852712399, 40.1177481247967], [116.08244650529083, 40.11776103323483], [116.08268948310935, 40.11777492883138], [116.08282846910852, 40.117804868402864], [116.08305444144709, 40.11790976714115], [116.08315043533254, 40.11791772798644], [116.08338442855504, 40.11789163821645], [116.08342742366673, 40.117917619325205], [116.08339341915979, 40.11796162867018], [116.08328840137278, 40.118130654981464], [116.08324538471311, 40.11827365949748], [116.08322837084118, 40.11838665640341], [116.08328835356942, 40.11849962297467], [116.08334134299622, 40.11856459659959], [116.08342833476247, 40.11860355945738], [116.08354133063578, 40.11860851568946], [116.08382733082762, 40.11856441239745], [116.0839493297859, 40.11856536773442], [116.08418331813381, 40.118660275847084], [116.08439231737486, 40.118691200530975], [116.08458332929207, 40.118639140397285], [116.08476535030708, 40.11853008978114], [116.08494735846268, 40.11853503074216], [116.08523437453854, 40.11854794020978], [116.08536437572333, 40.11861289527804], [116.08544237236687, 40.118686865637514], [116.0854943677759, 40.11875584431572], [116.08554635764014, 40.11886881928199], [116.08559936070645, 40.11888180278259], [116.08579039030828, 40.11879575592828], [116.08612043453051, 40.118738670841296], [116.08640647540477, 40.118708599342604], [116.08656249691177, 40.11871356002306], [116.08663250510462, 40.11873054144888], [116.08665850398478, 40.11876953176202], [116.0867025011416, 40.118843514739154], [116.08677150351966, 40.118908492657575], [116.08682350950652, 40.11892647885388], [116.08713556435922, 40.11891340909877], [116.08733559412049, 40.118969361059676], [116.08785666463561, 40.1192522322992], [116.08821272827053, 40.11939515562676], [116.08841276464844, 40.11949511329537], [116.08848176989048, 40.119590093809805], [116.08857778465395, 40.119668071784176], [116.0886637999939, 40.11972505352402], [116.08877682764366, 40.119747034659056], [116.08895987974672, 40.11973800921492], [116.0890899216246, 40.119702994544795], [116.0892289619699, 40.119707975971714], [116.0894460207792, 40.11976494437605], [116.08961106512947, 40.119824920283214], [116.08970609299149, 40.11984690805531], [116.08982813707058, 40.11981689804043], [116.0899321810687, 40.1197468939122], [116.08996621062849, 40.11960790282833], [116.08998423413053, 40.11947391284659], [116.09017533308725, 40.119221917694176], [116.0908526713032, 40.11855392796494], [116.09101776973428, 40.11829794156913], [116.09116487024126, 40.117980962363816], [116.09162511076462, 40.11762097873065], [116.09201631926942, 40.117355996336315], [116.09220741473409, 40.11730000102473], [116.09236348609954, 40.1173170006293], [116.09286772015737, 40.11741700271802], [116.09338815452996, 40.11614613450183], [116.09362233718466, 40.11571118566632], [116.0937784291802, 40.11566420033955], [116.09386550474646, 40.11545522454897], [116.09387452610518, 40.11532923595128], [116.0938315199313, 40.115191244458615], [116.0937785079187, 40.115056252060896], [116.09381354032945, 40.11495626308572], [116.09387458451056, 40.11487827425177], [116.0940917107926, 40.11485229394915], [116.09459500797624, 40.11483534376822], [116.09481214915361, 40.11476137428284], [116.09541153603493, 40.11468345833354], [116.09569772914082, 40.1146355048124], [116.09589786924582, 40.114583540958506], [116.09591487511622, 40.114626540096076], [116.09584580729502, 40.114792514839614], [116.0958027600408, 40.11493549584073], [116.09598488237184, 40.11493552547656], [116.09595883953475, 40.115130504603385], [116.0968794777165, 40.115182670635384], [116.09905905415815, 40.11622112884949], [116.09902400547321, 40.1163691058139], [116.09951039053281, 40.116607233954085], [116.1021591035468, 40.11485036486322], [116.10309611516463, 40.114511809537845], [116.10397309538673, 40.11425625271263], [116.10424239808044, 40.114226390907014], [116.10448567354953, 40.114208517476165], [116.10466788852408, 40.114143618172484], [116.10483308683907, 40.114069711878585], [116.10493721104892, 40.11403477051771], [116.10508538400273, 40.11402185160565], [116.10530263262291, 40.11405696751786], [116.10550186067688, 40.11410507412007], [116.10568407837653, 40.114092177792635], [116.10595340979526, 40.11402233771015], [116.10640497931965, 40.11386161591062], [116.10674340956211, 40.11376682748746], [116.1069957284069, 40.11373998445614], [116.1069776461523, 40.11420093446294], [116.11158894497821, 40.114297180952185], [116.11179724469919, 40.11437134060066], [116.11222288586852, 40.11434968641661], [116.11257040328131, 40.11442796558611], [116.11304711758505, 40.114571352661514], [116.11335960311791, 40.11457561844616], [116.11761467785189, 40.11445959691705], [116.11810052708825, 40.11452008479798], [116.1192736163079, 40.1146892934709], [116.1202283594028, 40.114828310644846], [116.12136648556523, 40.11500256111782], [116.12154783613931, 40.11497676873948], [116.12168711724087, 40.114871936107114], [116.12270327142691, 40.11348722758039], [116.12280748912832, 40.11338835818133], [116.12292873364655, 40.113345504489196], [116.12310207529458, 40.11335370862986], [116.12341468623657, 40.11343207379509], [116.12433551355814, 40.113619170415944], [116.12566423220849, 40.11369681378477], [116.12589872008317, 40.113701109999035], [116.12595941864394, 40.11702990429615], [116.12597630303728, 40.11820282462231], [116.1266104076556, 40.11997748156162], [116.13626536186078, 40.120201145999914], [116.13632552083118, 40.12010024725661], [116.14644031520913, 40.12041877855197], [116.14746502948661, 40.120614536669], [116.15065158128641, 40.121231094006326], [116.15659790281788, 40.12237276230644], [116.15672827846517, 40.122290009185264], [116.1570922885141, 40.122368671568424], [116.16092998817597, 40.123214699930465], [116.16260472320536, 40.12323281800036], [116.16336086377473, 40.12323722855792], [116.16355134090306, 40.12372754025194], [116.16336875636817, 40.124257151791696], [116.1631520781205, 40.12476470158548], [116.16293444137364, 40.12492528093562], [116.1626305577491, 40.125107697516384], [116.16234472208293, 40.125316145586986], [116.16118129561998, 40.12637888165188], [116.16118120088089, 40.127120813586195], [116.16189623344589, 40.127040152484575], [116.1619674398687, 40.12700128873155], [116.16206070120067, 40.127021460685775], [116.16428804104407, 40.12676864058379], [116.16432414676507, 40.126741710497136], [116.16437528961741, 40.126757804566736], [116.16557370219856, 40.12662205632386], [116.16444488780031, 40.13146649698521], [116.16415005299447, 40.13146194663751], [116.16312595354096, 40.13301988668077], [116.1624137972107, 40.13411745311693], [116.16148565878304, 40.138137332539046], [116.16146830782175, 40.140507064870945], [116.16792637287317, 40.142273944892004], [116.17423664290519, 40.145984277914756], [116.17426256655281, 40.147155203780216], [116.1742625641347, 40.14717420179136], [116.17426356425719, 40.14719520143811], [116.17430643472933, 40.14915707407428], [116.17692733863326, 40.15203456426599], [116.17705761314382, 40.15270272915272], [116.17725799737576, 40.154026949574394], [116.1773189627035, 40.15562388522564], [116.17729288925422, 40.15563683643087], [116.17668515582739, 40.156088680813134], [116.1766500340926, 40.156283595256774], [116.17658884464512, 40.156444465919975], [116.1765116041981, 40.15665730150242], [116.17651158714867, 40.15679128660279], [116.17673720425846, 40.156839692432214], [116.17749233310491, 40.15646610696552], [116.17935850152818, 40.156018527083575], [116.18010455696677, 40.15581488718629], [116.1808776986007, 40.155441308102205], [116.1819797396663, 40.15486832577216], [116.18300354693439, 40.1543301872572], [116.1833856066255, 40.15399589296895], [116.18450556544961, 40.1540568366477], [116.18477425376068, 40.15421328486914], [116.18493065703892, 40.15427854811623], [116.1851482271493, 40.15429092229529], [116.18540790817313, 40.154291369558536], [116.1857116993419, 40.154321888252305], [116.18590319187577, 40.15438221000551], [116.18806423592129, 40.15870039721978], [116.18813340048088, 40.158800502052905], [116.19216049878543, 40.158982096083626], [116.1921173172479, 40.15957695964969], [116.19603173467377, 40.159715077001316], [116.19618824696013, 40.1585734441966], [116.19638686314546, 40.15738487910542], [116.19645717477424, 40.15622111503644], [116.1966126381562, 40.15543143768652], [116.1967610241043, 40.1551186963501], [116.19676908125791, 40.154814741885446], [116.19676009474607, 40.154541758236924], [116.19687337797318, 40.154389945733875], [116.19693358945017, 40.153825098125466], [116.19690857386892, 40.153487097254434], [116.1970901209277, 40.15249747767939], [116.19773270683172, 40.151707523583184], [116.19834016974278, 40.15115548240725], [116.19878324986865, 40.15059119352185], [116.19909502665517, 40.15003170831305], [116.1993987829097, 40.14946720950733], [116.19954618435067, 40.14891148165605], [116.19951224983718, 40.14778755094106], [116.1994602428879, 40.146915566930915], [116.1995114434259, 40.14623771158722], [116.19955469649695, 40.14500090210684], [116.19960698501883, 40.14364311698716], [116.1997544375907, 40.14267442832102], [116.20016245551187, 40.14182410016231], [116.20089115703198, 40.1411212070031], [116.20176815407454, 40.140491499638586], [116.20256694807321, 40.139935658178445], [116.2034348667399, 40.1393758938163], [116.20443299284562, 40.13911025276758], [116.20532681837565, 40.13925440925339], [116.20612543511028, 40.13930143235418], [116.20654124880832, 40.13947494329173], [116.20691494722018, 40.139848376691546], [116.20782559365946, 40.14102438933541], [116.2083295211744, 40.14143696324214], [116.20878936657725, 40.14175348655636], [116.20935341998961, 40.141922142243224], [116.21019500937838, 40.14184913608955], [116.21042043175173, 40.14181839988155], [116.2104635786535, 40.14128550335259], [116.21057594677465, 40.140009760513976], [116.21654144720912, 40.13825924082982], [116.21686597599118, 40.138158561676754], [116.21727953948368, 40.13885588394721], [116.21846542163662, 40.13840501949847], [116.22088706499592, 40.13753218834862], [116.22280472408006, 40.13714073540033], [116.22413250494905, 40.13655876272666], [116.22549522053426, 40.136172732293595], [116.22772486228305, 40.135348195557626], [116.22959082149163, 40.135204230078486], [116.23130948459087, 40.135008077306296], [116.2324194567451, 40.135081547624885], [116.23445910606135, 40.13504630980454], [116.2351966630816, 40.134942556211186], [116.23593417942175, 40.13494677187264], [116.23666364871906, 40.13506795385107], [116.23751417944624, 40.135072154121325], [116.24099398558972, 40.13497970052498], [116.24099404004667, 40.13454574248422], [116.24089813535743, 40.13345683855188], [116.2408032024044, 40.1325929121952], [116.24073325933801, 40.13189397186352], [116.24045632510847, 40.13038008604393], [116.24023052589179, 40.12794928703102], [116.23996975145316, 40.1251665100725], [116.2395701983522, 40.12004091376985], [116.2393821034505, 40.120040886274175], [116.2387717875057, 40.120006790854376], [116.23877278917467, 40.119997791817205], [116.23888495985015, 40.11911688804027], [116.2389280377176, 40.11867893342198], [116.23893709968934, 40.11822297454265], [116.23894614372426, 40.11791000316669], [116.23898020101556, 40.117597035868044], [116.23576929483704, 40.11717334908712], [116.23711476469666, 40.11249809580608], [116.23729693290991, 40.112055174943286], [116.23447643892308, 40.108566669292216], [116.23448545938696, 40.108457681162314], [116.2345285162567, 40.108262711317764], [116.23451953618415, 40.10804972561344], [116.23444163612176, 40.10678280189226], [116.23602088988092, 40.10581836175998], [116.23729680452246, 40.105097741001], [116.2385466231632, 40.1043770541546], [116.2399003549673, 40.104125284978906], [116.24059466310781, 40.10424635675189], [116.2429985273753, 40.10478045519321], [116.24308455214783, 40.104805454189815], [116.24478594874427, 40.10543036624114], [116.24583617195995, 40.10540428994303], [116.24666932038771, 40.10529520672989], [116.24738945580985, 40.10491813611139], [116.2479015461677, 40.10457008024892], [116.24981876839634, 40.103254783525216], [116.25086870070524, 40.10341949249449], [116.25233548353515, 40.10388799773528], [116.25317724935233, 40.104642638873756], [116.2535160542213, 40.105671429092986], [116.25314297385385, 40.10689147179752], [116.2524399556794, 40.107976634850395], [116.25164998186229, 40.108588844808764], [116.25129495700229, 40.10907491425985], [116.25133788116233, 40.109647854417695], [116.25196267826978, 40.11071557035353], [116.25221464276419, 40.11073248570103], [116.2534374459715, 40.11065005474027], [116.25482613945302, 40.110497502577296], [116.25546800450395, 40.11011524885021], [116.25551199611527, 40.11007623195394], [116.25555499006676, 40.11002021684182], [116.2555729894578, 40.10998121177336], [116.25559898587593, 40.10994620267746], [116.25562398144099, 40.10992019327867], [116.25566797158507, 40.1098901753859], [116.25572895643552, 40.10985914959161], [116.25580693671614, 40.10982011635554], [116.25589391267509, 40.1097900779112], [116.25605886443783, 40.10974600317408], [116.25621481877559, 40.10969493236126], [116.25635377577039, 40.1096598676534], [116.25657870255573, 40.10961576036612], [116.25689159967355, 40.10952961005432], [116.25711652427115, 40.109455500777315], [116.25728247324211, 40.10935142300723], [116.25729048428518, 40.10923842806565], [116.2570996200042, 40.108743567714086], [116.25703067500797, 40.10851362196655], [116.25703869379522, 40.10833963200596], [116.2572386465382, 40.10810554750101], [116.25778550151935, 40.1075113050386], [116.25783749957273, 40.107354289530086], [116.25782052621085, 40.10719831134635], [116.25776756186939, 40.10708934883444], [116.2576116414834, 40.10696444278439], [116.25734277677788, 40.1067426031984], [116.25722984317568, 40.106564676595134], [116.25719588075889, 40.10636970993515], [116.25722990195753, 40.10609571420508], [116.25737786363985, 40.10593964919969], [116.25778575182206, 40.10551446537859], [116.25800269116114, 40.105271366446594], [116.25815864654697, 40.105093294508166], [116.25846256223019, 40.104698155545066], [116.25852354849667, 40.104589129603895], [116.25857554342473, 40.10444211166202], [116.25859254661884, 40.10435510885515], [116.25858356160632, 40.104268120872575], [116.25855758428477, 40.10418114256651], [116.25847963181874, 40.10408219468556], [116.25813284389837, 40.10360842644856], [116.25788099457975, 40.103261592155434], [116.25786400721358, 40.10321760486594], [116.25785502990061, 40.10306662161556], [116.25783707175344, 40.10279265287729], [116.25247786753405, 40.100655201478766], [116.2522849089331, 40.100551275367316], [116.25222394983365, 40.10029331578378], [116.25332785085503, 40.09961397496051], [116.25642330850417, 40.097241811586485], [116.25666545344075, 40.095401829672255], [116.25709128329561, 40.09550160583861], [116.25769002870224, 40.095644279674765], [116.25784596368038, 40.095648195059546], [116.25793292442506, 40.09567014600799], [116.25796790036644, 40.095744121328934], [116.25804585905222, 40.095809073632], [116.25811482507633, 40.095844032934686], [116.25824477145055, 40.09582196236325], [116.25865361249862, 40.09563174534628], [116.25887850849092, 40.09563161555887], [116.2587486233835, 40.095196723208915], [116.25918263542586, 40.09346559787681], [116.2620550162596, 40.093731728366485], [116.26745836941068, 40.09058568861385], [116.26949197161109, 40.08683109055316], [116.26958490549279, 40.08664201529177], [116.26961388141993, 40.086609989866744], [116.26961688252413, 40.086577989252724], [116.27146148631799, 40.08284242984911], [116.27382242637988, 40.07851423363922], [116.27400421356187, 40.07853403327082], [116.27461246871567, 40.078780343251864], [116.28034276778313, 40.08061432168428], [116.2803627370831, 40.080633294669084], [116.28039768762065, 40.08063224968112], [116.2807301999239, 40.08073981196912], [116.2811925148364, 40.080889198190405], [116.28121448059076, 40.0809081680719], [116.28125042841654, 40.08090812086407], [116.28176665265933, 40.0810754275396], [116.28272318872172, 40.08138612324434], [116.28279108944079, 40.08136103291369], [116.28281105250281, 40.08141500215225], [116.28427074889683, 40.08188896027584], [116.28481801886927, 40.08084726322657], [116.28599839930554, 40.07867272678387], [116.28768201538408, 40.07549947523086], [116.28912188898579, 40.07288648450407], [116.28950431199003, 40.07219994649886], [116.29682745258863, 40.05877100361336], [116.29962061223546, 40.061057100061674], [116.30343002909905, 40.0588445197335], [116.30673183476677, 40.059983467123914], [116.30698548356692, 40.05841409446367], [116.31231746738062, 40.06031304445434], [116.31417945009838, 40.05890360116848], [116.31812693687114, 40.055099282002864], [116.31880247770688, 40.05438602642554], [116.31889027907219, 40.05436285914387], [116.31980329270878, 40.05348215520342], [116.32193027300026, 40.054437009055505], [116.32232941408058, 40.05395326874463], [116.32257190164547, 40.05358482322609], [116.32259684628063, 40.053567776203515], [116.32265969664593, 40.05360465316799], [116.3227095790721, 40.053624556054615], [116.32478658445909, 40.05523146999713], [116.32564851957663, 40.05584577951914], [116.32563654056835, 40.05589779949223], [116.32562256476332, 40.055960822658776], [116.3256415137339, 40.056018782936555], [116.32562649458481, 40.05644178719724], [116.32561447868225, 40.05678479029268], [116.32561147632316, 40.05685779179999], [116.32560246658333, 40.05709779508979], [116.32559946333672, 40.057177796181776], [116.32557943856516, 40.05773580196297], [116.32557743428755, 40.05780580170579], [116.3255524064294, 40.058478810191914], [116.32903937962867, 40.058569135679946], [116.3292391104227, 40.057089842180446], [116.32925906817141, 40.0570628057747], [116.32926506297184, 40.056995798275935], [116.32925808568513, 40.05694281464538], [116.3308194800733, 40.057249832702574], [116.33265127673302, 40.05758835766343], [116.33409151762488, 40.05374288327484], [116.33717359946104, 40.0541071612011], [116.33702582208649, 40.054923385238524], [116.33649656577168, 40.05828716189292], [116.33668115429568, 40.05830382138429], [116.33684378793565, 40.05835151976182], [116.33753624180355, 40.058479243488016], [116.33763901280787, 40.058499054515586], [116.34076812253748, 40.05907736889109], [116.34084994166697, 40.05911522072415], [116.34100958911012, 40.059188931911756], [116.34103552779139, 40.05923288313121], [116.34091953607108, 40.06112097733661], [116.34073776488763, 40.06239222505689], [116.3408445352696, 40.06239103466928], [116.34104210506543, 40.06243468005308], [116.34111993187777, 40.062482538671134], [116.34280629534388, 40.062826540071775], [116.34335936325922, 40.06099268377739], [116.34586310003867, 40.06149234397028], [116.34573929321074, 40.061967525872895], [116.34612848182223, 40.06208085842042], [116.34574908977916, 40.06340242243993], [116.35223215048896, 40.06461874511745], [116.35680285536527, 40.064556849504484], [116.35691626968931, 40.06758649788926], [116.36405275135006, 40.06743588315974], [116.36412158638143, 40.067925767082045], [116.36629257355307, 40.06704120175111], [116.36565055094442, 40.06647699611522], [116.3655028434144, 40.065838212156066], [116.3663965788269, 40.06586915253911], [116.36711779553949, 40.06422841846576], [116.36885445063952, 40.06454145965137], [116.37212741298667, 40.06488006190817], [116.3748455784915, 40.06393460274392], [116.37482745768868, 40.065020552287116], [116.37567860383241, 40.0649988203205], [116.37659034217343, 40.06018135547543], [116.37398600318261, 40.05983361622942], [116.37397710017328, 40.05915166468157], [116.37251873422154, 40.05890004264651], [116.3730213384485, 40.057597640728424], [116.37053032456325, 40.05692413879648], [116.37013970824509, 40.05767050045324], [116.36937468894051, 40.05749331965312], [116.36958350463811, 40.05687213314213], [116.36886245134207, 40.056658921023015], [116.36851582709727, 40.057236266415615], [116.36725655237916, 40.05685469941377], [116.36721363297254, 40.05668075854453], [116.36601531871256, 40.05646316367226], [116.36651873302958, 40.05554362628825], [116.36573685015702, 40.0553875561884], [116.36675274228344, 40.0529475032862], [116.361152189705, 40.052057530099], [116.36335759488252, 40.045573027198934], [116.36525976809544, 40.045738668401405], [116.36578928547152, 40.043607149746634], [116.36641439994101, 40.043668409658274], [116.36686577045572, 40.04371188316013], [116.36933147008388, 40.04402912136155], [116.3696350824578, 40.044059795853485], [116.36986978806732, 40.044063547451934], [116.37001760970367, 40.044020394423555], [116.37013947100498, 40.043925272038614], [116.37020841156955, 40.04372521089085], [116.37027839271758, 40.04320016624254], [116.37033038281831, 40.0427791347806], [116.37053029408348, 40.04156399275014], [116.37057325676865, 40.04144695470753], [116.37065117376638, 40.04135587944476], [116.37079000792262, 40.04133873816646], [116.37138028564267, 40.04147313400225], [116.37319514600787, 40.04200734693063], [116.37337794675341, 40.04199817679254], [116.37354277888099, 40.04190802876554], [116.37359473988799, 40.04177298797094], [116.37359476370892, 40.041586997824005], [116.37360377344663, 40.041434997578364], [116.37364673982258, 40.0413349633009], [116.37375063683612, 40.04126487158289], [116.37396840811748, 40.0412306746372], [116.37658174751397, 40.04149641126727], [116.37706829106928, 40.04151801944373], [116.37801444007053, 40.04152628494095], [116.37846604829572, 40.04153594608774], [116.3789346646796, 40.041448607916024], [116.37971609633026, 40.04093208249369], [116.3804545669068, 40.040598599572334], [116.38180865519546, 40.04007376511924], [116.38232133066495, 40.03990046680333], [116.38254719378364, 40.03980933948054], [116.38285101469339, 40.039679171828475], [116.38301591539869, 40.0396400807289], [116.38312884374236, 40.03964801715251], [116.38338068574005, 40.039669877002446], [116.3843880722083, 40.03986533637622], [116.38444015171991, 40.03901935437697], [116.38444017223149, 40.038859362720196], [116.38439622184103, 40.03866339512834], [116.38433527312566, 40.03852943300688], [116.38424034110768, 40.03841648731503], [116.38372768705477, 40.03803377505708], [116.38360677787148, 40.03788684740849], [116.38356282268671, 40.03774287855326], [116.3835628403758, 40.037604885696936], [116.38359783555298, 40.03747887336824], [116.3836588091461, 40.0374008446724], [116.38375375795438, 40.03736079606871], [116.38388368381077, 40.037343728199176], [116.38395364691651, 40.03731369301414], [116.38404959593812, 40.03727864476531], [116.38409257560546, 40.037244624221046], [116.38410957099738, 40.03720461749071], [116.3840926000886, 40.037053634078745], [116.38408361640056, 40.03696664322661], [116.38408362473244, 40.03690164657721], [116.3841016227484, 40.03683664060731], [116.38411862135267, 40.03677163516596], [116.38410963496071, 40.036705643216095], [116.38395378599235, 40.03622874889145], [116.38394480403392, 40.03612875873602], [116.38396281307317, 40.03597675711143], [116.3839538261116, 40.03591576494687], [116.38390988116981, 40.03568579979396], [116.38390989898593, 40.035546806905586], [116.38392791132507, 40.0353688065583], [116.38399689516189, 40.035182779967755], [116.38414483799185, 40.03496571427941], [116.38433575894057, 40.03473962804797], [116.38452667829795, 40.03454054191099], [116.38470059937632, 40.03441446191375], [116.38478755575653, 40.0343884204962], [116.38486551668399, 40.034367383508126], [116.38493448346053, 40.03434035142264], [116.3850914119278, 40.034254280387735], [116.38517837454638, 40.03419324213477], [116.38523834924125, 40.03414921603122], [116.38529931950927, 40.03413718798241], [116.38536928450333, 40.034132155538025], [116.38541226491061, 40.03411513641414], [116.38544725110539, 40.03408512172398], [116.38549923063854, 40.03404109996193], [116.38556020403715, 40.03401107347816], [116.38562117660301, 40.03398904674132], [116.38576810782054, 40.033962981568], [116.38603797764438, 40.03396786150317], [116.38620290252828, 40.033950790625376], [116.38637583031414, 40.03389371950281], [116.38665372412942, 40.03375061040573], [116.38717553393327, 40.03349541350845], [116.38751340620956, 40.033425287240576], [116.38777432412218, 40.03327419789197], [116.38883418280311, 40.031450924935456], [116.38741876063696, 40.03095544722761], [116.38620232199682, 40.030681955259695], [116.38483902735713, 40.030495591266146], [116.38354577522593, 40.03039526100432], [116.38144416385839, 40.03029449008038], [116.37549628347826, 40.02992390866013], [116.37245753597513, 40.029789675352646], [116.37178831358167, 40.029719331336544], [116.37098927337983, 40.02959313733201], [116.3680730260747, 40.02901127168088], [116.36565839896497, 40.02855508030593], [116.3642265005502, 40.028355830701464], [116.35805348179804, 40.02718709845927], [116.35747148885673, 40.02710393243495], [116.35695938381875, 40.027034673590805], [116.35546603433534, 40.02689587112038], [116.35338185962564, 40.02663103607527], [116.35159324502237, 40.02640883552393], [116.34863304853658, 40.0259966292274], [116.34610618305963, 40.02561386687162], [116.345377692669, 40.025492111996265], [116.34468214841014, 40.02534931116637], [116.3471684710257, 40.02212824582459], [116.34727027508092, 40.022055079017804], [116.34727427518551, 40.02199107538563], [116.34863278475349, 40.02023190637968], [116.35202777002429, 40.01584465329127], [116.35474419722617, 40.01229863923245], [116.35588234743392, 40.010819010366795], [116.35689773749911, 40.0094565868622], [116.35787422031902, 40.008153242957846], [116.35795809177027, 40.008039128805365], [116.35802998168322, 40.007942031078294], [116.35809787766684, 40.00785193883598], [116.35935498635993, 40.00613625567776], [116.36203813472994, 40.00248681067983], [116.36574524054367, 39.99756539664975], [116.36883656744317, 39.99354204391723], [116.3700951888191, 39.99188477029834], [116.3703209501171, 39.99157654799469], [116.37057269300985, 39.991182304285346], [116.37074652334006, 39.990861139320415], [116.37088540146172, 39.990505012434824], [116.3712321093441, 39.98954970128957], [116.3715538622473, 39.98851242246618], [116.37235230369662, 39.98566575699117], [116.3731777395093, 39.98285308654266], [116.37451489988818, 39.97822705368189], [116.3749576544412, 39.9765817302133], [116.3750186300993, 39.97628668897564], [116.37506162914286, 39.975952665055566], [116.37507866352249, 39.975548666549166], [116.3750787232951, 39.97508068535233], [116.37506180705496, 39.9745597210174], [116.37501793482586, 39.973908785351576], [116.37494907880834, 39.9733308685982], [116.37467062143043, 39.9713211937094], [116.37439327787158, 39.968439555213635], [116.37416772728204, 39.96677682389987], [116.36839357938351, 39.96665462701949], [116.36415451093158, 39.96652260443275], [116.36393690309748, 39.96597989669684], [116.36402589044665, 39.96504282310746], [116.36415584133432, 39.96391870632145], [116.36446878893592, 39.96071644668598], [116.3645638275734, 39.95932238508528], [116.36466882089215, 39.95817230188615], [116.3647807707017, 39.95728720003532], [116.36488476023847, 39.95618511684552], [116.3650937458885, 39.95392795234511], [116.3652847573752, 39.95168381037054], [116.36545872866427, 39.949956669564806], [116.3656057085207, 39.94847255237795], [116.36566169873599, 39.947925507203756], [116.36210009653716, 39.947195983307815], [116.36114063628504, 39.94697025600764], [116.36021317399279, 39.94661451726053], [116.35977590957047, 39.946447120446855], [116.35987876760615, 39.94623798793303], [116.35988475983461, 39.94622198037421], [116.36022918086219, 39.94635650576555], [116.36035400787415, 39.946124345741616], [116.36000259940552, 39.945968829488365], [116.36029018885758, 39.94551645634684], [116.35966724065071, 39.94525031706173], [116.3591371451014, 39.945034057719546], [116.35858209539856, 39.944863839414495], [116.35718453122568, 39.94446084397803], [116.35439757265645, 39.94370499300102], [116.35361104653681, 39.94343420164641], [116.35279058857131, 39.94327047367014], [116.35247220360142, 39.9431179751401], [116.34999797945206, 39.94272691972673], [116.35010867756543, 39.943409713829595], [116.35000786420346, 39.94348187369042], [116.35007364863586, 39.94417174001921], [116.35005349454124, 39.94569071215533], [116.34930196352015, 39.94567793194761], [116.34919017374109, 39.94575111143683], [116.34889675142682, 39.94575159141935], [116.34866019700732, 39.94592297289269], [116.34842666078232, 39.9459153576609], [116.34819905410203, 39.946379714996546], [116.34818401650402, 39.94691071877473], [116.34806616974036, 39.947551888341536], [116.34816892560227, 39.94786170598666], [116.34801596310277, 39.949963875851154], [116.34583842337979, 39.94949954928988], [116.34558595447977, 39.94939198319163], [116.34556006595771, 39.948933045513485], [116.34496264545048, 39.94618617614628], [116.34491782269899, 39.94552027951771], [116.34500872907248, 39.94477915304275], [116.34520539903689, 39.94418383986343], [116.34546391199699, 39.9438304122094], [116.34570341495069, 39.943874002330304], [116.34622951789142, 39.94247316533104], [116.34587031305577, 39.94198679373611], [116.34546616647073, 39.9417914896126], [116.34406310631672, 39.94151291249906], [116.34306716246635, 39.94175463562471], [116.34113121084226, 39.94225803010277], [116.34084481958358, 39.94230153842985], [116.34044568194152, 39.94227125253153], [116.33747719191241, 39.94193663736346], [116.33723374751355, 39.94178508899589], [116.33705120538036, 39.941350440928815], [116.33609637603273, 39.94090421524269], [116.33528022663099, 39.94063473550252], [116.33498488817722, 39.94061728419142], [116.33473344153671, 39.940686748677315], [116.33441212743902, 39.94095133613197], [116.33408280498567, 39.94143293088713], [116.33386526824734, 39.94163232907522], [116.33373555090016, 39.94170256867112], [116.33351803797667, 39.94171997478866], [116.33316184916642, 39.94164964470451], [116.3331019967581, 39.94154976090109], [116.33311897709952, 39.94140273493316], [116.33321379961158, 39.941116568618796], [116.33316194181995, 39.94091667379909], [116.33303225081423, 39.940785922203794], [116.33273693864142, 39.94061748321651], [116.33252840327823, 39.94066887302055], [116.33218115734708, 39.94091651643907], [116.33205141698834, 39.941185750033], [116.33184284009293, 39.94157612755337], [116.33092290121175, 39.94179285669163], [116.33064452687215, 39.94185338134647], [116.33040208000847, 39.94184484116828], [116.33003691548704, 39.94181953497056], [116.32987229095497, 39.94181984756635], [116.32968970443494, 39.94184519347014], [116.3287178790577, 39.94221402854713], [116.32850935532005, 39.94222242580451], [116.32811826093997, 39.94214517518876], [116.32794465942322, 39.942140506890546], [116.32775408923749, 39.94219686872593], [116.32718135225167, 39.94260094780323], [116.32674732761144, 39.942769771928624], [116.3263821623056, 39.94280447013883], [116.32599206787144, 39.94273522076666], [116.32569676743248, 39.942573793661005], [116.3251670327521, 39.94220582512699], [116.32487272280741, 39.94210539435568], [116.32456843090804, 39.942044981366955], [116.32363959146615, 39.94187177382914], [116.32333530485268, 39.94177136305727], [116.32254616140399, 39.94145889365985], [116.32181689056894, 39.94105931281751], [116.32241557885321, 39.94053418184515], [116.3223986555777, 39.940235226357636], [116.32245054661367, 39.94015212983811], [116.3225114162206, 39.94007501580554], [116.32268507682433, 39.93959670081677], [116.32267410813908, 39.93954872383998], [116.32271801337939, 39.93949864137279], [116.32293659088856, 39.93885924645903], [116.32296253721663, 39.938811198468635], [116.32301442054502, 39.938789099543264], [116.32336162380845, 39.93876743254007], [116.32347436360354, 39.93877221551172], [116.32381357868135, 39.938802561965666], [116.32408196242768, 39.93878904650604], [116.32429946373222, 39.93877262907757], [116.32444712609104, 39.93875434601891], [116.32454191220371, 39.93872016524191], [116.32459479755093, 39.938664065869965], [116.32462875074334, 39.938416010572425], [116.32471563519147, 39.937747870435366], [116.3247595811892, 39.937374800980585], [116.32691165010414, 39.937235678642786], [116.32695565995228, 39.936358629628295], [116.32715544927929, 39.93439732622946], [116.32737221738456, 39.932296996424135], [116.32747611294388, 39.931237840672374], [116.32757997675915, 39.93043067487445], [116.32780573678434, 39.928234332894796], [116.32781576866124, 39.92780033146379], [116.32789963686615, 39.927322190798094], [116.32796256938875, 39.92671509545829], [116.32820530800063, 39.92438372782167], [116.32826823784238, 39.92379863185449], [116.3283650824688, 39.92327346875369], [116.32837212134909, 39.922838473322194], [116.32846801397338, 39.921951327159604], [116.32852090530706, 39.92185323035017], [116.32853089445624, 39.921758215244054], [116.32854388180154, 39.92162319608333], [116.32854788061503, 39.92156019107476], [116.32855287764991, 39.92149318432938], [116.3284890440941, 39.92133231275854], [116.32843158379364, 39.91810355722404], [116.32837836332558, 39.91289987897492], [116.32837054083244, 39.911636947926276], [116.32835559047133, 39.9115149816818], [116.32836059279384, 39.911405976813505], [116.32833864606587, 39.91138201971742], [116.32830077194215, 39.91107210529592], [116.32830082715967, 39.91063412402041], [116.32837869830436, 39.9102429922735], [116.32852641394692, 39.90981772883636], [116.32876892931398, 39.90926229046744], [116.32892561377628, 39.90892400654896], [116.3290304147975, 39.90860282084463], [116.32912523817488, 39.90828565404026], [116.3291951415311, 39.907786542645155], [116.32919521264, 39.90722256705735], [116.32919531060095, 39.90644560077573], [116.32915541059653, 39.90637567978655], [116.32903668755652, 39.90633090780157], [116.32869948954685, 39.90608556101073], [116.32866578431734, 39.904362700919044], [116.32866484193212, 39.90392372207498], [116.32870879509537, 39.903498657064354], [116.32884752335514, 39.9031384086116], [116.3290560899791, 39.902795026532196], [116.32937740042223, 39.902443430555984], [116.32981943502801, 39.90210060542414], [116.329802515183, 39.90177165220708], [116.32945538575424, 39.901150339785055], [116.32938556321267, 39.90100747898162], [116.32932473670822, 39.900733606950745], [116.32928115318344, 39.89822480268963], [116.32920347042366, 39.89711800069556], [116.3296304962856, 39.89711218866267], [116.3296684097955, 39.89711211659877], [116.33021915523247, 39.89710507105678], [116.33035781588032, 39.897291799569246], [116.33047952458811, 39.897404563703276], [116.33064414565119, 39.89743925018245], [116.33078283193677, 39.897425988126294], [116.3309045617012, 39.89737476001742], [116.33100035832439, 39.89726158388589], [116.33106922275525, 39.89709646111879], [116.3311481750204, 39.89605535921975], [116.32686000126922, 39.89582053457157], [116.32550511979194, 39.89577313418633], [116.32368231573976, 39.8957506374418], [116.31968151120348, 39.89576433260845], [116.31968154614388, 39.89548634525391], [116.31925652059363, 39.89548716194178], [116.31902006251053, 39.89548661617667], [116.31769110251852, 39.89548816614238], [116.31716431204835, 39.89543117800708], [116.31683305994093, 39.89548880946738], [116.31172658403376, 39.895492510561034], [116.31161383093298, 39.89552872112697], [116.31154000013335, 39.89549186172078], [116.31101417014311, 39.89549284968219], [116.31091937617579, 39.89552902589114], [116.31081461326647, 39.89549322400738], [116.30791998009983, 39.89549461177804], [116.30771843019922, 39.89540398788046], [116.3071287183963, 39.89533807659568], [116.30666475342112, 39.89508293966985], [116.30667383473667, 39.89427895994242], [116.30480483725384, 39.89428236309741], [116.30493858177454, 39.89405213162811], [116.30515614689409, 39.89382574778611], [116.30526990671964, 39.893806542271854], [116.30528089431975, 39.8937185263856], [116.30579585816649, 39.893200613837536], [116.30513832487507, 39.892709831671766], [116.30483194648534, 39.89295237540912], [116.30425117641794, 39.89296242352667], [116.3013323196645, 39.892508642206025], [116.30134146853617, 39.89117068834332], [116.29975769240458, 39.891190453097344], [116.29976277245628, 39.89046947798318], [116.30047932361214, 39.89043823315725], [116.3004424903913, 39.88970533180077], [116.29796246494368, 39.88970360655342], [116.29794731059904, 39.89117556343762], [116.29671179658946, 39.89066067601212], [116.29667399695033, 39.889646786985914], [116.29669310286232, 39.8885038087734], [116.29744263263872, 39.88855354303046], [116.29743074620659, 39.887832597264286], [116.29667622013535, 39.88782886905225], [116.29667721232626, 39.887875865159494], [116.2966731696257, 39.88827985281639], [116.29563815129855, 39.88840257373155], [116.2942977042249, 39.88832678230266], [116.2931119107451, 39.888339701694434], [116.2931020419696, 39.88743576038005], [116.2908812636167, 39.88585435001753], [116.29053989945014, 39.88560989219115], [116.28895266987765, 39.88557732492893], [116.28893051509918, 39.887121284751416], [116.28862104058342, 39.88715575007058], [116.28843432970127, 39.88738801964856], [116.28813781104361, 39.88756045538347], [116.28812176425143, 39.88815245130186], [116.28831841260148, 39.8883011501806], [116.2884481797695, 39.88839995093112], [116.28857095892674, 39.888493762024225], [116.28858969044144, 39.89038764481552], [116.28859954224254, 39.891439580889305], [116.28885009813186, 39.89156419733285], [116.28893593213465, 39.8917140606071], [116.2889478899903, 39.89188703447602], [116.2889125320817, 39.89523793346413], [116.28813983412834, 39.89535508939842], [116.28768858641082, 39.895415758124315], [116.28516370993891, 39.89542542127164], [116.28165706241809, 39.89544323209632], [116.27777744730442, 39.89544415558026], [116.27742191612205, 39.89540458659224], [116.27711831142287, 39.8953789512858], [116.27684965312902, 39.895396269861855], [116.27648511123759, 39.89542669833247], [116.27579898159601, 39.895300502199554], [116.27195440716139, 39.89529270330726], [116.27008034008871, 39.89524158165802], [116.26670042286231, 39.895216671364864], [116.26662848278056, 39.89521673289918], [116.26654954837598, 39.89521580025793], [116.26601898164836, 39.89521124739141], [116.26591506648644, 39.8951983343809], [116.26587210348424, 39.89517637099656], [116.26576719971766, 39.89507246243177], [116.26571524290063, 39.895055506001206], [116.26564529848825, 39.89505156364447], [116.26548142779124, 39.89504269801613], [116.2638146614387, 39.89503800781501], [116.26121132592799, 39.895038857684334], [116.26084653228445, 39.895048097207926], [116.26033481592664, 39.89502142696089], [116.26017889708933, 39.895035524548256], [116.25872958199699, 39.89527438469539], [116.25809585112009, 39.895365737441935], [116.25795690998999, 39.89536581373161], [116.25769702577641, 39.895299957544246], [116.25669041183761, 39.89529647975565], [116.25661243752121, 39.89531351786558], [116.2565604466965, 39.89538754029553], [116.25651646051747, 39.89540056145575], [116.25646447814, 39.89540458688874], [116.25601363021771, 39.895400805059246], [116.25589167819606, 39.89533086592635], [116.255726733393, 39.89530494424815], [116.2546420395856, 39.89532242566068], [116.25381622881581, 39.895374761127364], [116.25315136300634, 39.89536501512833], [116.2526424552464, 39.895322200011805], [116.25264239863226, 39.89577817927459], [116.25342325752294, 39.895797893724726], [116.25368817367169, 39.89603878103465], [116.25094456165466, 39.89604770719448], [116.2509485752663, 39.89593571113215], [116.25073758951996, 39.8959367706835], [116.25073357648682, 39.89604376694102], [116.24696646096815, 39.89600454980592], [116.2469664524019, 39.89607354667531], [116.24695325222791, 39.89767247616469], [116.2469571044896, 39.89886642198385], [116.24696010213965, 39.8988884205905], [116.24695808450224, 39.899028414592074], [116.24701509055582, 39.89903740638287], [116.24698404160388, 39.899400394404154], [116.24695903533559, 39.89942539669628], [116.24696865501404, 39.902498258878204], [116.24698763990214, 39.90263925006287], [116.24698863580558, 39.90267324842677], [116.24696961676767, 39.90280724511786], [116.24697055815396, 39.903280224160184], [116.24694518946428, 39.90622309889864], [116.2469798736921, 39.90880098264589], [116.24700552054914, 39.91166985625903], [116.24695418301711, 39.914334750265496], [116.2468761731782, 39.91433276082794], [116.2466231390908, 39.9143267934822], [116.2437085139955, 39.91425299491993], [116.24348243655713, 39.914335993343784], [116.24340439551924, 39.91447498769553], [116.24326530332232, 39.91486997085964], [116.2432222671715, 39.91505196298987], [116.24326525809174, 39.915233955537964], [116.24347429011827, 39.91549494456873], [116.24365532203903, 39.915672935755644], [116.2439764146743, 39.91566593062879], [116.24439746288927, 39.91618289589541], [116.24439243923887, 39.916362888542984], [116.24617881853344, 39.91635175932073], [116.24674090524297, 39.91634269388521], [116.24697592052406, 39.91646965749644], [116.24702784674768, 39.91711562329916], [116.2456946403312, 39.91708977551105], [116.24554160319471, 39.91714878608254], [116.2452915146686, 39.91744879294076], [116.2449522941146, 39.91862376646575], [116.24668758619215, 39.9188505958865], [116.24688859271706, 39.91901756290333], [116.24688858488778, 39.91908056028466], [116.24628845615607, 39.919412619688856], [116.24618041238222, 39.919622622699464], [116.24592935324367, 39.91974964297827], [116.2454762705455, 39.919720684245824], [116.24418601532025, 39.91933977152705], [116.24373989884647, 39.9192777841302], [116.24367284862537, 39.91952477472965], [116.2429416192579, 39.91953777245469], [116.24175418433244, 39.91959872394702], [116.24135101970758, 39.91962569507603], [116.2406957460745, 39.91957763884223], [116.24040871928788, 39.91875264248849], [116.24006966148171, 39.91794563590627], [116.2400897219289, 39.917535655506356], [116.23928531019317, 39.917651538576614], [116.23923930474794, 39.917504537561996], [116.23912924188589, 39.91755051821591], [116.23908423585854, 39.91740951684388], [116.238785068201, 39.917478463780945], [116.23675587647308, 39.917432036445106], [116.23673592877572, 39.91690805334428], [116.23545006346981, 39.91689770086033], [116.23441629029413, 39.91703336670915], [116.23343249496689, 39.91724600833583], [116.2326488532102, 39.917206705942895], [116.23166099088844, 39.917240289007694], [116.2313998027398, 39.916864188850184], [116.23080726738779, 39.91678492004794], [116.23095850059956, 39.91604102184434], [116.23104559943069, 39.91589406832466], [116.23101660383617, 39.9156430654552], [116.22821580946582, 39.9157656224005], [116.22742194414117, 39.91583716028094], [116.22684831482734, 39.91577081726536], [116.22638078988166, 39.915720528861556], [116.22597427911069, 39.916046256309485], [116.22552472885485, 39.9162159560729], [116.22458555350977, 39.91653130750082], [116.22445529696876, 39.917301184801765], [116.22485666480891, 39.91830842004672], [116.22408374324606, 39.91802989285974], [116.22245167742203, 39.917673701749976], [116.21139137033906, 39.91679023048517], [116.20961614828533, 39.91637720338786], [116.20900101513124, 39.91613548345086], [116.20770761467483, 39.91538794410603], [116.20726668792221, 39.91588637695236], [116.20684586165456, 39.91583985239505], [116.20657433227431, 39.91575151374876], [116.20611844406716, 39.91554894284794], [116.20539499649563, 39.91540701766369], [116.20522565077226, 39.91540679765549], [116.20457431125703, 39.915406944208456], [116.20070905460344, 39.91541965107491], [116.20081797578153, 39.91797169911382], [116.20089612621898, 39.91814180260375], [116.20082795804201, 39.91828970005884], [116.20088600956228, 39.918898756959], [116.20081477698076, 39.91950863098905], [116.20074217696512, 39.92303738322732], [116.20144571849552, 39.923024374772915], [116.20161889133087, 39.92465655025203], [116.20643491082782, 39.92492095921479], [116.20910805064082, 39.92551022527003], [116.20916912217953, 39.925866283583886], [116.20962097517132, 39.92586681865389], [116.20983718488152, 39.92743700894322], [116.20698266017719, 39.92765553890429], [116.20699963756414, 39.92810654195603], [116.207694005215, 39.92808940567183], [116.2080234493316, 39.92967274654668], [116.20808454614674, 39.92984681425702], [116.20817972299088, 39.92990692801539], [116.20841416794372, 39.929968210617915], [116.21012339902357, 39.930002239506884], [116.21024562048785, 39.93004637963492], [116.21026263858353, 39.930154395015094], [116.20977671956106, 39.930262824128235], [116.20945609535741, 39.93043643954226], [116.20855332687809, 39.930840344040114], [116.20798017907849, 39.93116663355537], [116.20758937803215, 39.93147914014147], [116.20725969227344, 39.931786718778234], [116.2071213940602, 39.931990538119955], [116.20713834249091, 39.93267253200098], [116.20714930390503, 39.93315552638411], [116.20806609887161, 39.933147659398735], [116.20814725612883, 39.933147758515815], [116.20813829650163, 39.93268476608807], [116.20813332177433, 39.93240477121581], [116.2093696952538, 39.932338261012696], [116.20937667353523, 39.932618258078044], [116.2093836530632, 39.932888255549315], [116.20943775529541, 39.93288731962915], [116.20981646670934, 39.93288876546785], [116.20988453792361, 39.93333882718353], [116.20994255192336, 39.93409586478234], [116.20931736975962, 39.93415612634545], [116.2093083077478, 39.93451610124049], [116.20897868045233, 39.93452970794885], [116.20899567765815, 39.93481171704147], [116.20931729008161, 39.934794100821165], [116.20927416574098, 39.93513703597206], [116.21021893491813, 39.935150144495324], [116.21025453028332, 39.938926035882304], [116.20964634638192, 39.93931731011304], [116.20962120989161, 39.94003325221614], [116.21247540239077, 39.94011048908129], [116.21257134597244, 39.941920522253476], [116.2125973365194, 39.94236353308246], [116.20939547621511, 39.94250688805708], [116.20984623304497, 39.94323139030503], [116.20947337140755, 39.94452590073901], [116.20845842125546, 39.94465968101344], [116.20727706349697, 39.94512021213332], [116.20675671132354, 39.947702459267056], [116.20587988676776, 39.94823232363583], [116.20316406412483, 39.94982567606827], [116.19976207158022, 39.95452273284246], [116.19586488429378, 39.956484863870216], [116.195786423034, 39.958694657364255], [116.19501445067526, 39.959853423196236], [116.19360902332441, 39.96030920886174], [116.190335892596, 39.96091291782743], [116.18460778136817, 39.964086122973164], [116.18505973296098, 39.965956831207606], [116.18454725942664, 39.96697590465294], [116.18156130509442, 39.967106663412174], [116.18010319046913, 39.968561009218234], [116.17966093726781, 39.968991199899214], [116.17913124234533, 39.97101816817175], [116.17993831322086, 39.97198557891051], [116.17992105142766, 39.973695480249745], [116.17928713939048, 39.97521028243566], [116.17915760011591, 39.97669499030011], [116.17926085595823, 39.97689516804486], [116.18029455865397, 39.97770598883431], [116.1805802933919, 39.97800548705503], [116.1807716751899, 39.97907778532164], [116.18026004878135, 39.98101779428633], [116.1805377084391, 39.98174226098384], [116.18043331540444, 39.98262403903316], [116.17973033468554, 39.98323175648575], [116.17893102290743, 39.98432527542068], [116.17832430485007, 39.98481516064811], [116.17623245788681, 39.985601327601536], [116.17529486079906, 39.98563161080047], [116.17469617592236, 39.98582250415128], [116.17274258468954, 39.98699485413378], [116.17270806940279, 39.98238497756821], [116.17183982573097, 39.980909428963244], [116.16747403059084, 39.97702045477006], [116.16529504131053, 39.97569243606219], [116.16441853136955, 39.975944788147466], [116.16303736122481, 39.97804912506049], [116.16236079105566, 39.98325765354269], [116.16164048142338, 39.98543622278417], [116.1606505859822, 39.98624834766815], [116.15878440105314, 39.985709908022585], [116.15535512446789, 39.9832097011148], [116.15189160083649, 39.98280144250899], [116.15084961313728, 39.983869535184276], [116.1512053786989, 39.98549710419028], [116.14988548830655, 39.9878016613361], [116.14716878103027, 39.99084377097711], [116.14532873718696, 39.992088551102114], [116.146205001188, 39.99251903568331], [116.1466561526104, 39.99289679806979], [116.14771589519594, 39.99359960818496], [116.14801963657405, 39.994181114034134], [116.1478370563442, 39.99488876561081], [116.14799339167007, 39.995553010710985], [116.14829716113552, 39.995925526391225], [116.14972994562503, 39.99662101965764], [116.15545043106101, 39.99865723603799], [116.16591982073173, 39.999329634277665], [116.16659668915163, 39.99968588400433], [116.16658858345603, 40.00034084090469], [116.16658855088012, 40.000597829856446], [116.16661460314653, 40.00076687130382], [116.16663162660927, 40.00096189476234], [116.16670981584849, 40.001213030097766], [116.1668401523046, 40.00146526280267], [116.16694441404248, 40.00172544642544], [116.16703966508716, 40.00186861822376], [116.16713590893158, 40.00209078846528], [116.16736051989231, 40.00227720000315], [116.16750892157565, 40.00241547121888], [116.16764727878727, 40.00268071816849], [116.16761213012771, 40.00307163565878], [116.16760408884439, 40.003218614291534], [116.16783873543338, 40.00334504697769], [116.16801221198176, 40.00344936633724], [116.16816863601296, 40.003587652342134], [116.16833308310132, 40.003721953441584], [116.16843735643104, 40.00388714086613], [116.16856769832167, 40.00409137520527], [116.16866293622446, 40.004334542325324], [116.16875818625446, 40.004481713607696], [116.1688624671415, 40.00458590357523], [116.16896674633638, 40.00470309294563], [116.16907102485159, 40.00482528206712], [116.1692094034524, 40.00491553611408], [116.16924449133154, 40.00500259772918], [116.16914921134838, 40.00509341616199], [116.16890650361835, 40.005279955491794], [116.16862869715102, 40.0054624293693], [116.16824658278927, 40.00574970382521], [116.16749942905327, 40.00610029355475], [116.16722162452257, 40.0062567678258], [116.16716143641223, 40.00639964913889], [116.16721351920881, 40.00690872411397], [116.16721349284148, 40.007116714933076], [116.16708309422764, 40.00735546084882], [116.16688349839178, 40.00760707688778], [116.1666147217278, 40.00774156877095], [116.16642317867212, 40.007754210293164], [116.16626774522226, 40.007706921914036], [116.1658335399653, 40.007529118283564], [116.16566005598095, 40.00747679636335], [116.16539029577955, 40.00745529316037], [116.16516465270783, 40.00749386977631], [116.16506937553116, 40.00755468904982], [116.16497409340299, 40.00765450660108], [116.16489585834638, 40.00776335561258], [116.16479153305117, 40.0080021501462], [116.16445351606005, 40.00848349733568], [116.16422682316484, 40.00889205576544], [116.16407937870643, 40.00910877074681], [116.16392392146932, 40.00924747423966], [116.16389682344797, 40.00941641613799], [116.16387976254406, 40.00951637983899], [116.1637674355221, 40.00959016678874], [116.16360195770649, 40.00966785433774], [116.16343747932866, 40.009772542596295], [116.16323790669827, 40.009838167129885], [116.1629601147797, 40.009889646404204], [116.16250883256401, 40.00994180222333], [116.16231727964025, 40.01003344095628], [116.16218690089305, 40.01011519425463], [116.16194419159292, 40.01030173359365], [116.16175363403165, 40.010454371755976], [116.1616142227606, 40.0105931058972], [116.16150989793859, 40.010831900962714], [116.16138851791149, 40.01112666179882], [116.1612761749644, 40.011330443558826], [116.161205967948, 40.01140030976384], [116.16109364374451, 40.011457098201205], [116.16098032183909, 40.01147388661809], [116.16044280954173, 40.01144388859902], [116.16033851833184, 40.01142169582356], [116.16025227969601, 40.01138653720344], [116.16016503763281, 40.01135637652758], [116.1601038629711, 40.011374262133465], [116.16009482762837, 40.01145224186712], [116.16008679561982, 40.01152622364179], [116.16006071224392, 40.01160417172388], [116.1598781538616, 40.01195181728246], [116.15980894804598, 40.01203768501186], [116.15946193950892, 40.01228603029151], [116.1591319786683, 40.01254140740078], [116.15880201449752, 40.01282778365066], [116.15856733282965, 40.013002341675346], [116.1583597233359, 40.01320994853446], [116.15830655807585, 40.01333584461206], [116.15831556192721, 40.0135048536138], [116.15841080846864, 40.0136700221608], [116.15854115926126, 40.01379125764555], [116.1585501730453, 40.013882270192894], [116.15853309692537, 40.014104228566104], [116.15836758640732, 40.014463906310645], [116.15825525222554, 40.01461169204163], [116.15789919507385, 40.01506801389802], [116.15779487827002, 40.01525881275113], [116.15772565778599, 40.01546667560523], [116.15766447737815, 40.015536559601166], [116.15755215428706, 40.015601349582965], [116.15745588056828, 40.015632170764356], [116.15732651218651, 40.015678930325315], [116.15648409343392, 40.01616535904906], [116.15616316842383, 40.016390759925024], [116.15573694066074, 40.01669496516189], [116.15523349631134, 40.01702502955507], [116.15499080185539, 40.01717657959965], [116.15459968620401, 40.01740285632522], [116.15419251948424, 40.01769310224001], [116.15397489094924, 40.01789269773145], [116.15378435226327, 40.01797934799051], [116.15315962488567, 40.017980216743204], [116.15293399892778, 40.018005807941776], [116.15277656265414, 40.018022523041644], [116.1526120956249, 40.018131221470036], [116.15247369737884, 40.01826596590941], [116.15224804450979, 40.01851754816637], [116.15192611515307, 40.01886895343753], [116.15167439719495, 40.019082492010966], [116.15129230119081, 40.01946779004684], [116.15117997383062, 40.01962458196234], [116.15112782456367, 40.01967648637567], [116.15107568030568, 40.01968939264412], [116.15095435130779, 40.019668177055784], [116.15063248286619, 40.019585607174356], [116.15006895981692, 40.019489610105], [116.14993861366302, 40.01942438202124], [116.14981729061917, 40.01937216951705], [116.14973807434905, 40.01938102886609], [116.14969494339636, 40.01948994747746], [116.14963476022007, 40.01964583376327], [116.14941714961496, 40.01980644172269], [116.14916545359266, 40.01991899242738], [116.14892278780124, 40.01999356160081], [116.14866207271815, 40.020080099282346], [116.14847957114452, 40.02015377557841], [116.14829805737897, 40.0203484483964], [116.14814963187574, 40.02055317905008], [116.14801124491474, 40.02066993165098], [116.1478377712002, 40.02073062590279], [116.14752492493771, 40.02078707804456], [116.14711684185836, 40.02071737219046], [116.14690027238855, 40.02064800007788], [116.14675187652153, 40.02064874323602], [116.14656937382237, 40.02077842177809], [116.14596271395696, 40.021156359244216], [116.14574512104083, 40.02128597976984], [116.14538013349663, 40.02146434671258], [116.14515453120943, 40.02152095897361], [116.14477253426058, 40.02145531187505], [116.14456399499983, 40.0213899609886], [116.14426922906404, 40.0213384643069], [116.14394739934465, 40.02124692531831], [116.1436877408617, 40.021099495165025], [116.1434701889611, 40.02098613516457], [116.14302806376169, 40.02080840357234], [116.14277641620133, 40.020777985368795], [116.1425067196436, 40.020777536903275], [116.14237637682325, 40.02083031814388], [116.14232423369194, 40.02089922847576], [116.14221994735622, 40.02103904918871], [116.1420384719305, 40.021107745850266], [116.14161235305514, 40.02131203392274], [116.14143889285312, 40.02144174288572], [116.14070096347847, 40.021832518601904], [116.14019764582518, 40.022170686116596], [116.13965021737589, 40.022556785385746], [116.1390346176896, 40.02300877872529], [116.1387388537732, 40.0232162982459], [116.13854836282107, 40.02335098968178], [116.13841801034876, 40.02357677261596], [116.13823551141108, 40.02394146697422], [116.13803596508707, 40.024354132877846], [116.13738425939232, 40.02514407406722], [116.13718474051659, 40.025377752090584], [116.13705441044169, 40.02546554533815], [116.13654215182483, 40.02554274914491], [116.13620432288711, 40.025616226147235], [116.13591662190935, 40.0256597836745], [116.13569107061431, 40.02572043681525], [116.13548356511016, 40.0257731188758], [116.1352750530684, 40.02586779837675], [116.13484096861586, 40.02624112587306], [116.1344931040208, 40.026536590261806], [116.13427655345168, 40.02683125290926], [116.13404195660632, 40.02716588792404], [116.13381640056599, 40.02736054437612], [116.13330416896822, 40.027603778351875], [116.13281801091448, 40.027808058500355], [116.1327478458652, 40.027825955649035], [116.13259248054499, 40.02786872818719], [116.1322186060079, 40.027960183833834], [116.13170640898436, 40.028133441442236], [116.131315493621, 40.02832387647811], [116.13089852537475, 40.028506279186026], [116.13064695078285, 40.02856292359542], [116.13036030413465, 40.02858452254167], [116.12996943446466, 40.02855398208036], [116.12979604580607, 40.0285757419069], [116.12957053833597, 40.028631429402616], [116.12940515844748, 40.028741197721224], [116.12915358380398, 40.028896847249875], [116.129049342959, 40.02898770124124], [116.12898018329392, 40.029048604501234], [116.1288498920256, 40.02909242607331], [116.12845902086035, 40.02923089323131], [116.12824254605404, 40.02926560199134], [116.12791182172086, 40.029335158738085], [116.12771239221667, 40.02933489499348], [116.12739071291412, 40.0292524759418], [116.12700089028138, 40.029186970348796], [116.12667018182265, 40.02924753912586], [116.12647076009456, 40.02925628196708], [116.12593262900884, 40.02928259362897], [116.1254205346237, 40.02952593571917], [116.12502972373801, 40.0295734455923], [116.12482529855441, 40.02962418974887], [116.12407376891846, 40.029656267518895], [116.12388037809595, 40.02967003268563], [116.12326614505851, 40.029724293862984], [116.12161700804938, 40.02909040622226], [116.1206010503885, 40.02932025567844], [116.11991477521461, 40.029294506185366], [116.11920250304739, 40.02902975624], [116.11847325493062, 40.02850801803636], [116.11729220461983, 40.02826483089396], [116.11642468139182, 40.02852096794404], [116.11512150589026, 40.02851573967421], [116.11503525457378, 40.029371618567254], [116.1148008246936, 40.02974038648729], [116.11369802608024, 40.02999539361212], [116.11300289534752, 40.030355780343534], [116.11221369184301, 40.03035212569659], [116.11154467242149, 40.0305205801561], [116.11100583796147, 40.03088014172558], [116.11005943855322, 40.031257410423194], [116.10819285700806, 40.03160108714354], [116.10709847093567, 40.03143039196899], [116.1062043621267, 40.031451850626006], [116.104562515519, 40.03083597111902], [116.10423313852264, 40.030891798706705], [116.10395479960411, 40.03113064690036], [116.10346926210113, 40.03120440653316], [116.10213188845943, 40.031068810598924], [116.10121101955254, 40.03080045134826], [116.10014403134639, 40.03078006437221], [116.10007396866047, 40.030778040645174], [116.09994985806041, 40.030775999038795], [116.09987979597125, 40.03077497582783], [116.0991531624233, 40.030803745212516], [116.09848357904113, 40.03102154277437], [116.09830442489594, 40.031096490972416], [116.09588850991803, 40.032156922378036], [116.09466770525806, 40.03237074572115], [116.09447458664322, 40.032395724085696], [116.09205831539671, 40.0324166044469], [116.09054776462946, 40.03182568910903], [116.08912342029544, 40.03082688265162], [116.08872436602284, 40.03037996116054], [116.08641389700755, 40.03037542672839], [116.08550281051004, 40.030261681222925], [116.08487779898216, 40.03002688500939], [116.08389572432102, 40.03044820151059], [116.08242881344785, 40.03032579205441], [116.08109102073438, 40.03007842171089], [116.07970231583313, 40.03005214923497], [116.07840774686755, 40.02959992688736], [116.07789593272958, 40.02950925084027], [116.07757403053698, 40.02966045038033], [116.07736607362965, 40.02993857286351], [116.07679225138027, 40.03035093843717], [116.07640235323343, 40.03086218382057], [116.07577661193527, 40.031087621436015], [116.07520388796912, 40.031144044889], [116.0741963540621, 40.031751800349554], [116.07259833612298, 40.03176813941891], [116.07183391229238, 40.03135584146777], [116.07172995696124, 40.03158092495335], [116.071452135709, 40.03174617217598], [116.07087046026497, 40.03258867608837], [116.07081845683639, 40.03292270887912], [116.07032373523371, 40.0337511446464], [116.06935143825068, 40.03448907756799], [116.06929943367882, 40.03486711146765], [116.06851700804809, 40.03571688135101], [116.0685778471235, 40.036541774941576], [116.06880357973893, 40.037062511416536], [116.06861267264853, 40.03765268110984], [116.0687784623233, 40.03814348187631], [116.06879539808908, 40.038525444392995], [116.06819581605923, 40.039458029999686], [116.06788306741633, 40.0397493518835], [116.06711878196165, 40.03986618777816], [116.06718863219552, 40.040499076600945], [116.06699776098293, 40.04094726677077], [116.06665902678772, 40.04149362122237], [116.06620743271218, 40.041901118490834], [116.065877660044, 40.042790455831884], [116.06536509244349, 40.04365501687939], [116.06473170852938, 40.044248751260525], [116.06450582147043, 40.04532997054518], [116.06319415008954, 40.04683554418244], [116.06314219057998, 40.047004602076235], [116.0634636192168, 40.048463108842824], [116.06327274114464, 40.04927530890969], [116.06256851157227, 40.04992519005904], [116.06171849884836, 40.05055029087955], [116.06202202772783, 40.05120984493447], [116.06207392636398, 40.05148775981034], [116.06200494732006, 40.05199982351065], [116.06261314379317, 40.05234799570492], [116.0627339742557, 40.05251282774686], [116.06302050320522, 40.05346340023371], [116.06378446974134, 40.054448365162855], [116.06407994801226, 40.05584191339313], [116.0645922487441, 40.05675822480133], [116.0649657201753, 40.057643717187624], [116.06507851320347, 40.05828954291511], [116.06515722268105, 40.05987435476276], [116.06502729999546, 40.06037348212548], [116.06480051448712, 40.060646741567375], [116.06366276710813, 40.06098913804845], [116.06286466239133, 40.06143613891884], [116.06226526360189, 40.06250386481011], [116.06170091052651, 40.06302459130846], [116.06131034905576, 40.06353609291141], [116.06053729815707, 40.06411313123178], [116.059790297757, 40.064274182850795], [116.05926088697116, 40.06545487740561], [116.05894830194393, 40.065688321314774], [116.05866166373424, 40.06608372084198], [116.05900892192669, 40.06795909176792], [116.05918264813572, 40.06816282434333], [116.05919960392482, 40.06831878982094], [116.05903473317183, 40.06913498034288], [116.0590006848138, 40.06988598314449], [116.05844443133724, 40.07032877958202], [116.05768937880194, 40.071647835698904], [116.0562095786671, 40.07226809928607], [116.0561696396258, 40.072285161619185], [116.05602386556023, 40.07232639103809], [116.05554061217983, 40.07254415266096], [116.05538784556836, 40.07265339283299], [116.05538285328876, 40.07265640073383], [116.05491059692194, 40.0728841564016], [116.05447623767952, 40.07350883271165], [116.05386023300491, 40.073855839718256], [116.05340000348403, 40.07400760907605], [116.05323528606287, 40.074029888590374], [116.05168011272646, 40.07354762626357], [116.05160216498338, 40.07424171952044], [116.05130663916309, 40.07475621222708], [116.05122877367523, 40.07482334706271], [116.05114791698266, 40.07486748899686], [116.05034737464818, 40.075142918701054], [116.05018667092442, 40.07520020861098], [116.05016570933483, 40.0752102463328], [116.04970055885924, 40.075499083492616], [116.04924933868179, 40.07620287580017], [116.0482761653801, 40.07686666729395], [116.04783393396053, 40.07776545377465], [116.04698249446432, 40.079080015913576], [116.04645254889431, 40.07939203572324], [116.04628781749054, 40.079969322547235], [116.04624478144949, 40.08094534179234], [116.04614995840723, 40.08111051865277], [116.04569787428011, 40.08138440132018], [116.04561103797015, 40.08154056468025], [116.04561895954734, 40.08201851619131], [116.04503810204076, 40.08276463595098], [116.04501113195872, 40.08298167570519], [116.04431461299873, 40.083186082745335], [116.04408310793728, 40.083272553062365], [116.04348341161246, 40.08341978572703], [116.04298850017149, 40.083540812825326], [116.04277197116333, 40.083662260226056], [116.04257238472987, 40.083948662030885], [116.04257238472987, 40.083948662030885]]]]}}]}