{
 "type": "FeatureCollection",
 "features": [
  {
   "type": "Feature",
   "properties": {
    "layer": "OFFICIAL_ZONATION_BG",
    "category": "concentrated_construction_zone",
    "label_zh": "集中建设区（官方三区图）",
    "source": "DATA-SRC-HAIDIAN-DISTRICT-PLAN-2017-2035",
    "source_figure": "图03 两线三区规划图",
    "official_boundary": false,
    "usable_for_formal": "background_only",
    "precision_note": "栅格公示图矢量化，配准中误差约百米级；仅作背景参考，不作几何/面积依据"
   },
   "geometry": {
    "type": "MultiPolygon",
    "coordinates": [
     [
      [
       [
        116.20116234407244,
        39.982738733032186
       ],
       [
        116.20121299999998,
        39.978771
       ],
       [
        116.200067,
        39.977313
       ],
       [
        116.193159,
        39.979687000000006
       ],
       [
        116.19616516244375,
        39.98259417643595
       ],
       [
        116.18226700000001,
        39.982191
       ],
       [
        116.171685,
        39.98742999999999
       ],
       [
        116.17091,
        39.99149700000001
       ],
       [
        116.194911,
        40.011154
       ],
       [
        116.209266,
        40.00429299999999
       ],
       [
        116.21289458183325,
        39.99676348133449
       ],
       [
        116.22174900000002,
        39.998225
       ],
       [
        116.22631200980221,
        39.99706611477705
       ],
       [
        116.24034400000001,
        40.01467499999998
       ],
       [
        116.25268876417492,
        40.02605140327512
       ],
       [
        116.233599,
        40.045704
       ],
       [
        116.23102099999998,
        40.05512
       ],
       [
        116.245355,
        40.05774300000001
       ],
       [
        116.298838,
        40.055025
       ],
       [
        116.30714616062552,
        40.043884994497525
       ],
       [
        116.29858499999999,
        40.05760600000001
       ],
       [
        116.30100200000001,
        40.059479
       ],
       [
        116.31381399999998,
        40.059022
       ],
       [
        116.32539900000002,
        40.052482999999995
       ],
       [
        116.34532100000001,
        40.026546999999994
       ],
       [
        116.344958,
        40.02524699999999
       ],
       [
        116.322557,
        40.020554
       ],
       [
        116.31733056247346,
        40.028468527937655
       ],
       [
        116.32067379006195,
        40.01946667742767
       ],
       [
        116.33181999999998,
        40.021510000000006
       ],
       [
        116.347952,
        40.021438999999994
       ],
       [
        116.37194399999998,
        39.989768000000005
       ],
       [
        116.376001,
        39.975996
       ],
       [
        116.375665,
        39.968445
       ],
       [
        116.36653299999999,
        39.94660699999999
       ],
       [
        116.32901499999998,
        39.902769000000006
       ],
       [
        116.24921,
        39.902772000000006
       ],
       [
        116.22354400000002,
        39.917046000000006
       ],
       [
        116.22277600000001,
        39.921149
       ],
       [
        116.2236941264116,
        39.92297664097658
       ],
       [
        116.222435,
        39.922922
       ],
       [
        116.221594,
        39.929616
       ],
       [
        116.22714801196783,
        39.92985109069776
       ],
       [
        116.24084140471138,
        39.957091393725605
       ],
       [
        116.23491,
        39.970611
       ],
       [
        116.2478365126237,
        39.97099792238044
       ],
       [
        116.2482658092208,
        39.971851184548335
       ],
       [
        116.24359,
        39.971835
       ],
       [
        116.23900400000001,
        39.97400499999999
       ],
       [
        116.238747,
        39.978255
       ],
       [
        116.246938,
        39.98010300000001
       ],
       [
        116.24944300000001,
        39.979847
       ],
       [
        116.2512583868778,
        39.977798551229526
       ],
       [
        116.259503,
        39.994178
       ],
       [
        116.268618,
        40.009223
       ],
       [
        116.271185,
        40.01038
       ],
       [
        116.28776141486162,
        40.013426226585075
       ],
       [
        116.266889,
        40.011423
       ],
       [
        116.26088482708299,
        40.017609200172835
       ],
       [
        116.26217400000002,
        40.00522600000001
       ],
       [
        116.26124699999998,
        40.002632000000006
       ],
       [
        116.25367443728292,
        40.00114870986262
       ],
       [
        116.260074,
        40.001239000000005
       ],
       [
        116.259062,
        39.998574
       ],
       [
        116.24555899999999,
        39.987422
       ],
       [
        116.23970100000001,
        39.985555
       ],
       [
        116.238414,
        39.98610600000001
       ],
       [
        116.236918,
        39.99125900000001
       ],
       [
        116.24020010855104,
        39.99850802072099
       ],
       [
        116.228242,
        39.996163
       ],
       [
        116.22649673559127,
        39.996748097039514
       ],
       [
        116.22679999999998,
        39.99622599999999
       ],
       [
        116.21471916659739,
        39.99297667789874
       ],
       [
        116.216028,
        39.99025999999999
       ],
       [
        116.21535100000001,
        39.983148
       ],
       [
        116.20116234407244,
        39.982738733032186
       ]
      ]
     ],
     [
      [
       [
        116.09878400000001,
        40.037703
       ],
       [
        116.09782000000001,
        40.033615
       ],
       [
        116.092829,
        40.034575999999994
       ],
       [
        116.09210699999998,
        40.036548999999994
       ],
       [
        116.093602,
        40.03880900000001
       ],
       [
        116.09725500000002,
        40.038841999999995
       ],
       [
        116.09878400000001,
        40.037703
       ]
      ]
     ],
     [
      [
       [
        116.17002200000002,
        40.029078
       ],
       [
        116.164184,
        40.035426
       ],
       [
        116.161144,
        40.049181999999995
       ],
       [
        116.161557,
        40.051438
       ],
       [
        116.18003485943562,
        40.04749072138671
       ],
       [
        116.15562699999998,
        40.05517499999999
       ],
       [
        116.13974000000002,
        40.061409
       ],
       [
        116.13554900000001,
        40.064463999999994
       ],
       [
        116.14481100000002,
        40.081516
       ],
       [
        116.19109100000001,
        40.08776
       ],
       [
        116.20790500000001,
        40.067194
       ],
       [
        116.2066742769984,
        40.04179393931883
       ],
       [
        116.21827,
        40.039311999999995
       ],
       [
        116.219351,
        40.027584999999995
       ],
       [
        116.211473,
        40.02412999999999
       ],
       [
        116.205985,
        40.023329
       ],
       [
        116.17002200000002,
        40.029078
       ]
      ]
     ],
     [
      [
       [
        116.09917700000001,
        40.038594
       ],
       [
        116.09570300000001,
        40.039384
       ],
       [
        116.093141,
        40.04289399999999
       ],
       [
        116.093481,
        40.043874
       ],
       [
        116.09930600000001,
        40.04556099999999
       ],
       [
        116.102207,
        40.043276999999996
       ],
       [
        116.100488,
        40.039253
       ],
       [
        116.09917700000001,
        40.038594
       ]
      ]
     ],
     [
      [
       [
        116.113274,
        40.06628
       ],
       [
        116.12871500000001,
        40.066724
       ],
       [
        116.128788,
        40.06333699999999
       ],
       [
        116.126506,
        40.06214500000001
       ],
       [
        116.11460300000002,
        40.061888999999994
       ],
       [
        116.112656,
        40.06467499999999
       ],
       [
        116.113274,
        40.06628
       ]
      ]
     ],
     [
      [
       [
        116.120476,
        40.074555999999994
       ],
       [
        116.128933,
        40.07221800000001
       ],
       [
        116.13080700000002,
        40.067474999999995
       ],
       [
        116.11723699999999,
        40.06656
       ],
       [
        116.116353,
        40.074563000000005
       ],
       [
        116.120476,
        40.074555999999994
       ]
      ]
     ],
     [
      [
       [
        116.11494900000001,
        40.08687
       ],
       [
        116.11418400000001,
        40.082112
       ],
       [
        116.107153,
        40.083116000000004
       ],
       [
        116.10707300000001,
        40.086164999999994
       ],
       [
        116.11494900000001,
        40.08687
       ]
      ]
     ],
     [
      [
       [
        116.17264999999999,
        40.09098099999999
       ],
       [
        116.17406400000002,
        40.093135999999994
       ],
       [
        116.17596100000002,
        40.093195
       ],
       [
        116.18269599999999,
        40.090604
       ],
       [
        116.175624,
        40.08802000000001
       ],
       [
        116.17264999999999,
        40.09098099999999
       ]
      ]
     ],
     [
      [
       [
        116.171096,
        40.10325999999999
       ],
       [
        116.174597,
        40.09767599999999
       ],
       [
        116.174465,
        40.09582699999999
       ],
       [
        116.169562,
        40.09397200000001
       ],
       [
        116.15816900000002,
        40.09641499999999
       ],
       [
        116.158936,
        40.097551
       ],
       [
        116.171096,
        40.10325999999999
       ]
      ]
     ],
     [
      [
       [
        116.106256,
        40.10799599999999
       ],
       [
        116.10989383761891,
        40.107929414745655
       ],
       [
        116.10557599999999,
        40.110533
       ],
       [
        116.10708899999999,
        40.112826000000005
       ],
       [
        116.11102500000001,
        40.113116999999995
       ],
       [
        116.11459500000001,
        40.111471
       ],
       [
        116.11533699999998,
        40.109191
       ],
       [
        116.1135448495226,
        40.10718192193687
       ],
       [
        116.115244,
        40.106834
       ],
       [
        116.116353,
        40.099930999999984
       ],
       [
        116.114992,
        40.093712999999994
       ],
       [
        116.107964,
        40.099557999999995
       ],
       [
        116.106252,
        40.10351800000001
       ],
       [
        116.106256,
        40.10799599999999
       ]
      ]
     ],
     [
      [
       [
        116.12883899999999,
        40.091384999999995
       ],
       [
        116.127129,
        40.113897
       ],
       [
        116.14182400000001,
        40.113062
       ],
       [
        116.14767,
        40.101246
       ],
       [
        116.14717999999999,
        40.09892899999999
       ],
       [
        116.12883899999999,
        40.091384999999995
       ]
      ]
     ],
     [
      [
       [
        116.091336,
        40.097604999999994
       ],
       [
        116.084696,
        40.10225199999999
       ],
       [
        116.09124499999999,
        40.10815999999999
       ],
       [
        116.094908,
        40.10793100000001
       ],
       [
        116.09815000000002,
        40.10259299999999
       ],
       [
        116.099163,
        40.09881200000001
       ],
       [
        116.091336,
        40.097604999999994
       ]
      ]
     ],
     [
      [
       [
        116.172006,
        40.103978000000005
       ],
       [
        116.193323,
        40.112576000000004
       ],
       [
        116.203979,
        40.112598000000006
       ],
       [
        116.204243,
        40.111
       ],
       [
        116.180518,
        40.098669
       ],
       [
        116.17540900000002,
        40.096878
       ],
       [
        116.172006,
        40.103978000000005
       ]
      ]
     ],
     [
      [
       [
        116.211791,
        39.92933800000001
       ],
       [
        116.21940400000001,
        39.92965
       ],
       [
        116.21928,
        39.923756999999995
       ],
       [
        116.213649,
        39.923441
       ],
       [
        116.210717,
        39.924318
       ],
       [
        116.20997700000001,
        39.927352
       ],
       [
        116.211791,
        39.92933800000001
       ]
      ]
     ],
     [
      [
       [
        116.216277,
        39.939494999999994
       ],
       [
        116.214031,
        39.94395800000001
       ],
       [
        116.215026,
        39.944658999999994
       ],
       [
        116.231634,
        39.944387
       ],
       [
        116.23176600000001,
        39.939558999999996
       ],
       [
        116.216277,
        39.939494999999994
       ]
      ]
     ],
     [
      [
       [
        116.229582,
        39.95267499999999
       ],
       [
        116.232503,
        39.950208999999994
       ],
       [
        116.23226700000001,
        39.94518199999999
       ],
       [
        116.22172800000001,
        39.94517799999999
       ],
       [
        116.209982,
        39.947455
       ],
       [
        116.21101500000002,
        39.951753
       ],
       [
        116.21294399999998,
        39.952935
       ],
       [
        116.229582,
        39.95267499999999
       ]
      ]
     ],
     [
      [
       [
        116.20642100000002,
        39.948066
       ],
       [
        116.20296,
        39.950726
       ],
       [
        116.202229,
        39.954234
       ],
       [
        116.20357599999998,
        39.956044999999996
       ],
       [
        116.20575599999998,
        39.956015
       ],
       [
        116.20754400000001,
        39.954395
       ],
       [
        116.20781,
        39.948328999999994
       ],
       [
        116.20642100000002,
        39.948066
       ]
      ]
     ],
     [
      [
       [
        116.21562100000001,
        39.953465
       ],
       [
        116.21337799999999,
        39.955671
       ],
       [
        116.21300600000001,
        39.95785699999999
       ],
       [
        116.218259,
        39.96145799999999
       ],
       [
        116.223874,
        39.96147
       ],
       [
        116.23712,
        39.957545
       ],
       [
        116.23792000000002,
        39.953148
       ],
       [
        116.23186499999998,
        39.95268099999999
       ],
       [
        116.21562100000001,
        39.953465
       ]
      ]
     ],
     [
      [
       [
        116.20229999999998,
        39.970695
       ],
       [
        116.212539,
        39.97048199999999
       ],
       [
        116.209227,
        39.95614200000001
       ],
       [
        116.206078,
        39.95583299999999
       ],
       [
        116.201623,
        39.960289
       ],
       [
        116.20229999999998,
        39.970695
       ]
      ]
     ],
     [
      [
       [
        116.22372499999999,
        39.970423000000004
       ],
       [
        116.223633,
        39.962816999999994
       ],
       [
        116.21493300000002,
        39.963819
       ],
       [
        116.215173,
        39.971008999999995
       ],
       [
        116.22372499999999,
        39.970423000000004
       ]
      ]
     ],
     [
      [
       [
        116.22356899999998,
        39.975912
       ],
       [
        116.230446,
        39.975871999999995
       ],
       [
        116.231068,
        39.971889000000004
       ],
       [
        116.22378199999999,
        39.97182999999999
       ],
       [
        116.22356899999998,
        39.975912
       ]
      ]
     ],
     [
      [
       [
        116.218288,
        39.97957999999999
       ],
       [
        116.224111,
        39.97876099999999
       ],
       [
        116.21966,
        39.972697
       ],
       [
        116.21596900000002,
        39.97157700000001
       ],
       [
        116.21672200000002,
        39.978626
       ],
       [
        116.218288,
        39.97957999999999
       ]
      ]
     ],
     [
      [
       [
        116.20132100000001,
        39.980813999999995
       ],
       [
        116.215265,
        39.98029300000002
       ],
       [
        116.21297000000001,
        39.971972999999984
       ],
       [
        116.20199300000002,
        39.97190499999999
       ],
       [
        116.20132100000001,
        39.980813999999995
       ]
      ]
     ],
     [
      [
       [
        116.238025,
        40.119341999999996
       ],
       [
        116.236597,
        40.12028500000001
       ],
       [
        116.23590599999999,
        40.124766
       ],
       [
        116.23925900000002,
        40.12484100000002
       ],
       [
        116.238025,
        40.119341999999996
       ]
      ]
     ],
     [
      [
       [
        116.233859,
        40.120006999999994
       ],
       [
        116.222225,
        40.11288100000001
       ],
       [
        116.211599,
        40.112866
       ],
       [
        116.19203700000001,
        40.117012
       ],
       [
        116.188423,
        40.130695
       ],
       [
        116.18932299999999,
        40.135102999999994
       ],
       [
        116.212735,
        40.13537000000001
       ],
       [
        116.230647,
        40.12966199999999
       ],
       [
        116.233859,
        40.120006999999994
       ]
      ]
     ],
     [
      [
       [
        116.345878,
        40.026201
       ],
       [
        116.32584700000001,
        40.052474
       ],
       [
        116.32934200000001,
        40.05563
       ],
       [
        116.361115,
        40.066536000000006
       ],
       [
        116.366001,
        40.066529
       ],
       [
        116.376827,
        40.06289099999999
       ],
       [
        116.38909900000002,
        40.031746999999996
       ],
       [
        116.345878,
        40.026201
       ]
      ]
     ],
     [
      [
       [
        116.284009,
        40.071858999999996
       ],
       [
        116.286077,
        40.06789
       ],
       [
        116.279851,
        40.06321
       ],
       [
        116.26696600000001,
        40.059043999999986
       ],
       [
        116.23019700000002,
        40.057743
       ],
       [
        116.19553799999998,
        40.094878
       ],
       [
        116.192607,
        40.102982000000004
       ],
       [
        116.19586599999998,
        40.104062
       ],
       [
        116.249539,
        40.09963299999999
       ],
       [
        116.268837,
        40.086627
       ],
       [
        116.284009,
        40.071858999999996
       ]
      ]
     ],
     [
      [
       [
        116.26045699999999,
        40.099293
       ],
       [
        116.255984,
        40.098908
       ],
       [
        116.251496,
        40.102328000000014
       ],
       [
        116.25658099999998,
        40.10714800000001
       ],
       [
        116.26045699999999,
        40.099293
       ]
      ]
     ]
    ]
   }
  },
  {
   "type": "Feature",
   "properties": {
    "layer": "OFFICIAL_ZONATION_BG",
    "category": "restricted_construction_zone",
    "label_zh": "集中建设区（官方三区图）",
    "source": "DATA-SRC-HAIDIAN-DISTRICT-PLAN-2017-2035",
    "source_figure": "图03 两线三区规划图",
    "official_boundary": false,
    "usable_for_formal": "background_only",
    "precision_note": "栅格公示图矢量化，配准中误差约百米级；仅作背景参考，不作几何/面积依据"
   },
   "geometry": {
    "type": "MultiPolygon",
    "coordinates": [
     [
      [
       [
        116.05357355929671,
        39.9653893765776
       ],
       [
        116.05442299999999,
        39.97039299999999
       ],
       [
        116.05791100000002,
        39.971283
       ],
       [
        116.059774,
        39.96844099999999
       ],
       [
        116.05415833997057,
        39.96522427882969
       ],
       [
        116.05872100000002,
        39.963936
       ],
       [
        116.054227,
        39.961259
       ],
       [
        116.051176,
        39.965321
       ],
       [
        116.05357355929671,
        39.9653893765776
       ]
      ]
     ],
     [
      [
       [
        116.03571499999998,
        39.978773999999994
       ],
       [
        116.03883600000002,
        39.975305999999996
       ],
       [
        116.03567800000002,
        39.975755
       ],
       [
        116.03384399999999,
        39.97778199999999
       ],
       [
        116.034334,
        39.978775
       ],
       [
        116.03571499999998,
        39.978773999999994
       ]
      ]
     ],
     [
      [
       [
        116.04079400000002,
        39.98301699999999
       ],
       [
        116.037212,
        39.982440000000004
       ],
       [
        116.03392500000001,
        39.984679
       ],
       [
        116.04115899999998,
        39.985207
       ],
       [
        116.04079400000002,
        39.98301699999999
       ]
      ]
     ],
     [
      [
       [
        116.03977400000001,
        39.98937400000001
       ],
       [
        116.039487,
        39.988222
       ],
       [
        116.037243,
        39.98735799999999
       ],
       [
        116.03396499999998,
        39.98793400000001
       ],
       [
        116.033177,
        39.99025399999999
       ],
       [
        116.034704,
        39.99121099999999
       ],
       [
        116.03977400000001,
        39.98937400000001
       ]
      ]
     ],
     [
      [
       [
        116.045144,
        39.993799
       ],
       [
        116.05313500000001,
        39.99485099999999
       ],
       [
        116.058299,
        39.99325400000001
       ],
       [
        116.05909,
        39.990911
       ],
       [
        116.05575300000001,
        39.989427
       ],
       [
        116.04420500000002,
        39.99072800000001
       ],
       [
        116.043286,
        39.99234400000001
       ],
       [
        116.045144,
        39.993799
       ]
      ]
     ],
     [
      [
       [
        116.03598700000002,
        39.99284999999999
       ],
       [
        116.03527099999998,
        39.99399400000001
       ],
       [
        116.03892700000002,
        39.99486
       ],
       [
        116.041886,
        39.993432
       ],
       [
        116.04107000000002,
        39.99230200000001
       ],
       [
        116.038559,
        39.992014999999995
       ],
       [
        116.03598700000002,
        39.99284999999999
       ]
      ]
     ],
     [
      [
       [
        116.03855800000001,
        39.99665199999998
       ],
       [
        116.032834,
        39.99279099999999
       ],
       [
        116.032497,
        39.99926
       ],
       [
        116.03855800000001,
        39.99665199999998
       ]
      ]
     ],
     [
      [
       [
        116.04676000000002,
        40.007558
       ],
       [
        116.045056,
        40.008393
       ],
       [
        116.04685300000001,
        40.010628000000004
       ],
       [
        116.051338,
        40.010211
       ],
       [
        116.04676000000002,
        40.007558
       ]
      ]
     ],
     [
      [
       [
        116.044489,
        40.009891
       ],
       [
        116.041671,
        40.012289
       ],
       [
        116.043739,
        40.013991
       ],
       [
        116.04661600000001,
        40.01080799999999
       ],
       [
        116.044489,
        40.009891
       ]
      ]
     ],
     [
      [
       [
        116.047406768693,
        40.035790490919545
       ],
       [
        116.04635200000001,
        40.036908
       ],
       [
        116.049368,
        40.038593
       ],
       [
        116.04967714137632,
        40.03809975256108
       ],
       [
        116.049002,
        40.044063
       ],
       [
        116.050771,
        40.04756699999999
       ],
       [
        116.05609500000001,
        40.048944000000006
       ],
       [
        116.061027,
        40.04679599999999
       ],
       [
        116.06211,
        40.043159
       ],
       [
        116.05697700000002,
        40.03840699999999
       ],
       [
        116.050713,
        40.037042
       ],
       [
        116.04981808718793,
        40.03787486518469
       ],
       [
        116.050681,
        40.036497999999995
       ],
       [
        116.04822459304249,
        40.03536854062033
       ],
       [
        116.049311,
        40.034808
       ],
       [
        116.0489,
        40.033753
       ],
       [
        116.04508,
        40.031884
       ],
       [
        116.04397100000001,
        40.03332199999999
       ],
       [
        116.04652000000002,
        40.036247999999986
       ],
       [
        116.047406768693,
        40.035790490919545
       ]
      ]
     ],
     [
      [
       [
        116.031163,
        40.035819000000004
       ],
       [
        116.03227900000002,
        40.03749700000001
       ],
       [
        116.033944,
        40.03754699999999
       ],
       [
        116.035513,
        40.033860999999995
       ],
       [
        116.03270599999999,
        40.030628
       ],
       [
        116.031185,
        40.03097400000001
       ],
       [
        116.031163,
        40.035819000000004
       ]
      ]
     ],
     [
      [
       [
        116.03917111186185,
        40.04142300065371
       ],
       [
        116.03605853532696,
        40.042055498974285
       ],
       [
        116.03602300000001,
        40.040952999999995
       ],
       [
        116.03119000000001,
        40.04131799999999
       ],
       [
        116.031152,
        40.047941
       ],
       [
        116.03316741837232,
        40.05114099482056
       ],
       [
        116.031515,
        40.051016
       ],
       [
        116.03127099999999,
        40.055612999999994
       ],
       [
        116.03709800000001,
        40.059022
       ],
       [
        116.04319300000002,
        40.05868699999999
       ],
       [
        116.04156218381644,
        40.056017641710625
       ],
       [
        116.04154736402201,
        40.05379527690625
       ],
       [
        116.043348,
        40.05816399999999
       ],
       [
        116.04717700000002,
        40.05821099999999
       ],
       [
        116.04747600649111,
        40.055672639387836
       ],
       [
        116.051883,
        40.05510999999999
       ],
       [
        116.05502099999998,
        40.05268999999999
       ],
       [
        116.04275799999999,
        40.04069400000001
       ],
       [
        116.03986657658353,
        40.04128166404807
       ],
       [
        116.040859,
        40.04054899999999
       ],
       [
        116.03873499999999,
        40.037079
       ],
       [
        116.03427900000001,
        40.037116999999995
       ],
       [
        116.037024,
        40.041397
       ],
       [
        116.03917111186185,
        40.04142300065371
       ]
      ]
     ],
     [
      [
       [
        116.04731899999999,
        40.057703
       ],
       [
        116.05010800000001,
        40.06051399999999
       ],
       [
        116.05303299999999,
        40.060381
       ],
       [
        116.05108799999998,
        40.05645499999999
       ],
       [
        116.04731899999999,
        40.057703
       ]
      ]
     ],
     [
      [
       [
        116.04335424863253,
        40.06762488938734
       ],
       [
        116.03917099999998,
        40.063029
       ],
       [
        116.03565,
        40.06375499999999
       ],
       [
        116.035214,
        40.065341
       ],
       [
        116.03917304284721,
        40.07113166654722
       ],
       [
        116.03738700000001,
        40.069943
       ],
       [
        116.035313,
        40.069964999999996
       ],
       [
        116.034605,
        40.075514000000005
       ],
       [
        116.04051799999999,
        40.077664
       ],
       [
        116.04317500000002,
        40.076817000000005
       ],
       [
        116.04298221502127,
        40.07581524660433
       ],
       [
        116.046434,
        40.07609599999999
       ],
       [
        116.04765200000001,
        40.07533699999999
       ],
       [
        116.046272,
        40.07083
       ],
       [
        116.04361589724448,
        40.067912322004375
       ],
       [
        116.04858500000002,
        40.07007
       ],
       [
        116.048627,
        40.06875599999999
       ],
       [
        116.04685600000002,
        40.067119
       ],
       [
        116.04361,
        40.0668
       ],
       [
        116.04335424863253,
        40.06762488938734
       ]
      ]
     ],
     [
      [
       [
        116.051852,
        40.073498
       ],
       [
        116.05231800000001,
        40.071584
       ],
       [
        116.05087400000001,
        40.069952
       ],
       [
        116.048999,
        40.069646999999996
       ],
       [
        116.048713,
        40.072112999999995
       ],
       [
        116.051852,
        40.073498
       ]
      ]
     ],
     [
      [
       [
        116.03154600000002,
        40.11171499999999
       ],
       [
        116.03572000000001,
        40.11203900000001
       ],
       [
        116.03720999999999,
        40.109988
       ],
       [
        116.03380800000001,
        40.108205999999996
       ],
       [
        116.03115,
        40.110274000000004
       ],
       [
        116.03154600000002,
        40.11171499999999
       ]
      ]
     ],
     [
      [
       [
        116.04135200000002,
        40.116927
       ],
       [
        116.04384800000001,
        40.117185000000006
       ],
       [
        116.042501,
        40.11449000000001
       ],
       [
        116.038222,
        40.11312099999999
       ],
       [
        116.03760600000001,
        40.11404199999999
       ],
       [
        116.04135200000002,
        40.116927
       ]
      ]
     ],
     [
      [
       [
        116.04664100000001,
        40.12088399999998
       ],
       [
        116.04597,
        40.12169000000001
       ],
       [
        116.04708500000001,
        40.125473
       ],
       [
        116.05794100000001,
        40.13043099999999
       ],
       [
        116.06104599999999,
        40.13062299999999
       ],
       [
        116.057306,
        40.123538
       ],
       [
        116.05146200000001,
        40.12089699999999
       ],
       [
        116.04664100000001,
        40.12088399999998
       ]
      ]
     ],
     [
      [
       [
        116.043313,
        40.132133
       ],
       [
        116.045107,
        40.13351999999999
       ],
       [
        116.04961500000002,
        40.134484
       ],
       [
        116.049596,
        40.1334
       ],
       [
        116.04650700000002,
        40.131545
       ],
       [
        116.04361,
        40.131235
       ],
       [
        116.043313,
        40.132133
       ]
      ]
     ],
     [
      [
       [
        116.05395,
        40.156842000000005
       ],
       [
        116.06009700000001,
        40.155376000000004
       ],
       [
        116.059882,
        40.15246799999999
       ],
       [
        116.05469200000002,
        40.15142
       ],
       [
        116.05202999999999,
        40.15323099999999
       ],
       [
        116.05395,
        40.156842000000005
       ]
      ]
     ],
     [
      [
       [
        116.06470600000002,
        39.97233099999999
       ],
       [
        116.07222199999998,
        39.96931599999999
       ],
       [
        116.06828299999998,
        39.968216999999996
       ],
       [
        116.06524099999999,
        39.968560000000004
       ],
       [
        116.063495,
        39.970977
       ],
       [
        116.06470600000002,
        39.97233099999999
       ]
      ]
     ],
     [
      [
       [
        116.06450500000001,
        39.97423500000001
       ],
       [
        116.07085200000002,
        39.97505399999999
       ],
       [
        116.06769099999998,
        39.971866000000006
       ],
       [
        116.06458900000001,
        39.972424
       ],
       [
        116.06450500000001,
        39.97423500000001
       ]
      ]
     ],
     [
      [
       [
        116.099773,
        39.976581
       ],
       [
        116.093081,
        39.975455
       ],
       [
        116.09212,
        39.976153999999994
       ],
       [
        116.098061,
        39.978286000000004
       ],
       [
        116.099596,
        39.978033
       ],
       [
        116.099773,
        39.976581
       ]
      ]
     ],
     [
      [
       [
        116.06975299999999,
        39.986264
       ],
       [
        116.06981600000002,
        39.984618999999995
       ],
       [
        116.06738799999998,
        39.982493
       ],
       [
        116.06636000000002,
        39.98272600000001
       ],
       [
        116.06590100000001,
        39.985439
       ],
       [
        116.06975299999999,
        39.986264
       ]
      ]
     ],
     [
      [
       [
        116.09016100000001,
        39.993214
       ],
       [
        116.0936,
        39.995593
       ],
       [
        116.095746,
        39.995012
       ],
       [
        116.096447,
        39.992414999999994
       ],
       [
        116.09565871238858,
        39.9919673518481
       ],
       [
        116.09848900000001,
        39.992608999999995
       ],
       [
        116.096915,
        39.990473
       ],
       [
        116.093387,
        39.989949
       ],
       [
        116.090147,
        39.99212299999999
       ],
       [
        116.09016100000001,
        39.993214
       ]
      ]
     ],
     [
      [
       [
        116.072644,
        40.00340700000001
       ],
       [
        116.07088899999998,
        40.004436
       ],
       [
        116.073184,
        40.007278
       ],
       [
        116.076267,
        40.005275
       ],
       [
        116.072644,
        40.00340700000001
       ]
      ]
     ],
     [
      [
       [
        116.072908,
        40.012950999999994
       ],
       [
        116.070616,
        40.011169
       ],
       [
        116.06832799999998,
        40.011475000000004
       ],
       [
        116.066179,
        40.013709
       ],
       [
        116.067455,
        40.014523000000004
       ],
       [
        116.07122499999998,
        40.014528
       ],
       [
        116.072908,
        40.012950999999994
       ]
      ]
     ],
     [
      [
       [
        116.08322799999999,
        40.015106
       ],
       [
        116.07900400000001,
        40.014012
       ],
       [
        116.077363,
        40.01488199999999
       ],
       [
        116.08005499999999,
        40.019438000000015
       ],
       [
        116.08368,
        40.016904
       ],
       [
        116.08322799999999,
        40.015106
       ]
      ]
     ],
     [
      [
       [
        116.071226,
        40.019965000000006
       ],
       [
        116.074837,
        40.021505
       ],
       [
        116.07627500000001,
        40.018902
       ],
       [
        116.07456599999999,
        40.017893
       ],
       [
        116.071226,
        40.019965000000006
       ]
      ]
     ],
     [
      [
       [
        116.082935,
        40.02866699999999
       ],
       [
        116.085031,
        40.02154300000001
       ],
       [
        116.08456400000001,
        40.02027400000001
       ],
       [
        116.079375,
        40.021101
       ],
       [
        116.07663,
        40.024024000000004
       ],
       [
        116.07627700000002,
        40.028502
       ],
       [
        116.082935,
        40.02866699999999
       ]
      ]
     ],
     [
      [
       [
        116.06859300000002,
        40.02684
       ],
       [
        116.071445,
        40.02766299999999
       ],
       [
        116.07223500000002,
        40.026421
       ],
       [
        116.070242,
        40.023845
       ],
       [
        116.068088,
        40.024374999999985
       ],
       [
        116.06859300000002,
        40.02684
       ]
      ]
     ],
     [
      [
       [
        116.056444,
        40.027091
       ],
       [
        116.05718,
        40.028166999999996
       ],
       [
        116.061724,
        40.02953099999999
       ],
       [
        116.064038,
        40.029214
       ],
       [
        116.061697,
        40.024696
       ],
       [
        116.059265,
        40.02517499999998
       ],
       [
        116.056444,
        40.027091
       ]
      ]
     ],
     [
      [
       [
        116.06644204856876,
        40.029355084718354
       ],
       [
        116.064516,
        40.029955
       ],
       [
        116.06544993714556,
        40.03204462435015
       ],
       [
        116.05980099999998,
        40.031767
       ],
       [
        116.061999,
        40.033138999999984
       ],
       [
        116.06643500000001,
        40.03392899999999
       ],
       [
        116.06720793746821,
        40.03213096695613
       ],
       [
        116.068506,
        40.03170599999999
       ],
       [
        116.06780676118919,
        40.02979855540262
       ],
       [
        116.070184,
        40.030570999999995
       ],
       [
        116.074592,
        40.029562
       ],
       [
        116.07440700000001,
        40.028529000000006
       ],
       [
        116.06567899999999,
        40.026721
       ],
       [
        116.06381700000001,
        40.028502
       ],
       [
        116.06644204856876,
        40.029355084718354
       ]
      ]
     ],
     [
      [
       [
        116.062605,
        40.03551000000001
       ],
       [
        116.061459,
        40.03600600000001
       ],
       [
        116.064677,
        40.039844
       ],
       [
        116.06578000000002,
        40.037415
       ],
       [
        116.062605,
        40.03551000000001
       ]
      ]
     ],
     [
      [
       [
        116.08301400000002,
        40.03986199999999
       ],
       [
        116.083551,
        40.040642
       ],
       [
        116.088019,
        40.04143799999999
       ],
       [
        116.09057200000001,
        40.040637
       ],
       [
        116.088099,
        40.03885399999999
       ],
       [
        116.08301400000002,
        40.03986199999999
       ]
      ]
     ],
     [
      [
       [
        116.09142499999999,
        40.07539
       ],
       [
        116.09103799999998,
        40.073902
       ],
       [
        116.08948500000001,
        40.073276
       ],
       [
        116.087175,
        40.074623
       ],
       [
        116.08934699999999,
        40.07662899999998
       ],
       [
        116.09142499999999,
        40.07539
       ]
      ]
     ],
     [
      [
       [
        116.090166,
        40.080523
       ],
       [
        116.08738999999998,
        40.08155
       ],
       [
        116.094793,
        40.082635999999994
       ],
       [
        116.09429200000001,
        40.081325000000014
       ],
       [
        116.090166,
        40.080523
       ]
      ]
     ],
     [
      [
       [
        116.091603,
        40.094455999999994
       ],
       [
        116.09626049831043,
        40.09491873798089
       ],
       [
        116.09651,
        40.11503200000001
       ],
       [
        116.09854000000001,
        40.116224999999986
       ],
       [
        116.12043,
        40.114413000000006
       ],
       [
        116.12424400000002,
        40.113353999999994
       ],
       [
        116.12932736962385,
        40.087088228128295
       ],
       [
        116.127129,
        40.113637999999995
       ],
       [
        116.127957,
        40.119806999999994
       ],
       [
        116.171873,
        40.12864499999999
       ],
       [
        116.18298071375324,
        40.12878476616316
       ],
       [
        116.16763500000002,
        40.13493700000001
       ],
       [
        116.16810449966064,
        40.13575204428522
       ],
       [
        116.16663000000001,
        40.135128
       ],
       [
        116.16436000000002,
        40.135661000000006
       ],
       [
        116.163879,
        40.140934
       ],
       [
        116.16885500000001,
        40.141843
       ],
       [
        116.17012600148594,
        40.13926109924481
       ],
       [
        116.179779,
        40.156012000000004
       ],
       [
        116.18676509354214,
        40.155119456051295
       ],
       [
        116.18854499999999,
        40.158606999999996
       ],
       [
        116.195085,
        40.15986
       ],
       [
        116.195702,
        40.154838999999996
       ],
       [
        116.19239359140717,
        40.154400034244155
       ],
       [
        116.195624,
        40.153987
       ],
       [
        116.240189,
        40.134778999999995
       ],
       [
        116.23927,
        40.122399
       ],
       [
        116.23656200000002,
        40.11329800000001
       ],
       [
        116.234166,
        40.109354
       ],
       [
        116.21129508493628,
        40.11742496678796
       ],
       [
        116.21165800000001,
        40.113099000000005
       ],
       [
        116.207943,
        40.102187
       ],
       [
        116.20309127248713,
        40.099646572890464
       ],
       [
        116.208414,
        40.098094
       ],
       [
        116.21055600000001,
        40.09146499999999
       ],
       [
        116.197251,
        40.089061
       ],
       [
        116.18736036847147,
        40.091406980917455
       ],
       [
        116.136075,
        40.06451599999999
       ],
       [
        116.134599,
        40.065358999999994
       ],
       [
        116.13279534894426,
        40.06915683371031
       ],
       [
        116.134172,
        40.062036
       ],
       [
        116.112213,
        40.040999
       ],
       [
        116.102208,
        40.03781800000001
       ],
       [
        116.09581800000001,
        40.05924000000001
       ],
       [
        116.09622577986708,
        40.092119719056434
       ],
       [
        116.09147300000001,
        40.093329
       ],
       [
        116.091603,
        40.094455999999994
       ]
      ]
     ],
     [
      [
       [
        116.083707,
        40.093195999999985
       ],
       [
        116.07493000000001,
        40.093971999999994
       ],
       [
        116.08366300000002,
        40.095524000000005
       ],
       [
        116.088064,
        40.09423
       ],
       [
        116.083707,
        40.093195999999985
       ]
      ]
     ],
     [
      [
       [
        116.09079400000002,
        40.11285999999998
       ],
       [
        116.09310999999998,
        40.111004
       ],
       [
        116.09106200000001,
        40.110275
       ],
       [
        116.08951,
        40.11138499999999
       ],
       [
        116.08946799999998,
        40.11274699999999
       ],
       [
        116.09079400000002,
        40.11285999999998
       ]
      ]
     ],
     [
      [
       [
        116.06488600000002,
        40.11947799999999
       ],
       [
        116.06638700000002,
        40.12008899999999
       ],
       [
        116.07221,
        40.12072400000001
       ],
       [
        116.070817,
        40.118396000000004
       ],
       [
        116.06765,
        40.11650399999999
       ],
       [
        116.06488300000001,
        40.118410999999995
       ],
       [
        116.06488600000002,
        40.11947799999999
       ]
      ]
     ],
     [
      [
       [
        116.06504908519175,
        40.12829496352401
       ],
       [
        116.06273000000002,
        40.123825000000004
       ],
       [
        116.05858699999999,
        40.12091399999999
       ],
       [
        116.057117,
        40.121545
       ],
       [
        116.06390799999998,
        40.12856599999999
       ],
       [
        116.06492082435105,
        40.12834620375811
       ],
       [
        116.063486,
        40.13025
       ],
       [
        116.077053,
        40.140995
       ],
       [
        116.086222,
        40.146731
       ],
       [
        116.09342692538183,
        40.14656554769465
       ],
       [
        116.09590800000001,
        40.14979099999999
       ],
       [
        116.09912099999998,
        40.14975200000001
       ],
       [
        116.098458,
        40.14689
       ],
       [
        116.0940326879005,
        40.14636762981619
       ],
       [
        116.09935717424936,
        40.144627798895094
       ],
       [
        116.10004799999999,
        40.14596199999999
       ],
       [
        116.103316,
        40.146491000000005
       ],
       [
        116.103535,
        40.14486000000001
       ],
       [
        116.101685,
        40.142907
       ],
       [
        116.09994300000001,
        40.143219
       ],
       [
        116.09956876893517,
        40.14411896140396
       ],
       [
        116.10042099999998,
        40.14114
       ],
       [
        116.08421000000001,
        40.131277999999995
       ],
       [
        116.07089718196993,
        40.126531969384466
       ],
       [
        116.075886,
        40.125682999999995
       ],
       [
        116.07444000000001,
        40.12299600000001
       ],
       [
        116.065621,
        40.120383999999994
       ],
       [
        116.06415399999999,
        40.12400600000001
       ],
       [
        116.06743390689108,
        40.128228529208535
       ],
       [
        116.06504908519175,
        40.12829496352401
       ]
      ]
     ],
     [
      [
       [
        116.07731000000001,
        40.12648299999999
       ],
       [
        116.079707,
        40.127866
       ],
       [
        116.08225500000002,
        40.12674799999999
       ],
       [
        116.08188000000001,
        40.12534299999999
       ],
       [
        116.07903699999999,
        40.12477099999999
       ],
       [
        116.07731000000001,
        40.12648299999999
       ]
      ]
     ],
     [
      [
       [
        116.093606,
        40.13438200000001
       ],
       [
        116.09336,
        40.136659
       ],
       [
        116.0995,
        40.13700300000001
       ],
       [
        116.095911,
        40.13409299999999
       ],
       [
        116.093606,
        40.13438200000001
       ]
      ]
     ],
     [
      [
       [
        116.14375400000002,
        39.96360899999999
       ],
       [
        116.14262899999999,
        39.965047
       ],
       [
        116.14302799999999,
        39.966814
       ],
       [
        116.148346,
        39.967949
       ],
       [
        116.148939,
        39.96545199999999
       ],
       [
        116.14375400000002,
        39.96360899999999
       ]
      ]
     ],
     [
      [
       [
        116.159795,
        39.98215799999999
       ],
       [
        116.157775,
        39.98011099999999
       ],
       [
        116.155521,
        39.980701
       ],
       [
        116.155495,
        39.981569
       ],
       [
        116.158972,
        39.983706999999995
       ],
       [
        116.159795,
        39.98215799999999
       ]
      ]
     ],
     [
      [
       [
        116.106601,
        39.97941
       ],
       [
        116.11174599999998,
        39.983407
       ],
       [
        116.14332800000001,
        39.990719999999996
       ],
       [
        116.146627,
        39.98799
       ],
       [
        116.149355,
        39.98190199999999
       ],
       [
        116.14379100000001,
        39.978072000000004
       ],
       [
        116.136958,
        39.976493
       ],
       [
        116.10884400000002,
        39.975206
       ],
       [
        116.106601,
        39.97941
       ]
      ]
     ],
     [
      [
       [
        116.106069,
        39.98661
       ],
       [
        116.09927600000002,
        39.98510399999999
       ],
       [
        116.10241000000002,
        39.98785199999999
       ],
       [
        116.10654800000002,
        39.987735
       ],
       [
        116.106069,
        39.98661
       ]
      ]
     ],
     [
      [
       [
        116.18840700000001,
        39.99452699999999
       ],
       [
        116.18202300000002,
        39.996155
       ],
       [
        116.183154,
        39.99743200000001
       ],
       [
        116.18840700000001,
        39.99452699999999
       ]
      ]
     ],
     [
      [
       [
        116.195458,
        39.998082
       ],
       [
        116.19548000000002,
        39.996598999999996
       ],
       [
        116.19102599999998,
        39.996423
       ],
       [
        116.189769,
        39.99770800000001
       ],
       [
        116.19389800000002,
        39.999251
       ],
       [
        116.195458,
        39.998082
       ]
      ]
     ],
     [
      [
       [
        116.154739,
        40.015091000000005
       ],
       [
        116.149082,
        40.011686
       ],
       [
        116.147477,
        40.011729
       ],
       [
        116.14538200000001,
        40.013855
       ],
       [
        116.15031200000001,
        40.01762999999999
       ],
       [
        116.154739,
        40.015091000000005
       ]
      ]
     ],
     [
      [
       [
        116.10492000000002,
        40.02004399999999
       ],
       [
        116.112593,
        40.028239000000006
       ],
       [
        116.123591,
        40.027951000000016
       ],
       [
        116.12645,
        40.022598999999985
       ],
       [
        116.12260299999998,
        40.016901000000004
       ],
       [
        116.12014459494921,
        40.016097652613084
       ],
       [
        116.11619200000001,
        40.01223699999999
       ],
       [
        116.11134699999998,
        40.012843999999994
       ],
       [
        116.11199544745074,
        40.013434202129226
       ],
       [
        116.10455199999998,
        40.011941
       ],
       [
        116.10355499999999,
        40.015822
       ],
       [
        116.10492000000002,
        40.02004399999999
       ]
      ]
     ],
     [
      [
       [
        116.13858,
        40.014010000000006
       ],
       [
        116.13726800000002,
        40.01467099999999
       ],
       [
        116.136896,
        40.016339
       ],
       [
        116.13870100000001,
        40.017832
       ],
       [
        116.14389599999998,
        40.019698000000005
       ],
       [
        116.14691900000001,
        40.01909500000001
       ],
       [
        116.145527,
        40.014327
       ],
       [
        116.13858,
        40.014010000000006
       ]
      ]
     ],
     [
      [
       [
        116.13453399999999,
        40.02457700000001
       ],
       [
        116.129093,
        40.016454
       ],
       [
        116.12585399999999,
        40.01505099999999
       ],
       [
        116.12222700000001,
        40.015089
       ],
       [
        116.126852,
        40.022178999999994
       ],
       [
        116.131269,
        40.025579
       ],
       [
        116.13453399999999,
        40.02457700000001
       ]
      ]
     ],
     [
      [
       [
        116.134361,
        40.016628999999995
       ],
       [
        116.13009999999998,
        40.01711999999999
       ],
       [
        116.135034,
        40.024589999999996
       ],
       [
        116.138877,
        40.020877
       ],
       [
        116.134361,
        40.016628999999995
       ]
      ]
     ],
     [
      [
       [
        116.145302,
        40.03607699999999
       ],
       [
        116.143116,
        40.034225
       ],
       [
        116.141504,
        40.034467
       ],
       [
        116.137331,
        40.036341
       ],
       [
        116.13624500000002,
        40.038688
       ],
       [
        116.138487,
        40.040395
       ],
       [
        116.143417,
        40.040129
       ],
       [
        116.145302,
        40.03607699999999
       ]
      ]
     ],
     [
      [
       [
        116.15234400000001,
        40.035621
       ],
       [
        116.149611,
        40.035496000000016
       ],
       [
        116.150076,
        40.03950099999999
       ],
       [
        116.152883,
        40.040116
       ],
       [
        116.15234400000001,
        40.035621
       ]
      ]
     ],
     [
      [
       [
        116.162488,
        40.03856600000001
       ],
       [
        116.16133000000002,
        40.036567000000005
       ],
       [
        116.15918099999999,
        40.036637
       ],
       [
        116.15926899999998,
        40.041136
       ],
       [
        116.162097,
        40.041067
       ],
       [
        116.162488,
        40.03856600000001
       ]
      ]
     ],
     [
      [
       [
        116.164848,
        40.04092299999999
       ],
       [
        116.160725,
        40.04144799999999
       ],
       [
        116.16680499999998,
        40.04495599999999
       ],
       [
        116.166743,
        40.041498000000004
       ],
       [
        116.164848,
        40.04092299999999
       ]
      ]
     ],
     [
      [
       [
        116.15392,
        40.052077999999995
       ],
       [
        116.15307100000001,
        40.05354
       ],
       [
        116.16196600000002,
        40.051506
       ],
       [
        116.16177299999998,
        40.049852999999985
       ],
       [
        116.15960424760172,
        40.05046754329715
       ],
       [
        116.160468,
        40.049747
       ],
       [
        116.159738,
        40.045176999999995
       ],
       [
        116.158964,
        40.044834999999985
       ],
       [
        116.152781,
        40.049865
       ],
       [
        116.155018,
        40.050751999999996
       ],
       [
        116.15871898088469,
        40.05071837984192
       ],
       [
        116.15392,
        40.052077999999995
       ]
      ]
     ],
     [
      [
       [
        116.191814,
        40.086563999999996
       ],
       [
        116.196061,
        40.088006
       ],
       [
        116.198173,
        40.08431999999999
       ],
       [
        116.193696,
        40.082859
       ],
       [
        116.191814,
        40.086563999999996
       ]
      ]
     ],
     [
      [
       [
        116.101403,
        40.154245
       ],
       [
        116.10250600000002,
        40.153869
       ],
       [
        116.10321900000001,
        40.14986699999999
       ],
       [
        116.102337,
        40.14885099999999
       ],
       [
        116.10055500000001,
        40.149241
       ],
       [
        116.099854,
        40.15293500000001
       ],
       [
        116.101403,
        40.154245
       ]
      ]
     ],
     [
      [
       [
        116.20267911946507,
        39.979698995134356
       ],
       [
        116.203617,
        39.992397
       ],
       [
        116.207497,
        39.996656
       ],
       [
        116.26266999999999,
        40.008028
       ],
       [
        116.26486700000001,
        40.004974999999995
       ],
       [
        116.26514974183667,
        40.00238703963117
       ],
       [
        116.266001,
        40.003341
       ],
       [
        116.26813799999998,
        40.003324999999975
       ],
       [
        116.26811300000001,
        40.001907
       ],
       [
        116.26535606027493,
        40.000498456011705
       ],
       [
        116.26712453027146,
        39.98430574547946
       ],
       [
        116.26952700000001,
        39.980225999999995
       ],
       [
        116.2675512133677,
        39.98039765368681
       ],
       [
        116.26891,
        39.96794899999999
       ],
       [
        116.262812,
        39.93548599999999
       ],
       [
        116.26101200000001,
        39.933315
       ],
       [
        116.22593199999999,
        39.915696
       ],
       [
        116.20526000000001,
        39.915418
       ],
       [
        116.202231,
        39.91642299999999
       ],
       [
        116.20121900000001,
        39.959922
       ],
       [
        116.20238054280873,
        39.97565566990254
       ],
       [
        116.20152,
        39.974302
       ],
       [
        116.200882,
        39.982699
       ],
       [
        116.20189400000001,
        39.983475
       ],
       [
        116.20267911946507,
        39.979698995134356
       ]
      ]
     ],
     [
      [
       [
        116.282279,
        39.97164500000001
       ],
       [
        116.28103300000001,
        39.97157200000001
       ],
       [
        116.269937,
        39.97822
       ],
       [
        116.273678,
        39.988014
       ],
       [
        116.274939,
        39.988908
       ],
       [
        116.285091,
        39.98865
       ],
       [
        116.29434499999999,
        39.987059
       ],
       [
        116.294782,
        39.981
       ],
       [
        116.282279,
        39.97164500000001
       ]
      ]
     ],
     [
      [
       [
        116.23007500000001,
        40.043239
       ],
       [
        116.24402500000001,
        40.044027
       ],
       [
        116.2514318468059,
        40.04131965847066
       ],
       [
        116.244351,
        40.060430000000004
       ],
       [
        116.27614400000002,
        40.078149
       ],
       [
        116.284866,
        40.080755
       ],
       [
        116.344941,
        40.025562000000015
       ],
       [
        116.34802999999998,
        40.02160500000001
       ],
       [
        116.34768700000001,
        40.01908400000001
       ],
       [
        116.333697,
        40.00341999999999
       ],
       [
        116.268109,
        40.00393699999999
       ],
       [
        116.26319799999999,
        40.009539
       ],
       [
        116.25167274861131,
        40.04066929311839
       ],
       [
        116.24374499999999,
        40.022560000000006
       ],
       [
        116.236429,
        40.02413
       ],
       [
        116.22583552634042,
        40.02944257955863
       ],
       [
        116.226041,
        40.027801
       ],
       [
        116.219847,
        40.027795999999995
       ],
       [
        116.22016072043176,
        40.0322877253528
       ],
       [
        116.219081,
        40.032828999999985
       ],
       [
        116.21780100000001,
        40.03927899999999
       ],
       [
        116.23007500000001,
        40.043239
       ]
      ]
     ],
     [
      [
       [
        116.326011,
        40.053042000000005
       ],
       [
        116.32879799999999,
        40.04986499999999
       ],
       [
        116.34620999999999,
        40.02621299999999
       ],
       [
        116.34522400000002,
        40.025935
       ],
       [
        116.34439999999998,
        40.02680899999999
       ],
       [
        116.32452200000002,
        40.05218000000001
       ],
       [
        116.326011,
        40.053042000000005
       ]
      ]
     ],
     [
      [
       [
        116.21222,
        40.073254999999996
       ],
       [
        116.22298999999998,
        40.074502
       ],
       [
        116.23050100000002,
        40.05886
       ],
       [
        116.233812,
        40.045678
       ],
       [
        116.21683,
        40.041502
       ],
       [
        116.199872,
        40.067577
       ],
       [
        116.21222,
        40.073254999999996
       ]
      ]
     ],
     [
      [
       [
        116.202961,
        40.075861
       ],
       [
        116.201318,
        40.076968
       ],
       [
        116.203178,
        40.0787
       ],
       [
        116.20559500000002,
        40.07743500000001
       ],
       [
        116.202961,
        40.075861
       ]
      ]
     ],
     [
      [
       [
        116.20795299999999,
        40.07872900000001
       ],
       [
        116.205934,
        40.077669
       ],
       [
        116.203578,
        40.079454999999996
       ],
       [
        116.20556599999999,
        40.08051400000001
       ],
       [
        116.20795299999999,
        40.07872900000001
       ]
      ]
     ],
     [
      [
       [
        116.26427200000002,
        40.081385
       ],
       [
        116.25916000000001,
        40.09259800000001
       ],
       [
        116.267485,
        40.093360000000004
       ],
       [
        116.273167,
        40.079799
       ],
       [
        116.26427200000002,
        40.081385
       ]
      ]
     ],
     [
      [
       [
        116.214403,
        40.09241600000001
       ],
       [
        116.217322,
        40.091015999999996
       ],
       [
        116.21771900000002,
        40.08876999999999
       ],
       [
        116.21367899999998,
        40.08801999999999
       ],
       [
        116.21334400000002,
        40.09192699999999
       ],
       [
        116.214403,
        40.09241600000001
       ]
      ]
     ],
     [
      [
       [
        116.23813700000001,
        40.095985
       ],
       [
        116.239867,
        40.087593000000005
       ],
       [
        116.232775,
        40.08570199999998
       ],
       [
        116.23085500000002,
        40.089572
       ],
       [
        116.23362600000002,
        40.094654000000006
       ],
       [
        116.23813700000001,
        40.095985
       ]
      ]
     ],
     [
      [
       [
        116.235889,
        40.095702
       ],
       [
        116.229965,
        40.093729999999994
       ],
       [
        116.22817500000001,
        40.098446
       ],
       [
        116.23230000000001,
        40.09991200000001
       ],
       [
        116.235889,
        40.095702
       ]
      ]
     ],
     [
      [
       [
        116.249107,
        40.099251
       ],
       [
        116.245729,
        40.10498400000001
       ],
       [
        116.25225100000002,
        40.10298899999999
       ],
       [
        116.25636799999998,
        40.099315
       ],
       [
        116.25574599999999,
        40.09474900000001
       ],
       [
        116.249107,
        40.099251
       ]
      ]
     ],
     [
      [
       [
        116.217896,
        40.10506699999999
       ],
       [
        116.22455399999998,
        40.105346000000004
       ],
       [
        116.225465,
        40.10434600000001
       ],
       [
        116.22347899999998,
        40.103547000000006
       ],
       [
        116.217819,
        40.103880999999994
       ],
       [
        116.217896,
        40.10506699999999
       ]
      ]
     ],
     [
      [
       [
        116.21285500000002,
        40.111337
       ],
       [
        116.211659,
        40.112344
       ],
       [
        116.218186,
        40.112584000000005
       ],
       [
        116.21836800000001,
        40.110173999999994
       ],
       [
        116.21285500000002,
        40.111337
       ]
      ]
     ]
    ]
   }
  },
  {
   "type": "Feature",
   "properties": {
    "layer": "OFFICIAL_ZONATION_BG",
    "category": "ecological_control_zone",
    "label_zh": "集中建设区（官方三区图）",
    "source": "DATA-SRC-HAIDIAN-DISTRICT-PLAN-2017-2035",
    "source_figure": "图03 两线三区规划图",
    "official_boundary": false,
    "usable_for_formal": "background_only",
    "precision_note": "栅格公示图矢量化，配准中误差约百米级；仅作背景参考，不作几何/面积依据"
   },
   "geometry": {
    "type": "MultiPolygon",
    "coordinates": [
     [
      [
       [
        116.20694999999999,
        39.948233
       ],
       [
        116.206846,
        39.954223000000006
       ],
       [
        116.20793100000002,
        39.953551999999995
       ],
       [
        116.20859500000002,
        39.94673099999999
       ],
       [
        116.20694999999999,
        39.948233
       ]
      ]
     ],
     [
      [
       [
        116.20402262515402,
        39.96400005162544
       ],
       [
        116.20357599999998,
        39.954482
       ],
       [
        116.202477,
        39.953282
       ],
       [
        116.197613,
        39.95586200000001
       ],
       [
        116.18077500000001,
        39.968801000000006
       ],
       [
        116.18108255600814,
        39.97524718131406
       ],
       [
        116.164376,
        39.97676899999999
       ],
       [
        116.15217700000001,
        39.983273
       ],
       [
        116.071324,
        40.032717999999996
       ],
       [
        116.04259999999998,
        40.085432
       ],
       [
        116.044993,
        40.090205999999995
       ],
       [
        116.049392,
        40.095409000000004
       ],
       [
        116.067611,
        40.11407299999998
       ],
       [
        116.07750500000002,
        40.118279
       ],
       [
        116.088043,
        40.11959
       ],
       [
        116.12729299999998,
        40.115676
       ],
       [
        116.15214934253213,
        40.101450613156004
       ],
       [
        116.152155,
        40.12133
       ],
       [
        116.167511,
        40.127092999999995
       ],
       [
        116.17019396427922,
        40.126792473650255
       ],
       [
        116.16727300000001,
        40.12771500000001
       ],
       [
        116.163989,
        40.136109
       ],
       [
        116.16660499755898,
        40.135612156857775
       ],
       [
        116.166293,
        40.137111000000004
       ],
       [
        116.17061246504508,
        40.13711387434066
       ],
       [
        116.168895,
        40.141276
       ],
       [
        116.16926900000001,
        40.142748
       ],
       [
        116.175913,
        40.14417100000001
       ],
       [
        116.187233,
        40.14414299999999
       ],
       [
        116.188757,
        40.14057600000001
       ],
       [
        116.188083,
        40.13534800000001
       ],
       [
        116.171424,
        40.135146999999996
       ],
       [
        116.17106661330568,
        40.13601319430462
       ],
       [
        116.16744726848202,
        40.13545217444445
       ],
       [
        116.17119100000001,
        40.13474099999999
       ],
       [
        116.171919,
        40.127371
       ],
       [
        116.17103205258204,
        40.12669858371751
       ],
       [
        116.18663899999999,
        40.124949
       ],
       [
        116.18731300000002,
        40.11086800000001
       ],
       [
        116.17904101061971,
        40.10729564667935
       ],
       [
        116.19448,
        40.11312099999999
       ],
       [
        116.23100600000001,
        40.113352
       ],
       [
        116.245555,
        40.104778
       ],
       [
        116.251049,
        40.10050999999999
       ],
       [
        116.23636800000001,
        40.095284
       ],
       [
        116.22112029658716,
        40.09206693246946
       ],
       [
        116.222715,
        40.074678000000006
       ],
       [
        116.21313500000001,
        40.06733800000001
       ],
       [
        116.21161839331936,
        40.0673700264691
       ],
       [
        116.21527318394347,
        40.065273408703376
       ],
       [
        116.225759,
        40.066151
       ],
       [
        116.226305,
        40.062951999999996
       ],
       [
        116.22095951238731,
        40.062010883332185
       ],
       [
        116.23079031656356,
        40.05636906246629
       ],
       [
        116.23043,
        40.05851
       ],
       [
        116.234715,
        40.058748999999985
       ],
       [
        116.235868,
        40.055553
       ],
       [
        116.23288485988573,
        40.05516679026
       ],
       [
        116.254667,
        40.042659
       ],
       [
        116.261824,
        40.03685599999999
       ],
       [
        116.27699100000001,
        39.974701
       ],
       [
        116.276244,
        39.971409
       ],
       [
        116.26973400000001,
        39.96823499999999
       ],
       [
        116.260827,
        39.96794899999999
       ],
       [
        116.21600269540156,
        39.972058257917816
       ],
       [
        116.214788,
        39.97138900000001
       ],
       [
        116.21400586837298,
        39.97224090117378
       ],
       [
        116.21389700000002,
        39.97137399999999
       ],
       [
        116.20438567362551,
        39.9717353827495
       ],
       [
        116.20434227155381,
        39.970810708019826
       ],
       [
        116.213665,
        39.97087
       ],
       [
        116.21130999999998,
        39.957271
       ],
       [
        116.20804800000002,
        39.954502999999995
       ],
       [
        116.206618,
        39.955721000000004
       ],
       [
        116.20402262515402,
        39.96400005162544
       ]
      ],
      [
       [
        116.19213485829559,
        40.08594502565178
       ],
       [
        116.18270028671606,
        40.08395058779532
       ],
       [
        116.19637190198887,
        40.07611371605928
       ],
       [
        116.19213485829559,
        40.08594502565178
       ]
      ]
     ],
     [
      [
       [
        116.19210299999999,
        40.128811
       ],
       [
        116.18687600000001,
        40.12582299999999
       ],
       [
        116.18269599999999,
        40.125801
       ],
       [
        116.17199800000002,
        40.128480999999994
       ],
       [
        116.171682,
        40.135041
       ],
       [
        116.188003,
        40.135025999999996
       ],
       [
        116.192083,
        40.130585
       ],
       [
        116.19210299999999,
        40.128811
       ]
      ]
     ],
     [
      [
       [
        116.19582899999999,
        40.15455000000001
       ],
       [
        116.194906,
        40.15375699999999
       ],
       [
        116.188448,
        40.152973
       ],
       [
        116.184787,
        40.154423
       ],
       [
        116.19582899999999,
        40.15455000000001
       ]
      ]
     ],
     [
      [
       [
        116.289976,
        39.981119
       ],
       [
        116.294167,
        39.981133
       ],
       [
        116.29241199999998,
        39.97374099999999
       ],
       [
        116.282504,
        39.971889
       ],
       [
        116.28275300000001,
        39.974533999999984
       ],
       [
        116.289976,
        39.981119
       ]
      ]
     ],
     [
      [
       [
        116.236547,
        40.055414999999996
       ],
       [
        116.23489699999999,
        40.05880299999999
       ],
       [
        116.244023,
        40.060588
       ],
       [
        116.245097,
        40.056719
       ],
       [
        116.236547,
        40.055414999999996
       ]
      ]
     ],
     [
      [
       [
        116.230286,
        40.113968
       ],
       [
        116.229926,
        40.116136
       ],
       [
        116.234222,
        40.11726099999999
       ],
       [
        116.23479700000001,
        40.113973
       ],
       [
        116.230286,
        40.113968
       ]
      ]
     ],
     [
      [
       [
        116.222221,
        40.119572999999995
       ],
       [
        116.229073,
        40.11615
       ],
       [
        116.22981900000002,
        40.114057
       ],
       [
        116.22129600000001,
        40.113917
       ],
       [
        116.21983699999998,
        40.11977099999999
       ],
       [
        116.222221,
        40.119572999999995
       ]
      ]
     ]
    ]
   }
  }
 ]
}