{
  "type": "FeatureCollection",
  "name": "building_footprints_scaffold",
  "features": [
    {
      "type": "Feature",
      "id": "BLDG-001",
      "properties": {
        "id": "BLDG-001",
        "layer": "BUILDING_FOOTPRINT",
        "source_type": "agent_generated_design",
        "confidence": "medium",
        "geometry_role": "design_proposal",
        "building_type": "ai_r_and_d",
        "name_zh": "众智园 AI 研发更新示范基底",
        "area_sqm_declared": 310807.184
      },
      "geometry": {
        "type": "Polygon",
        "coordinates": [
          [
            [
              116.341572,
              39.95475
            ],
            [
              116.341572,
              39.97225
            ],
            [
              116.34344399999999,
              39.97225
            ],
            [
              116.34344399999999,
              39.95475
            ],
            [
              116.341572,
              39.95475
            ]
          ]
        ]
      }
    },
    {
      "type": "Feature",
      "id": "BLDG-002",
      "properties": {
        "id": "BLDG-002",
        "layer": "BUILDING_FOOTPRINT",
        "source_type": "agent_generated_design",
        "confidence": "medium",
        "geometry_role": "design_proposal",
        "building_type": "mixed_use",
        "name_zh": "大钟寺国际路演客厅基底"
      },
      "geometry": {
        "type": "Polygon",
        "coordinates": [
          [
            [
              116.349,
              39.958
            ],
            [
              116.352,
              39.958
            ],
            [
              116.352,
              39.96
            ],
            [
              116.349,
              39.96
            ],
            [
              116.349,
              39.958
            ]
          ]
        ]
      }
    }
  ]
}
