{
  "type": "FeatureCollection",
  "name": "green_space.geojson",
  "features": [
    {
      "type": "Feature",
      "id": "GREEN-001",
      "properties": {
        "id": "GREEN-001",
        "layer": "GREEN_SPACE",
        "source_type": "agent_generated_design",
        "confidence": "medium",
        "geometry_role": "design_proposal",
        "land_use_code": "1401",
        "green_type": "G1 公园绿地（遗址公园）",
        "name_zh": "京张铁路遗址公园带",
        "area_sqm_declared": 1060217.4,
        "constraint_source_id": "CONSTRAINTS-001",
        "key_area_id": "PROV-KEY-002/003",
        "official_boundary": false,
        "boundary_precision": "provisional_rough",
        "provisional_note": "基于天地图1:100万真实水系/铁路线位缓冲示意，位置中误差100-500m；官方蓝线发布后整体重算"
      },
      "geometry": {
        "type": "MultiPolygon",
        "coordinates": [
          [
            [
              [
                116.34056266233715,
                39.96221882397581
              ],
              [
                116.34056269737368,
                39.962218630988524
              ],
              [
                116.34081002022263,
                39.96104261281039
              ],
              [
                116.3408100570287,
                39.961042455543236
              ],
              [
                116.34092898565656,
                39.960581348217055
              ],
              [
                116.34097883600795,
                39.960388075092425
              ],
              [
                116.34097893884059,
                39.96038774290979
              ],
              [
                116.34107889860461,
                39.96011172336612
              ],
              [
                116.3410791647674,
                39.96011114440384
              ],
              [
                116.34240438247025,
                39.95775359362265
              ],
              [
                116.34290656301549,
                39.956860188749936
              ],
              [
                116.34291236703844,
                39.956849632526506
              ],
              [
                116.34466932448666,
                39.953581535945766
              ],
              [
                116.34541424048538,
                39.952195820167915
              ],
              [
                116.3454855564673,
                39.95206314073701
              ],
              [
                116.34548557507095,
                39.952063106525415
              ],
              [
                116.34550702118385,
                39.95202411929484
              ],
              [
                116.34613155516601,
                39.950888528385455
              ],
              [
                116.34671211151863,
                39.949832873898394
              ],
              [
                116.34673129785557,
                39.94979503989886
              ],
              [
                116.34674146695593,
                39.9497731817416
              ],
              [
                116.34676537622752,
                39.94971379403896
              ],
              [
                116.34678248483492,
                39.94965313119482
              ],
              [
                116.34679271782447,
                39.94959145879084
              ],
              [
                116.3468796062887,
                39.94879388737061
              ],
              [
                116.34698329153147,
                39.94784217530044
              ],
              [
                116.34698435401138,
                39.94783146070749
              ],
              [
                116.34717331183482,
                39.94571756391061
              ],
              [
                116.34717333867026,
                39.94571734319153
              ],
              [
                116.34738415175791,
                39.94434774803052
              ],
              [
                116.34739044029513,
                39.944277542307404
              ],
              [
                116.347387762571,
                39.94420731092876
              ],
              [
                116.34737615428679,
                39.94413761970126
              ],
              [
                116.347355727111,
                39.94406913985787
              ],
              [
                116.34732667793457,
                39.94400253084865
              ],
              [
                116.34728928649002,
                39.94393843415767
              ],
              [
                116.34724391296423,
                39.94387746710518
              ],
              [
                116.34719099433563,
                39.94382021683545
              ],
              [
                116.34713104012607,
                39.94376723456422
              ],
              [
                116.34706462779049,
                39.94371903071689
              ],
              [
                116.34699239696504,
                39.94367606935514
              ],
              [
                116.34691504321599,
                39.94363876437704
              ],
              [
                116.34683331157984,
                39.94360747483104
              ],
              [
                116.34676653829705,
                39.943587931321034
              ],
              [
                116.34676600128388,
                39.94358774994048
              ],
              [
                116.34676549056107,
                39.943587528088194
              ],
              [
                116.34676501126076,
                39.943587267993486
              ],
              [
                116.34676456819925,
                39.943586972269976
              ],
              [
                116.34676416582872,
                39.94358664388928
              ],
              [
                116.34676380819245,
                39.94358628615121
              ],
              [
                116.34676349888424,
                39.943585902650526
              ],
              [
                116.3467632410122,
                39.94358549724093
              ],
              [
                116.34676303716762,
                39.94358507399624
              ],
              [
                116.34676288939885,
                39.943584637169494
              ],
              [
                116.34676279919076,
                39.943584191150215
              ],
              [
                116.34676276744985,
                39.94358374042034
              ],
              [
                116.34676279449504,
                39.94358328950905
              ],
              [
                116.34676288005458,
                39.94358284294745
              ],
              [
                116.3467630232687,
                39.943582405222884
              ],
              [
                116.34820284990157,
                39.939959084176344
              ],
              [
                116.34822526795605,
                39.93989086033001
              ],
              [
                116.3482388693149,
                39.93982138307914
              ],
              [
                116.34824355827423,
                39.93975121411306
              ],
              [
                116.34823928961612,
                39.939681029245186
              ],
              [
                116.34822610462496,
                39.939611504422274
              ],
              [
                116.34820413010111,
                39.939543309172194
              ],
              [
                116.34817357795586,
                39.93947710025702
              ],
              [
                116.34813474225076,
                39.939413515303904
              ],
              [
                116.348087997029,
                39.93935316668212
              ],
              [
                116.3480837177651,
                39.9393487036963
              ],
              [
                116.34808340019232,
                39.93934833604086
              ],
              [
                116.34808313091959,
                39.93934794621309
              ],
              [
                116.34808291253555,
                39.93934753796052
              ],
              [
                116.34808274713963,
                39.939347115207916
              ],
              [
                116.34808263632183,
                39.939346682019334
              ],
              [
                116.34808258114752,
                39.939346242559175
              ],
              [
                116.34808258214706,
                39.93934580105216
              ],
              [
                116.34808263931089,
                39.939345361742724
              ],
              [
                116.34808275208941,
                39.93934492885406
              ],
              [
                116.34808291939851,
                39.93934450654777
              ],
              [
                116.34808313962972,
                39.93934409888361
              ],
              [
                116.34808341066588,
                39.93934370978062
              ],
              [
                116.34808372990142,
                39.93934334297945
              ],
              [
                116.34808409426739,
                39.93934300200626
              ],
              [
                116.34808450026097,
                39.93934269013899
              ],
              [
                116.34808494397922,
                39.93934241037576
              ],
              [
                116.34808542115645,
                39.939342165406025
              ],
              [
                116.3480859272054,
                39.93934195758479
              ],
              [
                116.34808645726118,
                39.93934178890992
              ],
              [
                116.34808700622817,
                39.93934166100296
              ],
              [
                116.3480875688289,
                39.939341575093536
              ],
              [
                116.3480881396549,
                39.93934153200751
              ],
              [
                116.34808871321856,
                39.939341532159126
              ],
              [
                116.34842331742668,
                39.93935426242862
              ],
              [
                116.34842387887244,
                39.939354304752435
              ],
              [
                116.34842443241139,
                39.93935438850847
              ],
              [
                116.34842497289569,
                39.939354512917824
              ],
              [
                116.34842549529894,
                39.93935467682349
              ],
              [
                116.34842599476289,
                39.93935487870119
              ],
              [
                116.34842646664261,
                39.9393551166735
              ],
              [
                116.3484269065497,
                39.93935538852732
              ],
              [
                116.34842731039308,
                39.939355691734434
              ],
              [
                116.34842767441714,
                39.9393560234751
              ],
              [
                116.34842799523642,
                39.93935638066415
              ],
              [
                116.34842826986743,
                39.93935675997984
              ],
              [
                116.34842849575612,
                39.93935715789455
              ],
              [
                116.3484286708018,
                39.93935757070777
              ],
              [
                116.34842879337653,
                39.939357994580405
              ],
              [
                116.34842886234038,
                39.93935842557051
              ],
              [
                116.34842887705203,
                39.939358859669944
              ],
              [
                116.34842266276293,
                39.93957473385798
              ],
              [
                116.34842253212179,
                39.93958021942771
              ],
              [
                116.34839336341203,
                39.94112679926351
              ],
              [
                116.34839656841638,
                39.941197541410894
              ],
              [
                116.34840879935419,
                39.941267585380295
              ],
              [
                116.34842994219495,
                39.94133635986972
              ],
              [
                116.34845983791115,
                39.941403300086215
              ],
              [
                116.34875092367288,
                39.94196347467927
              ],
              [
                116.34879812089147,
                39.942040659755534
              ],
              [
                116.34923479355565,
                39.942656888007264
              ],
              [
                116.34928256244672,
                39.94271705801371
              ],
              [
                116.34933769131922,
                39.94277323734974
              ],
              [
                116.3493997221148,
                39.94282497725732
              ],
              [
                116.34946805506812,
                39.942871777644385
              ],
              [
                116.34954214578066,
                39.94291325100023
              ],
              [
                116.35034276580828,
                39.94331662666245
              ],
              [
                116.35041710552537,
                39.943350401487585
              ],
              [
                116.35049518754259,
                39.94337873497051
              ],
              [
                116.35529414973182,
                39.944915080616404
              ],
              [
                116.35529414970658,
                39.944777777778604
              ],
              [
                116.35529415003094,
                39.94336423099169
              ],
              [
                116.35128986767674,
                39.94208228513864
              ],
              [
                116.35128937737052,
                39.94208210722301
              ],
              [
                116.35128891056313,
                39.94208189513904
              ],
              [
                116.35075745063885,
                39.941814132726044
              ],
              [
                116.35075698539075,
                39.94181387230057
              ],
              [
                116.35075655562146,
                39.941813577961554
              ],
              [
                116.3507561654867,
                39.941813252555114
              ],
              [
                116.35075581875891,
                39.94181289922784
              ],
              [
                116.3507555187909,
                39.94181252139631
              ],
              [
                116.35045785974488,
                39.94139248107653
              ],
              [
                116.35045756382735,
                39.94139199715979
              ],
              [
                116.35025659191022,
                39.941005259763045
              ],
              [
                116.35025640417082,
                39.94100483941734
              ],
              [
                116.35025627118507,
                39.941004406872054
              ],
              [
                116.35025619424867,
                39.941003966341874
              ],
              [
                116.35025617411131,
                39.94100352211926
              ],
              [
                116.35028253628593,
                39.93960373325
              ],
              [
                116.3502825371043,
                39.93960369885885
              ],
              [
                116.35028753826113,
                39.939429801591494
              ],
              [
                116.35028758031628,
                39.93942935320383
              ],
              [
                116.35028768024348,
                39.939428910278586
              ],
              [
                116.35028783704676,
                39.93942847723041
              ],
              [
                116.35028804916324,
                39.93942805837552
              ],
              [
                116.35028831447875,
                39.93942765788864
              ],
              [
                116.3502886303489,
                39.93942727976145
              ],
              [
                116.35028899362537,
                39.93942692776275
              ],
              [
                116.35028940068739,
                39.939426605400925
              ],
              [
                116.35028984747777,
                39.93942631588895
              ],
              [
                116.35029032954331,
                39.93942606211242
              ],
              [
                116.35029084207927,
                39.93942584660073
              ],
              [
                116.35029137997715,
                39.93942567150189
              ],
              [
                116.35029193787575,
                39.9394255385611
              ],
              [
                116.35029251021446,
                39.9394254491034
              ],
              [
                116.35029309128876,
                39.93942540402045
              ],
              [
                116.35029367530706,
                39.939425403761526
              ],
              [
                116.35529415028307,
                39.93961545405801
              ],
              [
                116.35529415019954,
                39.93900450301956
              ],
              [
                116.3536777777246,
                39.939004502977944
              ],
              [
                116.35205555550237,
                39.9390045029771
              ],
              [
                116.35043333335014,
                39.939004502976246
              ],
              [
                116.34881111105791,
                39.93900450297539
              ],
              [
                116.34718888883572,
                39.93900450297455
              ],
              [
                116.3455666666135,
                39.939004502973674
              ],
              [
                116.34474036173438,
                39.93900450580963
              ],
              [
                116.34669886231411,
                39.93920324445822
              ],
              [
                116.34669943168522,
                39.93920332446074
              ],
              [
                116.34669998799917,
                39.93920344738204
              ],
              [
                116.3467005258102,
                39.93920361201882
              ],
              [
                116.3467010398536,
                39.939203816759445
              ],
              [
                116.34670152509736,
                39.93920405959968
              ],
              [
                116.34670197679142,
                39.93920433816238
              ],
              [
                116.34670239051408,
                39.93920464972062
              ],
              [
                116.3467027622154,
                39.93920499122458
              ],
              [
                116.34670308825676,
                39.93920535933124
              ],
              [
                116.34670336544653,
                39.93920575043716
              ],
              [
                116.34670359107129,
                39.93920616071378
              ],
              [
                116.34670376292233,
                39.939206586144905
              ],
              [
                116.34670387931743,
                39.939207022565924
              ],
              [
                116.34670393911715,
                39.93920746570467
              ],
              [
                116.34670394173614,
                39.93920791122327
              ],
              [
                116.34670388714876,
                39.93920835476046
              ],
              [
                116.34670377588938,
                39.93920879197445
              ],
              [
                116.34670360904707,
                39.93920921858532
              ],
              [
                116.34670338825512,
                39.939209630416926
              ],
              [
                116.34670311567484,
                39.93921002343784
              ],
              [
                116.34670279397456,
                39.93921039380073
              ],
              [
                116.34670242630341,
                39.93921073788009
              ],
              [
                116.34670201626058,
                39.93921105230771
              ],
              [
                116.34665727489514,
                39.939242121857085
              ],
              [
                116.34659582007052,
                39.939294072535915
              ],
              [
                116.34654127610912,
                39.939350409870165
              ],
              [
                116.34649416835775,
                39.93941059125117
              ],
              [
                116.34645495055457,
                39.93947403705823
              ],
              [
                116.34642395159979,
                39.93954024048402
              ],
              [
                116.34454712738707,
                39.94426287806099
              ],
              [
                116.3445417241204,
                39.94427698791939
              ],
              [
                116.34434140188743,
                39.94482057354667
              ],
              [
                116.34432670851666,
                39.94486604595257
              ],
              [
                116.34426348408053,
                39.945093091257576
              ],
              [
                116.34424927059787,
                39.9451589299111
              ],
              [
                116.34417545070639,
                39.9456374632284
              ],
              [
                116.34416894170823,
                39.945722093978894
              ],
              [
                116.34416890682455,
                39.946086987970475
              ],
              [
                116.34417641108105,
                39.946177944307884
              ],
              [
                116.34455209140953,
                39.94844409350806
              ],
              [
                116.34455212608775,
                39.94844437072993
              ],
              [
                116.34457985646209,
                39.94877199209773
              ],
              [
                116.3445798688374,
                39.948772285094954
              ],
              [
                116.3445798473083,
                39.94904690212961
              ],
              [
                116.34457984491257,
                39.94904703070822
              ],
              [
                116.3445712386572,
                39.949278419277874
              ],
              [
                116.34457117873488,
                39.94927894590496
              ],
              [
                116.34453559731678,
                39.949465070932824
              ],
              [
                116.34453543150013,
                39.94946566062948
              ],
              [
                116.34434644593563,
                39.949971149102524
              ],
              [
                116.34434621968292,
                39.94997164381561
              ],
              [
                116.34352367715213,
                39.951482766798634
              ],
              [
                116.34352152466083,
                39.9514867548584
              ],
              [
                116.34341568601016,
                39.95168451776537
              ],
              [
                116.34241773068138,
                39.9535493194456
              ],
              [
                116.34241768505181,
                39.95354940234417
              ],
              [
                116.342339260071,
                39.95368800798641
              ],
              [
                116.34096600827938,
                39.95611503059161
              ],
              [
                116.34094408062542,
                39.95615741151439
              ],
              [
                116.34041411493749,
                39.95728459167539
              ],
              [
                116.3404140088409,
                39.95728480086996
              ],
              [
                116.34018633688277,
                39.957702634210435
              ],
              [
                116.34015029460274,
                39.95900009624048
              ],
              [
                116.34003918383262,
                39.96300009623473
              ],
              [
                116.33994955413159,
                39.966226820949636
              ],
              [
                116.34006852363326,
                39.9654491551458
              ],
              [
                116.3402024324248,
                39.96457378118087
              ],
              [
                116.34056266233715,
                39.96221882397581
              ]
            ]
          ],
          [
            [
              [
                116.3525451147124,
                40.02528904680602
              ],
              [
                116.35248100439698,
                40.02533807510887
              ],
              [
                116.35242338142764,
                40.02539165233752
              ],
              [
                116.35237278899189,
                40.02544927355547
              ],
              [
                116.35232970417994,
                40.02551039523815
              ],
              [
                116.3522944777542,
                40.02557454212114
              ],
              [
                116.35185595339075,
                40.02649549919162
              ],
              [
                116.35249999995398,
                40.026495497090416
              ],
              [
                116.3538394334192,
                40.026495497439754
              ],
              [
                116.35391174901575,
                40.02634361684206
              ],
              [
                116.35391197021183,
                40.026343214030824
              ],
              [
                116.35391224118239,
                40.02634282961099
              ],
              [
                116.3539125593725,
                40.026342467207066
              ],
              [
                116.35391292178221,
                40.026342130235946
              ],
              [
                116.35391332499447,
                40.02634182187478
              ],
              [
                116.35391376520764,
                40.026341545030924
              ],
              [
                116.35391423827112,
                40.02634130231462
              ],
              [
                116.35391473972473,
                40.02634109601429
              ],
              [
                116.35525858431555,
                40.0258511812479
              ],
              [
                116.35517344683153,
                40.024297443889246
              ],
              [
                116.35277017910411,
                40.02517358660964
              ],
              [
                116.3526903237911,
                40.025206438927725
              ],
              [
                116.35261510777453,
                40.02524502978451
              ],
              [
                116.3525451147124,
                40.02528904680602
              ]
            ]
          ],
          [
            [
              [
                116.35454181149882,
                39.97440408668702
              ],
              [
                116.34306624927908,
                39.97430783497018
              ],
              [
                116.34305690464876,
                39.974307792065126
              ],
              [
                116.33972515266879,
                39.97430529478646
              ],
              [
                116.33970585596191,
                39.974999936417134
              ],
              [
                116.33975342313795,
                39.9757372528637
              ],
              [
                116.34305045338918,
                39.97573972432343
              ],
              [
                116.34305051197772,
                39.97573972459214
              ],
              [
                116.35442732451611,
                39.97583515433178
              ],
              [
                116.35454181149882,
                39.97440408668702
              ]
            ]
          ],
          [
            [
              [
                116.3426111646832,
                40.00022815034515
              ],
              [
                116.34363861447815,
                40.00024559466355
              ],
              [
                116.34363871475547,
                40.00024559702682
              ],
              [
                116.34542530730813,
                40.00029947498614
              ],
              [
                116.34544195751734,
                40.00029986269355
              ],
              [
                116.34646482233356,
                40.00031665129284
              ],
              [
                116.34646555827663,
                40.000316699202855
              ],
              [
                116.34666573352311,
                40.00033958209702
              ],
              [
                116.3466828615534,
                40.00034141552543
              ],
              [
                116.34769115808872,
                40.00044203428495
              ],
              [
                116.34775313467321,
                40.00044660910648
              ],
              [
                116.3492147513443,
                40.0005167728796
              ],
              [
                116.34924735667731,
                40.00051789837823
              ],
              [
                116.35078585165162,
                40.00055029057981
              ],
              [
                116.35078590339329,
                40.00055029184494
              ],
              [
                116.352280974898,
                40.00059192669709
              ],
              [
                116.35229083682738,
                40.000592161192706
              ],
              [
                116.35387624088982,
                40.00062339584728
              ],
              [
                116.353826810682,
                39.99972129392209
              ],
              [
                116.35379766893736,
                39.999189446875356
              ],
              [
                116.35234346521545,
                39.99916079650328
              ],
              [
                116.35234340338643,
                39.99916079503335
              ],
              [
                116.35084916747863,
                39.99911918368703
              ],
              [
                116.35084091489529,
                39.999118981875085
              ],
              [
                116.3493146401644,
                39.99908684735073
              ],
              [
                116.34931443574648,
                39.99908684029448
              ],
              [
                116.34790022569665,
                39.99901895259101
              ],
              [
                116.34789983713621,
                39.99901892390926
              ],
              [
                116.34693102447126,
                39.99892224528441
              ],
              [
                116.34693091708942,
                39.998922233789756
              ],
              [
                116.34668092213404,
                39.998893655816254
              ],
              [
                116.34656354202833,
                39.998886014366676
              ],
              [
                116.345490021346,
                39.9988683948533
              ],
              [
                116.3454899169581,
                39.998868392423
              ],
              [
                116.3437036894449,
                39.998814525593794
              ],
              [
                116.34368769555707,
                39.998814148626295
              ],
              [
                116.34265228816491,
                39.998796569428606
              ],
              [
                116.34222574149241,
                39.998789320087745
              ],
              [
                116.34222571908963,
                39.99878931967397
              ],
              [
                116.34123938670635,
                39.998769645435615
              ],
              [
                116.34126140327903,
                39.99911088794779
              ],
              [
                116.34133191830833,
                40.00020390322798
              ],
              [
                116.34217924241537,
                40.00022080433466
              ],
              [
                116.34218281581889,
                40.00022087031494
              ],
              [
                116.3426111646832,
                40.00022815034515
              ]
            ]
          ]
        ]
      }
    },
    {
      "type": "Feature",
      "id": "GREEN-002",
      "properties": {
        "id": "GREEN-002",
        "layer": "GREEN_SPACE",
        "source_type": "agent_generated_design",
        "confidence": "medium",
        "geometry_role": "design_proposal",
        "land_use_code": "1401",
        "green_type": "蓝绿廊道",
        "name_zh": "清河蓝绿廊道（众智园界面段）",
        "area_sqm_declared": 90778.3,
        "constraint_source_id": "CONSTRAINTS-002",
        "key_area_id": "PROV-KEY-001",
        "official_boundary": false,
        "boundary_precision": "provisional_rough",
        "provisional_note": "基于天地图1:100万真实水系/铁路线位缓冲示意，位置中误差100-500m；官方蓝线发布后整体重算"
      },
      "geometry": {
        "type": "Polygon",
        "coordinates": [
          [
            [
              116.34829999995395,
              40.02649549709258
            ],
            [
              116.34969999995397,
              40.02649549709187
            ],
            [
              116.35109999995399,
              40.026495497091126
            ],
            [
              116.35249999995398,
              40.026495497090416
            ],
            [
              116.35389999995397,
              40.02649549708967
            ],
            [
              116.35479979377628,
              40.02649549903133
            ],
            [
              116.34261300930471,
              40.024596544864
            ],
            [
              116.34266675918074,
              40.02569842134265
            ],
            [
              116.34778112123165,
              40.02649549906569
            ],
            [
              116.34829999995395,
              40.02649549709258
            ]
          ]
        ]
      }
    },
    {
      "type": "Feature",
      "id": "GREEN-003",
      "properties": {
        "id": "GREEN-003",
        "layer": "GREEN_SPACE",
        "source_type": "agent_generated_design",
        "confidence": "medium",
        "geometry_role": "design_proposal",
        "land_use_code": "1401",
        "green_type": "蓝绿廊道",
        "name_zh": "小月河蓝绿廊道（南段）",
        "area_sqm_declared": 194384.1,
        "constraint_source_id": "CONSTRAINTS-002",
        "key_area_id": "PROV-KEY-002/003",
        "official_boundary": false,
        "boundary_precision": "provisional_rough",
        "provisional_note": "基于天地图1:100万真实水系/铁路线位缓冲示意，位置中误差100-500m；官方蓝线发布后整体重算"
      },
      "geometry": {
        "type": "Polygon",
        "coordinates": [
          [
            [
              116.3465948794164,
              39.97370844133594
            ],
            [
              116.346609176315,
              39.9737428211314
            ],
            [
              116.34662798760061,
              39.97377601411331
            ],
            [
              116.34724766165705,
              39.974733632993235
            ],
            [
              116.34727041073384,
              39.97476477579526
            ],
            [
              116.34729700867753,
              39.974793920222
            ],
            [
              116.3473272608367,
              39.97482087262599
            ],
            [
              116.34736086403812,
              39.974845362898876
            ],
            [
              116.34739748152458,
              39.97486714560698
            ],
            [
              116.34743674632914,
              39.974886002450354
            ],
            [
              116.34747826495364,
              39.974901744451294
            ],
            [
              116.34752162131161,
              39.974914213847974
            ],
            [
              116.34756638089871,
              39.97492328567548
            ],
            [
              116.34761209514697,
              39.97492886901844
            ],
            [
              116.34765845243511,
              39.974930914386476
            ],
            [
              116.35449664639363,
              39.974968650541044
            ],
            [
              116.35454018374698,
              39.974424433762415
            ],
            [
              116.35455354002201,
              39.974257478477035
            ],
            [
              116.34795256768116,
              39.974221061575726
            ],
            [
              116.34795198273127,
              39.974221035768046
            ],
            [
              116.34795140406625,
              39.97422096509355
            ],
            [
              116.34795083748524,
              39.97422085026049
            ],
            [
              116.34795028866625,
              39.97422069241968
            ],
            [
              116.34794976310938,
              39.9742204931529
            ],
            [
              116.34794926608149,
              39.97422025445717
            ],
            [
              116.34794880256358,
              39.97421997872458
            ],
            [
              116.34794837720082,
              39.97421966871839
            ],
            [
              116.34794799425606,
              39.97421932754537
            ],
            [
              116.34794765756699,
              39.9742189586246
            ],
            [
              116.3479473705078,
              39.97421856565325
            ],
            [
              116.3475098641754,
              39.97354247269691
            ],
            [
              116.34750962680187,
              39.973542053855546
            ],
            [
              116.3475094458202,
              39.973541618662516
            ],
            [
              116.34750932309392,
              39.97354117159889
            ],
            [
              116.34750925988669,
              39.973540717267944
            ],
            [
              116.34750925684935,
              39.9735402603478
            ],
            [
              116.34840834659316,
              39.95839192834811
            ],
            [
              116.34840818932005,
              39.958356908349515
            ],
            [
              116.34840358690082,
              39.958322178948144
            ],
            [
              116.34839458316893,
              39.95828796393252
            ],
            [
              116.34838126484141,
              39.95825459281096
            ],
            [
              116.34836376018674,
              39.958222386964245
            ],
            [
              116.34834223778913,
              39.95819165655055
            ],
            [
              116.34831690492477,
              39.95816269751834
            ],
            [
              116.34828800556558,
              39.95813578875658
            ],
            [
              116.34825581802961,
              39.95811118940892
            ],
            [
              116.34822065230037,
              39.958089136377836
            ],
            [
              116.34818284704174,
              39.9580698420436
            ],
            [
              116.34814276633661,
              39.95805349221885
            ],
            [
              116.34810079618022,
              39.95804024435915
            ],
            [
              116.34805734076335,
              39.95803022604677
            ],
            [
              116.34801281857996,
              39.95802353376208
            ],
            [
              116.34796765839644,
              39.95802023195442
            ],
            [
              116.34792229512387,
              39.95802035242148
            ],
            [
              116.34787716562813,
              39.95802389400305
            ],
            [
              116.3478327045247,
              39.95803082259225
            ],
            [
              116.34778933999193,
              39.95804107146384
            ],
            [
              116.34774748964824,
              39.958054541917136
            ],
            [
              116.3477075565305,
              39.95807110422602
            ],
            [
              116.34766992521283,
              39.95809059888847
            ],
            [
              116.34763495810276,
              39.95811283816265
            ],
            [
              116.34760299195123,
              39.95813760787469
            ],
            [
              116.34757433460983,
              39.95816466948131
            ],
            [
              116.34754926206564,
              39.958193762366975
            ],
            [
              116.34752801578361,
              39.95822460635365
            ],
            [
              116.3475108003807,
              39.95825690439907
            ],
            [
              116.34749778165552,
              39.958290345457236
            ],
            [
              116.34748908499104,
              39.95832460747394
            ],
            [
              116.34748478054372,
              39.958359470666814
            ],
            [
              116.34657995162335,
              39.973601021668394
            ],
            [
              116.34658019184053,
              39.97363723221963
            ],
            [
              116.34658518465253,
              39.97367312381369
            ],
            [
              116.3465948794164,
              39.97370844133594
            ]
          ]
        ]
      }
    },
    {
      "type": "Feature",
      "id": "GREEN-004",
      "properties": {
        "id": "GREEN-004",
        "layer": "GREEN_SPACE",
        "source_type": "agent_generated_design",
        "confidence": "medium",
        "geometry_role": "design_proposal",
        "land_use_code": "1401",
        "green_type": "G1 公园绿地（社区公园）",
        "name_zh": "原点社区公园",
        "area_sqm_declared": 256069.0,
        "constraint_source_id": null,
        "key_area_id": "PROV-KEY-002",
        "official_boundary": false,
        "boundary_precision": "provisional_rough",
        "provisional_note": "基于天地图1:100万真实水系/铁路线位缓冲示意，位置中误差100-500m；官方蓝线发布后整体重算"
      },
      "geometry": {
        "type": "Polygon",
        "coordinates": [
          [
            [
              116.34600585423114,
              39.99099549717984
            ],
            [
              116.35049414577114,
              39.99099549717747
            ],
            [
              116.35049414628254,
              39.985004503054164
            ],
            [
              116.34600585371972,
              39.985004503051805
            ],
            [
              116.34600585423114,
              39.99099549717984
            ]
          ]
        ]
      }
    },
    {
      "type": "Feature",
      "id": "GREEN-005",
      "properties": {
        "id": "GREEN-005",
        "layer": "GREEN_SPACE",
        "source_type": "agent_generated_design",
        "confidence": "medium",
        "geometry_role": "design_proposal",
        "land_use_code": "1402",
        "green_type": "G2 防护绿地",
        "name_zh": "大钟寺规划绿地复合利用带",
        "area_sqm_declared": 330240.1,
        "constraint_source_id": null,
        "key_area_id": "PROV-KEY-003",
        "official_boundary": false,
        "boundary_precision": "provisional_rough",
        "provisional_note": "基于天地图1:100万真实水系/铁路线位缓冲示意，位置中误差100-500m；官方蓝线发布后整体重算"
      },
      "geometry": {
        "type": "Polygon",
        "coordinates": [
          [
            [
              116.34300585071509,
              39.94979549718728
            ],
            [
              116.34899414928599,
              39.949795497184134
            ],
            [
              116.3489941497793,
              39.94400450312286
            ],
            [
              116.34300585022174,
              39.94400450311969
            ],
            [
              116.34300585071509,
              39.94979549718728
            ]
          ]
        ]
      }
    }
  ]
}
