{
  "type": "FeatureCollection",
  "name": "key_areas_official",
  "features": [
    {
      "type": "Feature",
      "id": "PROV-KEY-001",
      "properties": {
        "id": "PROV-KEY-001",
        "layer": "KEY_AREA",
        "parent_scope_id": "key_detailed_design_area",
        "area_id": "zhongzhiyuan_ai_acceleration_area",
        "name_zh": "众智园AI自主创新加速区粗略范围",
        "source_type": "agent_inferred_from_public_data",
        "confidence": "medium",
        "geometry_role": "provisional_constraint",
        "official_boundary": false,
        "boundary_precision": "provisional_rough",
        "announced_area_sqm": 1921000,
        "area_sqm_calculated": 1929201.877,
        "source_id": "PROVISIONAL-BOUNDARY-TEXT-AND-BBOX",
        "source_title": "依据公告重点片区名称、南北顺序、公告约面积和临时 SITE_BOUNDARY 形成的临时粗略范围",
        "usage_note": "仅用于 AI agent 生成、展示和临时自检；不得作为 official key-area polygon、审批依据或精确面积复算依据。"
      },
      "geometry": {
        "type": "Polygon",
        "coordinates": [
          [
            [
              116.3539998828629,
              40.02600000000557
            ],
            [
              116.35399989434457,
              40.02599999957139
            ],
            [
              116.35399990571561,
              40.025999998274166
            ],
            [
              116.35399991686651,
              40.02599999612639
            ],
            [
              116.35399992768988,
              40.0259999931487
            ],
            [
              116.35399993808156,
              40.02599998936982
            ],
            [
              116.35399994794138,
              40.025999984826115
            ],
            [
              116.35399995717445,
              40.025999979561334
            ],
            [
              116.35399996569184,
              40.0259999736262
            ],
            [
              116.35399997341153,
              40.02599996707785
            ],
            [
              116.35399998025922,
              40.025999959979345
            ],
            [
              116.35399998616892,
              40.02599995239904
            ],
            [
              116.35399999108371,
              40.02599994440994
            ],
            [
              116.35399999495633,
              40.025999936088965
            ],
            [
              116.35399999774941,
              40.02599992751627
            ],
            [
              116.3539999994361,
              40.02599991877436
            ],
            [
              116.35400000000016,
              40.025999909947465
            ],
            [
              116.35400000000016,
              40.007500090063914
            ],
            [
              116.35399999943618,
              40.007500081236294
            ],
            [
              116.35399999774967,
              40.0075000724937
            ],
            [
              116.3539999949569,
              40.007500063920354
            ],
            [
              116.35399999108473,
              40.007500055598776
            ],
            [
              116.35399998617052,
              40.00750004760915
            ],
            [
              116.35399998026153,
              40.007500040028425
            ],
            [
              116.35399997341472,
              40.007500032929606
            ],
            [
              116.35399996569599,
              40.00750002638106
            ],
            [
              116.35399995717971,
              40.00750002044587
            ],
            [
              116.35399994794791,
              40.00750001518118
            ],
            [
              116.35399993808949,
              40.00750001063772
            ],
            [
              116.3539999276994,
              40.007500006859225
            ],
            [
              116.35399991687771,
              40.007500003882114
            ],
            [
              116.35399990572867,
              40.007500001735046
            ],
            [
              116.35399989435962,
              40.00750000043869
            ],
            [
              116.35399988288007,
              40.00750000000554
            ],
            [
              116.3430001171201,
              40.00750000000555
            ],
            [
              116.34300010564057,
              40.00750000043869
            ],
            [
              116.3430000942715,
              40.007500001735046
            ],
            [
              116.34300008312245,
              40.00750000388212
            ],
            [
              116.34300007230074,
              40.007500006859246
            ],
            [
              116.34300006191066,
              40.00750001063774
            ],
            [
              116.34300005205225,
              40.007500015181215
            ],
            [
              116.34300004282044,
              40.00750002044592
            ],
            [
              116.34300003430418,
              40.00750002638113
            ],
            [
              116.34300002658546,
              40.00750003292968
            ],
            [
              116.34300001973867,
              40.0075000400285
            ],
            [
              116.34300001382971,
              40.00750004760924
            ],
            [
              116.34300000891547,
              40.00750005559888
            ],
            [
              116.34300000504336,
              40.007500063920475
            ],
            [
              116.3430000022506,
              40.007500072493826
            ],
            [
              116.34300000056412,
              40.00750008123644
            ],
            [
              116.34300000000017,
              40.00750009006405
            ],
            [
              116.34300000000017,
              40.02599990994732
            ],
            [
              116.34300000056417,
              40.02599991877423
            ],
            [
              116.34300000225086,
              40.025999927516125
            ],
            [
              116.34300000504392,
              40.02599993608884
            ],
            [
              116.34300000891652,
              40.02599994440982
            ],
            [
              116.34300001383129,
              40.02599995239894
            ],
            [
              116.34300001974098,
              40.025999959979245
            ],
            [
              116.34300002658864,
              40.025999967077766
            ],
            [
              116.34300003430833,
              40.02599997362614
            ],
            [
              116.34300004282574,
              40.02599997956129
            ],
            [
              116.34300005205878,
              40.02599998482607
            ],
            [
              116.34300006191863,
              40.025999989369794
            ],
            [
              116.34300007231026,
              40.02599999314869
            ],
            [
              116.34300008313363,
              40.025999996126366
            ],
            [
              116.34300009428456,
              40.025999998274166
            ],
            [
              116.3430001056556,
              40.02599999957139
            ],
            [
              116.34300011713728,
              40.02600000000556
            ],
            [
              116.3539998828629,
              40.02600000000557
            ]
          ]
        ]
      }
    },
    {
      "type": "Feature",
      "id": "PROV-KEY-002",
      "properties": {
        "id": "PROV-KEY-002",
        "layer": "KEY_AREA",
        "parent_scope_id": "key_detailed_design_area",
        "area_id": "beijing_ai_origin_community",
        "name_zh": "北京AI原点社区粗略范围",
        "source_type": "agent_inferred_from_public_data",
        "confidence": "medium",
        "geometry_role": "provisional_constraint",
        "official_boundary": false,
        "boundary_precision": "provisional_rough",
        "announced_area_sqm": 1043000,
        "source_id": "PROVISIONAL-BOUNDARY-TEXT-AND-BBOX",
        "source_title": "依据公告重点片区名称、南北顺序、公告约面积和临时 SITE_BOUNDARY 形成的临时粗略范围",
        "usage_note": "仅用于 AI agent 生成、展示和临时自检；不得作为 official key-area polygon、审批依据或精确面积复算依据。",
        "area_sqm_calculated": 135531.421,
        "anchor_corrected": true,
        "anchor_correction": {
          "date": "2026-08-14",
          "basis": "五道口（railway/station，116.33170, 39.99148）",
          "reported_offset": "多边形偏东约 1km；五道口站距旧多边形 895m",
          "shift_deg": "lon -0.0110",
          "residual_notes": "西移后多边形西界约 116.331，五道口站约 60m 入界；多边形东界 116.342 仍在学院路（≈116.347）以西；多边形超出 SITE（总体设计范围）西界约 0.009°（SITE 西界本身为文字四至粗略边界，待 official 矢量替换）",
          "method": "rigid translation preserving shape and area",
          "source": "data/processed/anchors_geocoded.geojson（© OpenStreetMap contributors, ODbL 1.0）",
          "still_provisional": true
        }
      },
      "geometry": {
        "type": "Polygon",
        "coordinates": [
          [
            [
              116.34200000000011,
              39.98350009005956
            ],
            [
              116.34199999943637,
              39.9835000812322
            ],
            [
              116.34199999775056,
              39.98350007248986
            ],
            [
              116.34199999495895,
              39.98350006391674
            ],
            [
              116.3419999910884,
              39.98350005559538
            ],
            [
              116.34199998617622,
              39.983500047605936
            ],
            [
              116.34199998026968,
              39.983500040025355
            ],
            [
              116.34199997342569,
              39.98350003292663
            ],
            [
              116.34199996571014,
              39.98350002637814
            ],
            [
              116.34199995719737,
              39.98350002044293
            ],
            [
              116.34199994796931,
              39.98350001517819
            ],
            [
              116.3419999381149,
              39.98350001063459
            ],
            [
              116.34199992772898,
              39.983500006855934
            ],
            [
              116.3419999169116,
              39.98350000387856
            ],
            [
              116.34199990576694,
              39.98350000173117
            ],
            [
              116.34199989440233,
              39.98350000043445
            ],
            [
              116.34199988292723,
              39.983500000000866
            ],
            [
              116.34024851012319,
              39.98350000000093
            ],
            [
              116.34024849898117,
              39.983500000409656
            ],
            [
              116.34024848794027,
              39.983500001632244
            ],
            [
              116.34024847710074,
              39.98350000365762
            ],
            [
              116.34024846656102,
              39.98350000646741
            ],
            [
              116.34024845641675,
              39.98350001003607
            ],
            [
              116.34024844676003,
              39.98350001433122
            ],
            [
              116.34024843767855,
              39.98350001931388
            ],
            [
              116.34024842925476,
              39.983500024938785
            ],
            [
              116.3402484215651,
              39.983500031154904
            ],
            [
              116.3402484146794,
              39.98350003790577
            ],
            [
              116.34024840866019,
              39.98350004513012
            ],
            [
              116.34024840356206,
              39.98350005276237
            ],
            [
              116.34024839943136,
              39.98350006073321
            ],
            [
              116.34024839630557,
              39.9835000689703
            ],
            [
              116.34024839421302,
              39.98350007739884
            ],
            [
              116.34024839317277,
              39.983500085942325
            ],
            [
              116.34024839319424,
              39.98350009452319
            ],
            [
              116.34089354286418,
              39.99349991440596
            ],
            [
              116.34089354405262,
              39.99349992348932
            ],
            [
              116.34089354643055,
              39.99349993243348
            ],
            [
              116.34089354997356,
              39.993499941146496
            ],
            [
              116.3408935546452,
              39.99349994953889
            ],
            [
              116.3408935603975,
              39.99349995752436
            ],
            [
              116.34089356717135,
              39.993499965020895
            ],
            [
              116.34089357489712,
              39.99349997195144
            ],
            [
              116.34089358349546,
              39.99349997824477
            ],
            [
              116.34089359287798,
              39.993499983836244
            ],
            [
              116.34089360294824,
              39.99349998866839
            ],
            [
              116.34089361360282,
              39.99349999269156
            ],
            [
              116.34089362473222,
              39.9934999958644
            ],
            [
              116.34089363622206,
              39.9934999981543
            ],
            [
              116.34089364795426,
              39.99349999953775
            ],
            [
              116.34089365980829,
              39.993500000000516
            ],
            [
              116.34199988291203,
              39.99350000000055
            ],
            [
              116.34199989438869,
              39.99349999956685
            ],
            [
              116.3419999057548,
              39.99349999827001
            ],
            [
              116.34199991690095,
              39.99349999612254
            ],
            [
              116.34199992771974,
              39.99349999314509
            ],
            [
              116.341999938107,
              39.99349998936637
            ],
            [
              116.3419999479627,
              39.99349998482276
            ],
            [
              116.34199995719193,
              39.993499979558024
            ],
            [
              116.34199996570582,
              39.99349997362284
            ],
            [
              116.34199997342233,
              39.993499967074364
            ],
            [
              116.34199998026719,
              39.9934999599757
            ],
            [
              116.34199998617447,
              39.99349995239517
            ],
            [
              116.34199999108728,
              39.99349994440582
            ],
            [
              116.34199999495833,
              39.99349993608455
            ],
            [
              116.34199999775026,
              39.99349992751151
            ],
            [
              116.34199999943628,
              39.993499918769274
            ],
            [
              116.34200000000011,
              39.99349990994203
            ],
            [
              116.34200000000011,
              39.98350009005956
            ]
          ]
        ]
      }
    },
    {
      "type": "Feature",
      "id": "PROV-KEY-003",
      "properties": {
        "id": "PROV-KEY-003",
        "layer": "KEY_AREA",
        "parent_scope_id": "key_detailed_design_area",
        "area_id": "dazhongsi_ai_industry_cluster",
        "name_zh": "大钟寺AI产业聚集区粗略范围",
        "source_type": "agent_inferred_from_public_data",
        "confidence": "medium",
        "geometry_role": "provisional_constraint",
        "official_boundary": false,
        "boundary_precision": "provisional_rough",
        "announced_area_sqm": 720000,
        "source_id": "PROVISIONAL-BOUNDARY-TEXT-AND-BBOX",
        "source_title": "依据公告重点片区名称、南北顺序、公告约面积和临时 SITE_BOUNDARY 形成的临时粗略范围",
        "usage_note": "仅用于 AI agent 生成、展示和临时自检；不得作为 official key-area polygon、审批依据或精确面积复算依据。",
        "area_sqm_calculated": 277039.917,
        "anchor_corrected": true,
        "anchor_correction": {
          "date": "2026-08-14",
          "basis": "大钟寺/古钟博物馆（amenity/place_of_worship，116.33199, 39.96783）",
          "reported_offset": "多边形南移约 1.8km（旧多边形 lat 39.944–39.94984，大钟寺本体 ≈39.968）",
          "shift_deg": "lat +0.0209, lon -0.0101",
          "residual_notes": "平移后大钟寺本体落于多边形纬度居中、经度近西界内；明光村（39.9566, 116.3460）仍在多边形以南（纬度界外）；多边形西移后西界约 116.3319，与 SITE（总体设计范围）西界（约 116.340）重叠区外溢约 0.008°——SITE 西界本身为文字四至粗略边界，待 official 矢量替换",
          "method": "rigid translation preserving shape and area",
          "source": "data/processed/anchors_geocoded.geojson（© OpenStreetMap contributors, ODbL 1.0）",
          "still_provisional": true
        }
      },
      "geometry": {
        "type": "Polygon",
        "coordinates": [
          [
            [
              116.34490000000005,
              39.964900090061505
            ],
            [
              116.34489999943646,
              39.96490008123401
            ],
            [
              116.34489999775107,
              39.96490007249155
            ],
            [
              116.34489999496017,
              39.9649000639183
            ],
            [
              116.34489999109059,
              39.96490005559683
            ],
            [
              116.34489998617963,
              39.96490004760728
            ],
            [
              116.34489998027456,
              39.964900040026606
            ],
            [
              116.34489997343226,
              39.964900032927815
            ],
            [
              116.34489996571865,
              39.964900026379276
            ],
            [
              116.344899957208,
              39.96490002044405
            ],
            [
              116.34489994798228,
              39.96490001517929
            ],
            [
              116.34489993813035,
              39.964900010635716
            ],
            [
              116.34489992774706,
              39.9649000068571
            ],
            [
              116.34489991693243,
              39.9649000038798
            ],
            [
              116.34489990579063,
              39.9649000017325
            ],
            [
              116.34489989442895,
              39.9649000004359
            ],
            [
              116.34489988295681,
              39.96490000000247
            ],
            [
              116.33998080283456,
              39.96490000000526
            ],
            [
              116.33998079151804,
              39.96490000042696
            ],
            [
              116.33998078030756,
              39.96490000168866
            ],
            [
              116.33998076930813,
              39.96490000377848
            ],
            [
              116.33998075862283,
              39.964900006676885
            ],
            [
              116.3399807483518,
              39.96490001035667
            ],
            [
              116.3399807385913,
              39.96490001478339
            ],
            [
              116.33998072943275,
              39.96490001991555
            ],
            [
              116.33998072096202,
              39.96490002570504
            ],
            [
              116.33998071325846,
              39.96490003209764
            ],
            [
              116.33998070639426,
              39.96490003903342
            ],
            [
              116.33998070043374,
              39.9649000464474
            ],
            [
              116.3399806954328,
              39.96490005427009
            ],
            [
              116.33998069143823,
              39.96490006242821
            ],
            [
              116.33998068848749,
              39.9649000708453
            ],
            [
              116.33998068660826,
              39.96490007944249
            ],
            [
              116.3399806858181,
              39.96490008813921
            ],
            [
              116.33981840449529,
              39.970739908019894
            ],
            [
              116.3398184048256,
              39.97073991697429
            ],
            [
              116.33981840631047,
              39.970739925859135
            ],
            [
              116.3398184089352,
              39.97073993458652
            ],
            [
              116.3398184126738,
              39.97073994307013
            ],
            [
              116.33981841748931,
              39.97073995122598
            ],
            [
              116.3398184233341,
              39.97073995897342
            ],
            [
              116.33981843015029,
              39.97073996623577
            ],
            [
              116.33981843787048,
              39.970739972941175
            ],
            [
              116.33981844641826,
              39.970739979023314
            ],
            [
              116.33981845570909,
              39.970739984422
            ],
            [
              116.33981846565102,
              39.97073998908382
            ],
            [
              116.33981847614574,
              39.97073999296264
            ],
            [
              116.33981848708933,
              39.9707399960201
            ],
            [
              116.33981849837356,
              39.97073999822594
            ],
            [
              116.33981850988678,
              39.970739999558354
            ],
            [
              116.33981852151513,
              39.97074000000411
            ],
            [
              116.3448998829534,
              39.970740000002564
            ],
            [
              116.34489989442609,
              39.97073999956867
            ],
            [
              116.34489990578822,
              39.97073999827167
            ],
            [
              116.34489991693047,
              39.97073999612405
            ],
            [
              116.34489992774546,
              39.9707399931465
            ],
            [
              116.34489993812905,
              39.9707399893677
            ],
            [
              116.34489994798126,
              39.970739984824014
            ],
            [
              116.34489995720722,
              39.97073997955922
            ],
            [
              116.34489996571807,
              39.97073997362401
            ],
            [
              116.34489997343184,
              39.970739967075545
            ],
            [
              116.34489998027425,
              39.9707399599769
            ],
            [
              116.34489998617943,
              39.97073995239641
            ],
            [
              116.34489999109046,
              39.97073994440711
            ],
            [
              116.34489999496009,
              39.970739936085906
            ],
            [
              116.34489999775104,
              39.970739927512945
            ],
            [
              116.34489999943644,
              39.970739918770796
            ],
            [
              116.34490000000005,
              39.97073990994364
            ],
            [
              116.34490000000005,
              39.964900090061505
            ]
          ]
        ]
      }
    }
  ]
}
