{
  "type": "FeatureCollection",
  "name": "land_use.geojson",
  "features": [
    {
      "type": "Feature",
      "id": "LU-101",
      "properties": {
        "id": "LU-101",
        "layer": "LAND_USE",
        "source_type": "agent_generated_design",
        "confidence": "medium",
        "geometry_role": "design_proposal",
        "provisional": true,
        "official_boundary": false,
        "land_use_code": "0902",
        "land_use_code_gb50137": "B2_B29",
        "name_zh": "南部门户更新带",
        "design_rationale": "大钟寺片区南部门户，沿京张走廊对外交通组织与商务服务",
        "area_sqm_declared": 368704.1
      },
      "geometry": {
        "type": "Polygon",
        "coordinates": [
          [
            [
              116.3536777777246,
              39.939004502977944
            ],
            [
              116.35205555550237,
              39.9390045029771
            ],
            [
              116.35043333335014,
              39.939004502976246
            ],
            [
              116.34881111105791,
              39.93900450297539
            ],
            [
              116.34850435740252,
              39.93900450471553
            ],
            [
              116.34656785275303,
              39.94399549732538
            ],
            [
              116.35529414977414,
              39.94399549724544
            ],
            [
              116.35529414995263,
              39.94188888888947
            ],
            [
              116.35529415019954,
              39.93900450301956
            ],
            [
              116.3536777777246,
              39.939004502977944
            ]
          ]
        ]
      }
    },
    {
      "type": "Feature",
      "id": "LU-102",
      "properties": {
        "id": "LU-102",
        "layer": "LAND_USE",
        "source_type": "agent_generated_design",
        "confidence": "medium",
        "geometry_role": "design_proposal",
        "provisional": true,
        "official_boundary": false,
        "land_use_code": "1401",
        "land_use_code_gb50137": "G1_G2",
        "name_zh": "京张遗址走廊公园带",
        "design_rationale": "一带主轴：京包线沿线南北连续绿带，慢行+文化+开敞测试载体",
        "area_sqm_declared": 876695.0
      },
      "geometry": {
        "type": "Polygon",
        "coordinates": [
          [
            [
              116.3451042482763,
              39.94983917516222
            ],
            [
              116.34510425328502,
              39.949839154735486
            ],
            [
              116.34655425375384,
              39.94399915481033
            ],
            [
              116.34655439445746,
              39.94399871134447
            ],
            [
              116.34849214718965,
              39.939004504768015
            ],
            [
              116.34718888883572,
              39.93900450297455
            ],
            [
              116.3455666666135,
              39.939004502973674
            ],
            [
              116.34394444439125,
              39.93900450297281
            ],
            [
              116.34232222217132,
              39.93900450297194
            ],
            [
              116.34070572605415,
              39.93900450301101
            ],
            [
              116.3405947376839,
              39.94300009626341
            ],
            [
              116.3404836269135,
              39.947000096257675
            ],
            [
              116.34037251614347,
              39.95100009624116
            ],
            [
              116.34026140537294,
              39.95500009624622
            ],
            [
              116.34015029460274,
              39.95900009624048
            ],
            [
              116.34014898088867,
              39.95904739350528
            ],
            [
              116.34011348062673,
              39.960325468182496
            ],
            [
              116.34019420196094,
              39.959869392313344
            ],
            [
              116.34019429773097,
              39.959868989309086
            ],
            [
              116.34019444070275,
              39.95986859467102
            ],
            [
              116.34019462969272,
              39.95986821166586
            ],
            [
              116.3420446116841,
              39.95657824414796
            ],
            [
              116.34380459202164,
              39.95330828115342
            ],
            [
              116.34464435911529,
              39.95173871670672
            ],
            [
              116.3451042482763,
              39.94983917516222
            ]
          ]
        ]
      }
    },
    {
      "type": "Feature",
      "id": "LU-103",
      "properties": {
        "id": "LU-103",
        "layer": "LAND_USE",
        "source_type": "agent_generated_design",
        "confidence": "medium",
        "geometry_role": "design_proposal",
        "provisional": true,
        "official_boundary": false,
        "land_use_code": "0802",
        "land_use_code_gb50137": "A35",
        "name_zh": "北三环南科创更新带",
        "design_rationale": "科创更新区，接北三环交通，小月河支流南段贯穿",
        "area_sqm_declared": 2109731.5
      },
      "geometry": {
        "type": "Polygon",
        "coordinates": [
          [
            [
              116.34011128190971,
              39.96040462407433
            ],
            [
              116.34003918383262,
              39.96300009623473
            ],
            [
              116.33994764636918,
              39.96629549744372
            ],
            [
              116.35519049701043,
              39.966295497404346
            ],
            [
              116.35529414798323,
              39.96499986153739
            ],
            [
              116.35529414822948,
              39.962111111111945
            ],
            [
              116.35529414847575,
              39.95922222222305
            ],
            [
              116.35529414872198,
              39.95633333333415
            ],
            [
              116.35529414896818,
              39.95344444444528
            ],
            [
              116.35529414921436,
              39.95055555555639
            ],
            [
              116.35529414927524,
              39.94984450305352
            ],
            [
              116.35199999989182,
              39.94984450296867
            ],
            [
              116.34899999990164,
              39.9498445029671
            ],
            [
              116.34511486123628,
              39.9498445030465
            ],
            [
              116.34465575187684,
              39.95174082486127
            ],
            [
              116.34465561087832,
              39.951741276466535
            ],
            [
              116.34465541018585,
              39.95174171449152
            ],
            [
              116.34381541028752,
              39.95331171453109
            ],
            [
              116.3438154056583,
              39.95331172315769
            ],
            [
              116.34205540586933,
              39.956581723240525
            ],
            [
              116.34205537010071,
              39.9565817882475
            ],
            [
              116.34020568955648,
              39.95987122061868
            ],
            [
              116.34011128190971,
              39.96040462407433
            ]
          ]
        ]
      }
    },
    {
      "type": "Feature",
      "id": "LU-104",
      "properties": {
        "id": "LU-104",
        "layer": "LAND_USE",
        "source_type": "agent_generated_design",
        "confidence": "medium",
        "geometry_role": "design_proposal",
        "provisional": true,
        "official_boundary": false,
        "land_use_code": "0802",
        "land_use_code_gb50137": "A35_R2",
        "name_zh": "小月河研发更新带",
        "design_rationale": "依托小月河支流蓝绿廊，研发+社区更新",
        "area_sqm_declared": 1183865.8
      },
      "geometry": {
        "type": "Polygon",
        "coordinates": [
          [
            [
              116.3547227302761,
              39.97214257527894
            ],
            [
              116.35484971412008,
              39.97055527891714
            ],
            [
              116.3550719365791,
              39.96777750113319
            ],
            [
              116.35518977897225,
              39.96630450336679
            ],
            [
              116.33994739619466,
              39.966304503326434
            ],
            [
              116.33992807306511,
              39.96700009613806
            ],
            [
              116.33981696229262,
              39.971000096223264
            ],
            [
              116.33980584477223,
              39.971400354510685
            ],
            [
              116.33972596647791,
              39.97459549743803
            ],
            [
              116.35452649630436,
              39.97459549740067
            ],
            [
              116.3546260836512,
              39.97335065681182
            ],
            [
              116.35462416267757,
              39.97333032648935
            ],
            [
              116.35462415917998,
              39.97332971291638
            ],
            [
              116.3547227302761,
              39.97214257527894
            ]
          ]
        ]
      }
    },
    {
      "type": "Feature",
      "id": "LU-105",
      "properties": {
        "id": "LU-105",
        "layer": "LAND_USE",
        "source_type": "agent_generated_design",
        "confidence": "medium",
        "geometry_role": "design_proposal",
        "provisional": true,
        "official_boundary": false,
        "land_use_code": "0902",
        "land_use_code_gb50137": "B2_B29",
        "name_zh": "原点社区南服务带",
        "design_rationale": "中核南翼服务带，衔接小月河与原点社区",
        "area_sqm_declared": 1200068.0
      },
      "geometry": {
        "type": "Polygon",
        "coordinates": [
          [
            [
              116.33971686058534,
              39.97460379484154
            ],
            [
              116.33970585596191,
              39.974999936417134
            ],
            [
              116.33992806817831,
              39.978444221212506
            ],
            [
              116.34015029069496,
              39.98188866566836
            ],
            [
              116.34022689856047,
              39.98307608601443
            ],
            [
              116.34025555403014,
              39.98349549738858
            ],
            [
              116.35381449555184,
              39.98349549737851
            ],
            [
              116.35396082428197,
              39.98166639007505
            ],
            [
              116.3541830467412,
              39.97888861228999
            ],
            [
              116.35440526920073,
              39.976110834500794
            ],
            [
              116.3544052692595,
              39.976110833766
            ],
            [
              116.35452577704979,
              39.97460450334829
            ],
            [
              116.33971999951393,
              39.974604502942995
            ],
            [
              116.33971941886826,
              39.974604480691525
            ],
            [
              116.33971884395639,
              39.97460441423089
            ],
            [
              116.33971828045073,
              39.97460430421678
            ],
            [
              116.33971773391116,
              39.97460415173472
            ],
            [
              116.3397172097302,
              39.97460395828913
            ],
            [
              116.33971686058534,
              39.97460379484154
            ]
          ]
        ]
      }
    },
    {
      "type": "Feature",
      "id": "LU-106",
      "properties": {
        "id": "LU-106",
        "layer": "LAND_USE",
        "source_type": "agent_generated_design",
        "confidence": "medium",
        "geometry_role": "design_proposal",
        "provisional": true,
        "official_boundary": false,
        "land_use_code": "0702",
        "land_use_code_gb50137": "R22",
        "name_zh": "原点社区东西缘更新带",
        "design_rationale": "重点区两翼的社区更新界面",
        "area_sqm_declared": 183166.2
      },
      "geometry": {
        "type": "MultiPolygon",
        "coordinates": [
          [
            [
              [
                116.35300585445013,
                39.99349549707681
              ],
              [
                116.35348389599612,
                39.99349549707708
              ],
              [
                116.35329415094799,
                39.99000018785297
              ],
              [
                116.35329415001482,
                39.99000016979262
              ],
              [
                116.35329415690471,
                39.98999972342243
              ],
              [
                116.35351637936242,
                39.987221945657616
              ],
              [
                116.35373860182203,
                39.98444416786841
              ],
              [
                116.35381377507261,
                39.98350450330783
              ],
              [
                116.35300585359477,
                39.98350454774389
              ],
              [
                116.35300585378117,
                39.98570000000059
              ],
              [
                116.35300585445013,
                39.99349549707681
              ]
            ]
          ],
          [
            [
              [
                116.34025453591288,
                39.98350450320188
              ],
              [
                116.34037251321166,
                39.98533311012423
              ],
              [
                116.34059473572844,
                39.98877755458012
              ],
              [
                116.34081695824526,
                39.99222199903601
              ],
              [
                116.34089911951455,
                39.993495497097406
              ],
              [
                116.34199414556535,
                39.99349549709817
              ],
              [
                116.34199414641834,
                39.983504591916585
              ],
              [
                116.34025453591288,
                39.98350450320188
              ]
            ]
          ]
        ]
      }
    },
    {
      "type": "Feature",
      "id": "LU-107",
      "properties": {
        "id": "LU-107",
        "layer": "LAND_USE",
        "source_type": "agent_generated_design",
        "confidence": "medium",
        "geometry_role": "design_proposal",
        "provisional": true,
        "official_boundary": false,
        "land_use_code": "100104",
        "land_use_code_gb50137": "M0",
        "name_zh": "科创产业带",
        "design_rationale": "原点社区—众智园之间新型产业带，轨道/路网衔接",
        "area_sqm_declared": 1663515.5
      },
      "geometry": {
        "type": "Polygon",
        "coordinates": [
          [
            [
              116.35348616654929,
              39.99350450294368
            ],
            [
              116.35300000014301,
              39.99350450293539
            ],
            [
              116.34799999990315,
              39.99350450293276
            ],
            [
              116.34199999980297,
              39.993504502929575
            ],
            [
              116.34089970053455,
              39.99350450295819
            ],
            [
              116.34103918076235,
              39.995666443495644
            ],
            [
              116.34126140327903,
              39.99911088794779
            ],
            [
              116.34148362579599,
              40.00255533240367
            ],
            [
              116.341705848313,
              40.005999776859575
            ],
            [
              116.34170585139161,
              40.00599983120606
            ],
            [
              116.34177881084115,
              40.007495497384575
            ],
            [
              116.35423396582992,
              40.00749549739919
            ],
            [
              116.3541872099173,
              40.00629854335153
            ],
            [
              116.35418303854523,
              40.00622241178453
            ],
            [
              116.35396081666998,
              40.00216685624044
            ],
            [
              116.35386788208854,
              40.00047084909172
            ],
            [
              116.35386788202973,
              40.00047084801911
            ],
            [
              116.3537385947946,
              39.99811130069635
            ],
            [
              116.35351637291976,
              39.99405574516263
            ],
            [
              116.35348616654929,
              39.99350450294368
            ]
          ]
        ]
      }
    },
    {
      "type": "Feature",
      "id": "LU-108",
      "properties": {
        "id": "LU-108",
        "layer": "LAND_USE",
        "source_type": "agent_generated_design",
        "confidence": "medium",
        "geometry_role": "design_proposal",
        "provisional": true,
        "official_boundary": false,
        "land_use_code": "0702",
        "land_use_code_gb50137": "R22",
        "name_zh": "众智园东西缘更新带",
        "design_rationale": "众智园两翼更新界面，东翼沿 G6 辅路",
        "area_sqm_declared": 278010.8
      },
      "geometry": {
        "type": "MultiPolygon",
        "coordinates": [
          [
            [
              [
                116.35400585726882,
                40.026495497680756
              ],
              [
                116.35529389079085,
                40.02649549712568
              ],
              [
                116.35507192604565,
                40.02244463396091
              ],
              [
                116.35484970417066,
                40.01838907841682
              ],
              [
                116.3546274822959,
                40.0143335228781
              ],
              [
                116.35440526042046,
                40.01027796732865
              ],
              [
                116.35422802188128,
                40.00704339320415
              ],
              [
                116.35424585300365,
                40.007499864797154
              ],
              [
                116.35424584129629,
                40.00750031502468
              ],
              [
                116.35424577116946,
                40.00750076210163
              ],
              [
                116.35424564332452,
                40.00750120155669
              ],
              [
                116.35424545904004,
                40.00750162899488
              ],
              [
                116.35424522015914,
                40.007502040141304
              ],
              [
                116.35424492907082,
                40.00750243088404
              ],
              [
                116.3542445886863,
                40.00750279731525
              ],
              [
                116.35424420240984,
                40.00750313577017
              ],
              [
                116.35424377410459,
                40.007503442863914
              ],
              [
                116.3542433080541,
                40.0075037155252
              ],
              [
                116.35424280891937,
                40.0075039510271
              ],
              [
                116.35424228169234,
                40.00750414701436
              ],
              [
                116.35424173164583,
                40.007504301526836
              ],
              [
                116.35424116428096,
                40.00750441301928
              ],
              [
                116.35424058527197,
                40.00750448037661
              ],
              [
                116.35424000040959,
                40.007504502925194
              ],
              [
                116.35400585564818,
                40.007504515282896
              ],
              [
                116.35400585645556,
                40.01700000000309
              ],
              [
                116.35400585701132,
                40.02350000000206
              ],
              [
                116.35400585726882,
                40.026495497680756
              ]
            ]
          ],
          [
            [
              [
                116.34181696269734,
                40.008277608984706
              ],
              [
                116.34192807400314,
                40.01055538676504
              ],
              [
                116.34203918530915,
                40.012833164548546
              ],
              [
                116.34215029661516,
                40.01511094233205
              ],
              [
                116.3422614079212,
                40.01738872011554
              ],
              [
                116.34232606713388,
                40.0187142476151
              ],
              [
                116.34237251922727,
                40.01966649789906
              ],
              [
                116.34248363053335,
                40.021944275682586
              ],
              [
                116.34259474183949,
                40.02422205346609
              ],
              [
                116.34270564171736,
                40.026495497102744
              ],
              [
                116.34299414274855,
                40.02649549710285
              ],
              [
                116.34299414437217,
                40.00750456216201
              ],
              [
                116.34177925015399,
                40.007504503245485
              ],
              [
                116.34181696269734,
                40.008277608984706
              ]
            ]
          ]
        ]
      }
    },
    {
      "type": "Feature",
      "id": "LU-201",
      "properties": {
        "id": "LU-201",
        "layer": "LAND_USE",
        "source_type": "agent_generated_design",
        "confidence": "medium",
        "geometry_role": "design_proposal",
        "provisional": true,
        "official_boundary": false,
        "land_use_code": "0902",
        "land_use_code_gb50137": "B2_B29",
        "name_zh": "大钟寺站城一体商务区",
        "design_rationale": "站点周边高强度复合商务，国际路演客厅",
        "area_sqm_declared": 175400.7
      },
      "geometry": {
        "type": "Polygon",
        "coordinates": [
          [
            [
              116.34899414977937,
              39.94400456917183
            ],
            [
              116.34656483810068,
              39.944004503152605
            ],
            [
              116.34511707470347,
              39.949835497153416
            ],
            [
              116.3489941492826,
              39.94983549713091
            ],
            [
              116.34899414977937,
              39.94400456917183
            ]
          ]
        ]
      }
    },
    {
      "type": "Feature",
      "id": "LU-202",
      "properties": {
        "id": "LU-202",
        "layer": "LAND_USE",
        "source_type": "agent_generated_design",
        "confidence": "medium",
        "geometry_role": "design_proposal",
        "provisional": true,
        "official_boundary": false,
        "land_use_code": "0901",
        "land_use_code_gb50137": "B1",
        "name_zh": "大钟寺商业文化街区",
        "design_rationale": "智能体/智能终端展示、内容消费、数据要素商业界面",
        "area_sqm_declared": 166256.5
      },
      "geometry": {
        "type": "Polygon",
        "coordinates": [
          [
            [
              116.35199414977731,
              39.94400458045205
            ],
            [
              116.34900585022592,
              39.944004569366626
            ],
            [
              116.34900585072263,
              39.94983549710843
            ],
            [
              116.35199414928054,
              39.94983549710686
            ],
            [
              116.35199414977731,
              39.94400458045205
            ]
          ]
        ]
      }
    },
    {
      "type": "Feature",
      "id": "LU-203",
      "properties": {
        "id": "LU-203",
        "layer": "LAND_USE",
        "source_type": "agent_generated_design",
        "confidence": "medium",
        "geometry_role": "design_proposal",
        "provisional": true,
        "official_boundary": false,
        "land_use_code": "0701",
        "land_use_code_gb50137": "R2",
        "name_zh": "大钟寺配套社区",
        "design_rationale": "片区居住与社区配套，维持城市型街区肌理",
        "area_sqm_declared": 182883.1
      },
      "geometry": {
        "type": "Polygon",
        "coordinates": [
          [
            [
              116.35200583852752,
              39.94400457134084
            ],
            [
              116.35200583902324,
              39.949835497130394
            ],
            [
              116.35529414927687,
              39.94983550610269
            ],
            [
              116.35529414946048,
              39.947666666667246
            ],
            [
              116.35529414970658,
              39.944777777778604
            ],
            [
              116.35529414993245,
              39.94400449419545
            ],
            [
              116.35200583852752,
              39.94400457134084
            ]
          ]
        ]
      }
    },
    {
      "type": "Feature",
      "id": "LU-301",
      "properties": {
        "id": "LU-301",
        "layer": "LAND_USE",
        "source_type": "agent_generated_design",
        "confidence": "medium",
        "geometry_role": "design_proposal",
        "provisional": true,
        "official_boundary": false,
        "land_use_code": "0802",
        "land_use_code_gb50137": "A35",
        "name_zh": "近校成果转化孵化区",
        "design_rationale": "近校孵化、成果转化、法务/知产/投融资服务",
        "area_sqm_declared": 229518.0
      },
      "geometry": {
        "type": "Polygon",
        "coordinates": [
          [
            [
              116.35299414640716,
              39.983504548346396
            ],
            [
              116.34200585359086,
              39.98350459242517
            ],
            [
              116.34200585548366,
              39.98569549734204
            ],
            [
              116.35299414622017,
              39.985695497336174
            ],
            [
              116.35299414640716,
              39.983504548346396
            ]
          ]
        ]
      }
    },
    {
      "type": "Feature",
      "id": "LU-302",
      "properties": {
        "id": "LU-302",
        "layer": "LAND_USE",
        "source_type": "agent_generated_design",
        "confidence": "medium",
        "geometry_role": "design_proposal",
        "provisional": true,
        "official_boundary": false,
        "land_use_code": "0803",
        "land_use_code_gb50137": "A2_A3",
        "name_zh": "成果发布与开源社区区",
        "design_rationale": "开源发布厅、代码墙、成果发布，公共空间承载",
        "area_sqm_declared": 187782.2
      },
      "geometry": {
        "type": "Polygon",
        "coordinates": [
          [
            [
              116.34200585781207,
              39.98570449421636
            ],
            [
              116.3420058448371,
              39.98899549722712
            ],
            [
              116.34799414924801,
              39.98899550621212
            ],
            [
              116.34799415791947,
              39.98570463237477
            ],
            [
              116.34200585781207,
              39.98570449421636
            ]
          ]
        ]
      }
    },
    {
      "type": "Feature",
      "id": "LU-303",
      "properties": {
        "id": "LU-303",
        "layer": "LAND_USE",
        "source_type": "agent_generated_design",
        "confidence": "medium",
        "geometry_role": "design_proposal",
        "provisional": true,
        "official_boundary": false,
        "land_use_code": "0701",
        "land_use_code_gb50137": "R2",
        "name_zh": "人才居住社区",
        "design_rationale": "人才特区居住生活配套",
        "area_sqm_declared": 256057.2
      },
      "geometry": {
        "type": "Polygon",
        "coordinates": [
          [
            [
              116.34799414594217,
              39.989004503087635
            ],
            [
              116.3420058565259,
              39.98900450308452
            ],
            [
              116.34200585444366,
              39.99349549722177
            ],
            [
              116.34799414555872,
              39.9934954972186
            ],
            [
              116.34799414594217,
              39.989004503087635
            ]
          ]
        ]
      }
    },
    {
      "type": "Feature",
      "id": "LU-304",
      "properties": {
        "id": "LU-304",
        "layer": "LAND_USE",
        "source_type": "agent_generated_design",
        "confidence": "medium",
        "geometry_role": "design_proposal",
        "provisional": true,
        "official_boundary": false,
        "land_use_code": "0902",
        "land_use_code_gb50137": "B2_B29",
        "name_zh": "产业商务服务区",
        "design_rationale": "企业服务、产业平台与人才服务复合",
        "area_sqm_declared": 369865.7
      },
      "geometry": {
        "type": "Polygon",
        "coordinates": [
          [
            [
              116.35299414622187,
              39.985704503219075
            ],
            [
              116.34800585378173,
              39.985704632333054
            ],
            [
              116.34800585444674,
              39.99349549719335
            ],
            [
              116.35299414555676,
              39.99349549719071
            ],
            [
              116.35299414622187,
              39.985704503219075
            ]
          ]
        ]
      }
    },
    {
      "type": "Feature",
      "id": "LU-401",
      "properties": {
        "id": "LU-401",
        "layer": "LAND_USE",
        "source_type": "agent_generated_design",
        "confidence": "medium",
        "geometry_role": "design_proposal",
        "provisional": true,
        "official_boundary": false,
        "land_use_code": "1401",
        "land_use_code_gb50137": "G1",
        "name_zh": "清河界面绿色创新廊",
        "design_rationale": "临清河界面绿色开放带，低碳创新廊/雨洪/慢行复合",
        "area_sqm_declared": 312804.1
      },
      "geometry": {
        "type": "Polygon",
        "coordinates": [
          [
            [
              116.34300585726848,
              40.02649549853946
            ],
            [
              116.34409999995397,
              40.02649549709482
            ],
            [
              116.34549999995396,
              40.02649549709409
            ],
            [
              116.34689999995396,
              40.026495497093336
            ],
            [
              116.34829999995395,
              40.02649549709258
            ],
            [
              116.34969999995397,
              40.02649549709187
            ],
            [
              116.35109999995399,
              40.026495497091126
            ],
            [
              116.35249999995398,
              40.026495497090416
            ],
            [
              116.35389999995397,
              40.02649549708967
            ],
            [
              116.35399414273384,
              40.02649549709201
            ],
            [
              116.35399414298963,
              40.02350450303891
            ],
            [
              116.34900000006763,
              40.023504502910086
            ],
            [
              116.34300586178288,
              40.02350450305854
            ],
            [
              116.34300585726848,
              40.02649549853946
            ]
          ]
        ]
      }
    },
    {
      "type": "Feature",
      "id": "LU-402",
      "properties": {
        "id": "LU-402",
        "layer": "LAND_USE",
        "source_type": "agent_generated_design",
        "confidence": "medium",
        "geometry_role": "design_proposal",
        "provisional": true,
        "official_boundary": false,
        "land_use_code": "100104",
        "land_use_code_gb50137": "M0",
        "name_zh": "全栈自主创新研发区",
        "design_rationale": "国家平台、全栈自主创新研发；G6 从东缘进入",
        "area_sqm_declared": 910100.6
      },
      "geometry": {
        "type": "Polygon",
        "coordinates": [
          [
            [
              116.34300585564507,
              40.00750456266798
            ],
            [
              116.34300586179377,
              40.02349549724471
            ],
            [
              116.3489941429996,
              40.02349549724143
            ],
            [
              116.34899414964646,
              40.01699999999896
            ],
            [
              116.34899414436678,
              40.00750466635862
            ],
            [
              116.34300585564507,
              40.00750456266798
            ]
          ]
        ]
      }
    },
    {
      "type": "Feature",
      "id": "LU-403",
      "properties": {
        "id": "LU-403",
        "layer": "LAND_USE",
        "source_type": "agent_generated_design",
        "confidence": "medium",
        "geometry_role": "design_proposal",
        "provisional": true,
        "official_boundary": false,
        "land_use_code": "1001",
        "land_use_code_gb50137": "M1_A35",
        "name_zh": "测试与安全治理区",
        "design_rationale": "开放测试场、标准制定工作坊、安全治理展示",
        "area_sqm_declared": 450329.6
      },
      "geometry": {
        "type": "Polygon",
        "coordinates": [
          [
            [
              116.35399414436021,
              40.00750451588856
            ],
            [
              116.34900585564796,
              40.007504666258235
            ],
            [
              116.34900586255169,
              40.01699549721121
            ],
            [
              116.35399414354902,
              40.01699549720847
            ],
            [
              116.35399414436021,
              40.00750451588856
            ]
          ]
        ]
      }
    },
    {
      "type": "Feature",
      "id": "LU-404",
      "properties": {
        "id": "LU-404",
        "layer": "LAND_USE",
        "source_type": "agent_generated_design",
        "confidence": "medium",
        "geometry_role": "design_proposal",
        "provisional": true,
        "official_boundary": false,
        "land_use_code": "0803",
        "land_use_code_gb50137": "A2_A3",
        "name_zh": "产业展示与低碳交往区",
        "design_rationale": "产业展示、低碳算力体验与国际交往",
        "area_sqm_declared": 308087.5
      },
      "geometry": {
        "type": "Polygon",
        "coordinates": [
          [
            [
              116.35399414354694,
              40.01700450304393
            ],
            [
              116.34900586254979,
              40.01700450304144
            ],
            [
              116.34900585701463,
              40.02349549721614
            ],
            [
              116.35399414299194,
              40.02349549721351
            ],
            [
              116.35399414354694,
              40.01700450304393
            ]
          ]
        ]
      }
    }
  ]
}
