{
  "type": "FeatureCollection",
  "name": "phasing.geojson",
  "features": [
    {
      "type": "Feature",
      "id": "PHASE-001",
      "properties": {
        "id": "PHASE-001",
        "layer": "PHASE",
        "source_type": "agent_generated_design",
        "confidence": "medium",
        "geometry_role": "design_proposal",
        "provisional_constraint": true,
        "official_boundary": false,
        "boundary_precision": "provisional_rough",
        "phase": "phase_1",
        "phase_order": 1,
        "name_zh": "近期试点：京张遗址公园段＋原点社区近校段",
        "phase_horizon": "2025-2027",
        "related_jz_projects": [
          "JZ-01",
          "JZ-06"
        ],
        "key_area_ids": [
          "PROV-KEY-002"
        ],
        "implementation_dependency": "廊道先行：公园/道路权属相对简单，慢行缝合与活动路线投资小见效快",
        "area_sqm_declared": 2921251.3
      },
      "geometry": {
        "type": "Polygon",
        "coordinates": [
          [
            [
              116.34299999996715,
              39.99349549706986
            ],
            [
              116.34300057380428,
              39.99349551875034
            ],
            [
              116.34300114211533,
              39.99349558358792
            ],
            [
              116.34300169942713,
              39.993495690958184
            ],
            [
              116.34300224037241,
              39.9934958398271
            ],
            [
              116.3430027597416,
              39.99349602876096
            ],
            [
              116.34300325253281,
              39.99349625594024
            ],
            [
              116.3430037140002,
              39.993496519177036
            ],
            [
              116.34300413969956,
              39.99349681593624
            ],
            [
              116.34300452553116,
              39.993497143359875
            ],
            [
              116.34300486777917,
              39.993497498294666
            ],
            [
              116.34300516314755,
              39.99349787732236
            ],
            [
              116.34300540879177,
              39.99349827679272
            ],
            [
              116.34300560234608,
              39.99349869285861
            ],
            [
              116.34300574194646,
              39.99349912151304
            ],
            [
              116.34300582624847,
              39.99349955862782
            ],
            [
              116.34300585444022,
              39.99349999999329
            ],
            [
              116.3430058560715,
              40.01249549718549
            ],
            [
              116.34699414394274,
              40.0124954971834
            ],
            [
              116.346994145557,
              39.99350000000636
            ],
            [
              116.34699417374821,
              39.99349955863197
            ],
            [
              116.34699425805192,
              39.993499121508364
            ],
            [
              116.34699439765619,
              39.9934986928455
            ],
            [
              116.3469945912165,
              39.99349827677181
            ],
            [
              116.34699483686867,
              39.99349787729449
            ],
            [
              116.34699513224685,
              39.99349749826091
            ],
            [
              116.3469954745062,
              39.99349714332151
            ],
            [
              116.34699586035052,
              39.993496815894716
            ],
            [
              116.34699628606366,
              39.99349651913397
            ],
            [
              116.34699674754566,
              39.99349625589735
            ],
            [
              116.34699724035194,
              39.993496028720095
            ],
            [
              116.34699775973634,
              39.993495839790164
            ],
            [
              116.34699830069667,
              39.993495690927084
            ],
            [
              116.34699885802294,
              39.99349558356461
            ],
            [
              116.34699942634757,
              39.9934955187367
            ],
            [
              116.347000000197,
              39.993495497067734
            ],
            [
              116.35299414555773,
              39.99349549721598
            ],
            [
              116.35299414641062,
              39.983504503094515
            ],
            [
              116.34699999980302,
              39.98350450293998
            ],
            [
              116.34699942606325,
              39.9835044812431
            ],
            [
              116.34699885785058,
              39.983504416391135
            ],
            [
              116.34699830063703,
              39.98350430900859
            ],
            [
              116.34699775978858,
              39.983504160129584
            ],
            [
              116.34699724051374,
              39.983503971187844
            ],
            [
              116.34699674781324,
              39.98350374400293
            ],
            [
              116.34699628643179,
              39.98350348076264
            ],
            [
              116.34699586081264,
              39.98350318400206
            ],
            [
              116.34699547505456,
              39.983502856578994
            ],
            [
              116.34699513287242,
              39.983502501646626
            ],
            [
              116.34699483756151,
              39.98350212262299
            ],
            [
              116.34699459196574,
              39.98350172315815
            ],
            [
              116.34699439845024,
              39.98350130709902
            ],
            [
              116.34699425887854,
              39.983500878452304
            ],
            [
              116.34699417459481,
              39.98350044134597
            ],
            [
              116.34699414641067,
              39.98349999998938
            ],
            [
              116.34699414902492,
              39.9530045030644
            ],
            [
              116.3430058509996,
              39.95300450306227
            ],
            [
              116.34300585358656,
              39.983500000010395
            ],
            [
              116.34300582539892,
              39.98350044137321
            ],
            [
              116.34300574111006,
              39.9835008784854
            ],
            [
              116.34300560153176,
              39.98350130713739
            ],
            [
              116.34300540800815,
              39.983501723201066
            ],
            [
              116.343005162403,
              39.98350212266955
            ],
            [
              116.3430048670816,
              39.98350250169574
            ],
            [
              116.34300452488802,
              39.98350285662951
            ],
            [
              116.3430041391177,
              39.98350318405263
            ],
            [
              116.34300371348583,
              39.9835034808119
            ],
            [
              116.3430032520914,
              39.98350374404939
            ],
            [
              116.3430027593779,
              39.98350397123
            ],
            [
              116.3430022400903,
              39.98350416016588
            ],
            [
              116.34300169922966,
              39.98350430903749
            ],
            [
              116.34300114200464,
              39.98350441641113
            ],
            [
              116.34300057378162,
              39.98350448125274
            ],
            [
              116.34300000003282,
              39.983504502937876
            ],
            [
              116.34200585359076,
              39.98350450296244
            ],
            [
              116.34200585444366,
              39.993495497095495
            ],
            [
              116.34299999996715,
              39.99349549706986
            ]
          ]
        ]
      }
    },
    {
      "type": "Feature",
      "id": "PHASE-002",
      "properties": {
        "id": "PHASE-002",
        "layer": "PHASE",
        "source_type": "agent_generated_design",
        "confidence": "medium",
        "geometry_role": "design_proposal",
        "provisional_constraint": true,
        "official_boundary": false,
        "boundary_precision": "provisional_rough",
        "phase": "phase_2",
        "phase_order": 2,
        "name_zh": "中期更新：众智园清河界面＋原点深化＋大钟寺站四象限",
        "phase_horizon": "2028-2031",
        "related_jz_projects": [
          "JZ-02",
          "JZ-03",
          "JZ-04"
        ],
        "key_area_ids": [
          "PROV-KEY-001",
          "PROV-KEY-002",
          "PROV-KEY-003"
        ],
        "implementation_dependency": "站点锚定：众智园清河界面与大钟寺站体均具强空间锚点，但依赖控规/产权/轨道一体化",
        "area_sqm_declared": 3692893.0
      },
      "geometry": {
        "type": "MultiPolygon",
        "coordinates": [
          [
            [
              [
                116.35499414927848,
                39.949835497357626
              ],
              [
                116.35499414977521,
                39.94400450330265
              ],
              [
                116.3420058502211,
                39.94400450329579
              ],
              [
                116.34200585071783,
                39.94983549736448
              ],
              [
                116.35499414927848,
                39.949835497357626
              ]
            ]
          ],
          [
            [
              [
                116.35399414278342,
                40.0259954973671
              ],
              [
                116.3539941443642,
                40.007504503202846
              ],
              [
                116.34300585564475,
                40.00750450319706
              ],
              [
                116.3430058572255,
                40.02599549737286
              ],
              [
                116.35399414278342,
                40.0259954973671
              ]
            ]
          ],
          [
            [
              [
                116.35299414555773,
                39.993495497342266
              ],
              [
                116.35299414641062,
                39.98350450322078
              ],
              [
                116.34200585359076,
                39.98350450321498
              ],
              [
                116.34200585444366,
                39.99349549734806
              ],
              [
                116.35299414555773,
                39.993495497342266
              ]
            ]
          ]
        ]
      }
    },
    {
      "type": "Feature",
      "id": "PHASE-003",
      "properties": {
        "id": "PHASE-003",
        "layer": "PHASE",
        "source_type": "agent_generated_design",
        "confidence": "medium",
        "geometry_role": "design_proposal",
        "provisional_constraint": true,
        "official_boundary": false,
        "boundary_precision": "provisional_rough",
        "phase": "phase_3",
        "phase_order": 3,
        "name_zh": "长期治理：廊道全线贯通＋端侧算力网络＋活动常态化",
        "phase_horizon": "2032-2035+",
        "related_jz_projects": [
          "JZ-05",
          "JZ-06"
        ],
        "key_area_ids": [
          "PROV-KEY-001",
          "PROV-KEY-002",
          "PROV-KEY-003"
        ],
        "implementation_dependency": "权属依赖最重的跨环节点、分布式新基建与运营体系常态化",
        "area_sqm_declared": 6108435.3
      },
      "geometry": {
        "type": "Polygon",
        "coordinates": [
          [
            [
              116.34103918076212,
              39.995666443491906
            ],
            [
              116.34126140327903,
              39.99911088794779
            ],
            [
              116.34148362579599,
              40.00255533240367
            ],
            [
              116.341705848313,
              40.005999776859575
            ],
            [
              116.34170585139168,
              40.00599983120772
            ],
            [
              116.34181696269718,
              40.0082776089815
            ],
            [
              116.34192807400314,
              40.01055538676504
            ],
            [
              116.34203918530915,
              40.012833164548546
            ],
            [
              116.34215029661516,
              40.01511094233205
            ],
            [
              116.3422614079212,
              40.01738872011554
            ],
            [
              116.34237251922727,
              40.01966649789906
            ],
            [
              116.34248363053335,
              40.021944275682586
            ],
            [
              116.34259474183949,
              40.02422205346609
            ],
            [
              116.34270564171867,
              40.02649549712952
            ],
            [
              116.34409999995397,
              40.02649549709482
            ],
            [
              116.34549999995396,
              40.02649549709409
            ],
            [
              116.34689999995396,
              40.026495497093336
            ],
            [
              116.34829999995395,
              40.02649549709258
            ],
            [
              116.34849414277521,
              40.02649549709741
            ],
            [
              116.34849415024186,
              39.93900450475949
            ],
            [
              116.34718888883572,
              39.93900450297455
            ],
            [
              116.3455666666135,
              39.939004502973674
            ],
            [
              116.34394444439125,
              39.93900450297281
            ],
            [
              116.34232222217132,
              39.93900450297194
            ],
            [
              116.34070584981492,
              39.93900450301187
            ],
            [
              116.34070585418307,
              39.99049988835181
            ],
            [
              116.3408169582456,
              39.99222199904106
            ],
            [
              116.34103918076212,
              39.995666443491906
            ]
          ]
        ]
      }
    }
  ]
}
