{
  "type": "FeatureCollection",
  "name": "public_space.geojson",
  "features": [
    {
      "type": "Feature",
      "id": "PUBLIC-001",
      "properties": {
        "id": "PUBLIC-001",
        "layer": "PUBLIC_SPACE",
        "source_type": "agent_generated_design",
        "confidence": "medium",
        "geometry_role": "design_proposal",
        "land_use_code": "1403",
        "space_type": "遗址公园公共空间带",
        "name_zh": "京张遗址公园公共空间活力带（南段，含南端缝合广场）",
        "area_sqm_declared": 415888.2,
        "linked_green_id": "CONSTRAINTS-001",
        "key_area_id": "PROV-KEY-003",
        "official_boundary": false,
        "boundary_precision": "provisional_rough",
        "provisional_note": "provisional 公共空间节点；正式边界与上位规划待官方数据"
      },
      "geometry": {
        "type": "MultiPolygon",
        "coordinates": [
          [
            [
              [
                116.35298840870493,
                40.02558880852389
              ],
              [
                116.35296002501907,
                40.02560337125192
              ],
              [
                116.35293361230052,
                40.02561998169903
              ],
              [
                116.35290941956093,
                40.0256384831107
              ],
              [
                116.35288767489165,
                40.02565870123397
              ],
              [
                116.35286858334592,
                40.025680445296246
              ],
              [
                116.35285232492521,
                40.02570351033552
              ],
              [
                116.35283905292314,
                40.02572767890225
              ],
              [
                116.35247131019193,
                40.02650000016976
              ],
              [
                116.3525,
                40.0265
              ],
              [
                116.35321979201515,
                40.026500002112684
              ],
              [
                116.35344963595928,
                40.02601728101671
              ],
              [
                116.35523782643318,
                40.02536537519773
              ],
              [
                116.35520569903382,
                40.024779059243386
              ],
              [
                116.35301849578856,
                40.02557643071288
              ],
              [
                116.35298840870493,
                40.02558880852389
              ]
            ]
          ],
          [
            [
              [
                116.34900165527694,
                39.93958461689593
              ],
              [
                116.34900160612149,
                39.93958668038829
              ],
              [
                116.34897244818485,
                39.94113338023951
              ],
              [
                116.34897365589308,
                39.941160033627504
              ],
              [
                116.34897827165226,
                39.94118646550727
              ],
              [
                116.34898625028714,
                39.94121241831801
              ],
              [
                116.34899751428487,
                39.94123763918034
              ],
              [
                116.34928872198454,
                39.941798039966905
              ],
              [
                116.34930647664733,
                39.941827075141795
              ],
              [
                116.34974330472947,
                39.942443516253824
              ],
              [
                116.34976130264636,
                39.9424661863386
              ],
              [
                116.34978210611507,
                39.9424873861346
              ],
              [
                116.34980551419008,
                39.94250691070343
              ],
              [
                116.34983130038187,
                39.942524571264585
              ],
              [
                116.34985921533095,
                39.94254019701184
              ],
              [
                116.3506600667853,
                39.94294368831086
              ],
              [
                116.350688075503,
                39.94295641349124
              ],
              [
                116.35071749410706,
                39.94296708855737
              ],
              [
                116.35530000008555,
                39.944434141708335
              ],
              [
                116.35530000017806,
                39.94384891546045
              ],
              [
                116.35101723134025,
                39.94247781675512
              ],
              [
                116.35031740287167,
                39.94212522494458
              ],
              [
                116.34993276164374,
                39.94158243505533
              ],
              [
                116.34967539050719,
                39.941087158650625
              ],
              [
                116.34970349452232,
                39.939595550369106
              ],
              [
                116.34972062705987,
                39.9390000027956
              ],
              [
                116.3490184793618,
                39.93900000126535
              ],
              [
                116.34900165527694,
                39.93958461689593
              ]
            ]
          ],
          [
            [
              [
                116.35530000004505,
                39.93916933897964
              ],
              [
                116.3553,
                39.939
              ],
              [
                116.35367777777778,
                39.939
              ],
              [
                116.35205555555555,
                39.93899999999999
              ],
              [
                116.35084426439232,
                39.9390000021467
              ],
              [
                116.35530000004505,
                39.93916933897964
              ]
            ]
          ],
          [
            [
              [
                116.34305393673142,
                39.97529393527934
              ],
              [
                116.35446882731456,
                39.97538968218251
              ],
              [
                116.35451202990625,
                39.97484965661911
              ],
              [
                116.34305988080993,
                39.974753599529244
              ],
              [
                116.34305636565236,
                39.97475358347967
              ],
              [
                116.33970691512728,
                39.97475107247904
              ],
              [
                116.3397,
                39.97500000000001
              ],
              [
                116.33971880147708,
                39.975291434954165
              ],
              [
                116.34305393673142,
                39.97529393527934
              ]
            ]
          ],
          [
            [
              [
                116.34023980462717,
                39.96096350671422
              ],
              [
                116.3403607590406,
                39.960494560117674
              ],
              [
                116.34041493408628,
                39.96028452647597
              ],
              [
                116.34053159373906,
                39.95996240039402
              ],
              [
                116.34187270641607,
                39.957576606408715
              ],
              [
                116.34237490261225,
                39.956683185687666
              ],
              [
                116.34237708602708,
                39.95667921473862
              ],
              [
                116.34413407329413,
                39.95341110983702
              ],
              [
                116.34487899810411,
                39.95202539757833
              ],
              [
                116.34495122906215,
                39.95189101778282
              ],
              [
                116.34497361510425,
                39.95185032245643
              ],
              [
                116.34559814035583,
                39.95071476332863
              ],
              [
                116.34617873607938,
                39.94965905219823
              ],
              [
                116.34618595357983,
                39.9496448199193
              ],
              [
                116.34619619349,
                39.94962280993206
              ],
              [
                116.34620520187288,
                39.94960043464299
              ],
              [
                116.34621165822706,
                39.94957754286694
              ],
              [
                116.34621551387562,
                39.949554306708016
              ],
              [
                116.34630241971455,
                39.94875663729125
              ],
              [
                116.34640611484167,
                39.94780490768656
              ],
              [
                116.34640651454022,
                39.947800877064275
              ],
              [
                116.34659648043575,
                39.94567590322787
              ],
              [
                116.34680901662075,
                39.944295188828
              ],
              [
                116.34681138613094,
                39.94426873760299
              ],
              [
                116.34681037588433,
                39.9442422350038
              ],
              [
                116.34680599550973,
                39.94421593622971
              ],
              [
                116.34679828729986,
                39.94419009450231
              ],
              [
                116.34678732553051,
                39.944164958810056
              ],
              [
                116.34677321555108,
                39.94414077111131
              ],
              [
                116.34675609345112,
                39.94411776444115
              ],
              [
                116.34673612409543,
                39.94409616037872
              ],
              [
                116.34671349974124,
                39.94407616678785
              ],
              [
                116.34668843829598,
                39.94405797645645
              ],
              [
                116.34666118111907,
                39.944041764472324
              ],
              [
                116.34663199069469,
                39.94402768685932
              ],
              [
                116.34660114818696,
                39.94401587930264
              ],
              [
                116.34656895052939,
                39.94400645560151
              ],
              [
                116.34653570798076,
                39.943999506304515
              ],
              [
                116.3465017405002,
                39.94399509850913
              ],
              [
                116.3464673753029,
                39.943993274496954
              ],
              [
                116.3464329433478,
                39.94399405198429
              ],
              [
                116.34639877606776,
                39.943997423473085
              ],
              [
                116.34636520279392,
                39.944003356416744
              ],
              [
                116.34633254665576,
                39.944011793737154
              ],
              [
                116.34630112212166,
                39.94402265408118
              ],
              [
                116.34627123194588,
                39.94403583297406
              ],
              [
                116.34624316388573,
                39.94405120352136
              ],
              [
                116.34621718835064,
                39.9440686175666
              ],
              [
                116.34619355545985,
                39.94408790747561
              ],
              [
                116.34617249268977,
                39.94410888747431
              ],
              [
                116.34615420310072,
                39.94413135552981
              ],
              [
                116.34613886262807,
                39.944155095226456
              ],
              [
                116.34612661912541,
                39.94417987792178
              ],
              [
                116.34611759058804,
                39.94420546498802
              ],
              [
                116.34611186372742,
                39.94423161005555
              ],
              [
                116.34589829685787,
                39.94561892941025
              ],
              [
                116.34589668646015,
                39.94563217246704
              ],
              [
                116.34571481483714,
                39.94766637477314
              ],
              [
                116.34545014523485,
                39.946070019686
              ],
              [
                116.34545017075453,
                39.94573800029254
              ],
              [
                116.34551964692196,
                39.94528757164142
              ],
              [
                116.34557709343186,
                39.94508126155673
              ],
              [
                116.34577333389505,
                39.944548726261615
              ],
              [
                116.34764908157506,
                39.93982858666159
              ],
              [
                116.34765752821676,
                39.9398028821617
              ],
              [
                116.34766266101298,
                39.939776664125375
              ],
              [
                116.34766443065226,
                39.93975018507934
              ],
              [
                116.34766282009237,
                39.93972369998313
              ],
              [
                116.34765784481542,
                39.939697463979016
              ],
              [
                116.34764955261937,
                39.939671729688925
              ],
              [
                116.34763802363929,
                39.93964674496309
              ],
              [
                116.3476233686152,
                39.93962275043861
              ],
              [
                116.34760572891518,
                39.939599977108045
              ],
              [
                116.34758527433117,
                39.93957864432556
              ],
              [
                116.34756220181235,
                39.93955895763851
              ],
              [
                116.34753673373251,
                39.939541106436124
              ],
              [
                116.34750911509245,
                39.939525262852996
              ],
              [
                116.34747961202213,
                39.93951157932917
              ],
              [
                116.3474485086304,
                39.93950018769179
              ],
              [
                116.34741610456295,
                39.93949119761043
              ],
              [
                116.34738271173488,
                39.93948469567804
              ],
              [
                116.3473486517649,
                39.939480744586135
              ],
              [
                116.34731425270733,
                39.9394793822957
              ],
              [
                116.3472798458942,
                39.93948062192957
              ],
              [
                116.34724576254446,
                39.939484451573044
              ],
              [
                116.34721233095453,
                39.939490834438324
              ],
              [
                116.34717987298876,
                39.93949970884466
              ],
              [
                116.34714870149358,
                39.93951098946462
              ],
              [
                116.34711911643282,
                39.93952456775266
              ],
              [
                116.34709140277405,
                39.93954031274368
              ],
              [
                116.3470658275468,
                39.939558072837585
              ],
              [
                116.34704263678789,
                39.939577677133094
              ],
              [
                116.34702205412476,
                39.93959893677043
              ],
              [
                116.34700427759685,
                39.93962164698488
              ],
              [
                116.34698947846773,
                39.93964558899136
              ],
              [
                116.34697779921294,
                39.93967053240462
              ],
              [
                116.3451009583901,
                39.944393306863404
              ],
              [
                116.3450989258955,
                39.94439861470285
              ],
              [
                116.3448985734673,
                39.944942294097125
              ],
              [
                116.34489304626271,
                39.94495939973441
              ],
              [
                116.34482977522089,
                39.94518661953456
              ],
              [
                116.34482442869053,
                39.945211386485
              ],
              [
                116.34475057621701,
                39.94569015629153
              ],
              [
                116.34474812803892,
                39.94572199235606
              ],
              [
                116.3447480960914,
                39.94608716236746
              ],
              [
                116.34475091936314,
                39.94612137802568
              ],
              [
                116.34512893315656,
                39.94840148715259
              ],
              [
                116.3451590818911,
                39.94875764523626
              ],
              [
                116.34515906115189,
                39.94905335780324
              ],
              [
                116.34514923371889,
                39.94931764105568
              ],
              [
                116.3451029278713,
                39.94955987538236
              ],
              [
                116.34489364550213,
                39.95011966475212
              ],
              [
                116.34405792190321,
                39.951655025653
              ],
              [
                116.34405711218305,
                39.951656525912384
              ],
              [
                116.34395127141822,
                39.9518542956318
              ],
              [
                116.34295110685946,
                39.9537232525121
              ],
              [
                116.34287034746269,
                39.95386598586554
              ],
              [
                116.34149707655665,
                39.956293075139804
              ],
              [
                116.34148882808039,
                39.95630901782459
              ],
              [
                116.34095387272163,
                39.95744682933205
              ],
              [
                116.34014642549451,
                39.95892868731276
              ],
              [
                116.34014444444442,
                39.958999999999996
              ],
              [
                116.34006709276612,
                39.961784722226966
              ],
              [
                116.34023980462717,
                39.96096350671422
              ]
            ]
          ],
          [
            [
              [
                116.34219427369898,
                39.99977516472644
              ],
              [
                116.3421956179168,
                39.99977518955761
              ],
              [
                116.34262396962386,
                39.999782469614146
              ],
              [
                116.34365641963448,
                39.9997999986803
              ],
              [
                116.34544803910315,
                39.999854028215786
              ],
              [
                116.34545430247844,
                39.99985417409442
              ],
              [
                116.34651418045746,
                39.999871569987704
              ],
              [
                116.34675098147359,
                39.99989863970115
              ],
              [
                116.34675742457912,
                39.9998993294099
              ],
              [
                116.34776583841467,
                39.99999995981822
              ],
              [
                116.3477891523757,
                40.00000168077735
              ],
              [
                116.3492509080952,
                40.00007185106284
              ],
              [
                116.3492631733329,
                40.00007227450087
              ],
              [
                116.35080429692631,
                40.00010472197243
              ],
              [
                116.3523019607749,
                40.00014642894759
              ],
              [
                116.35230567059631,
                40.00014651713598
              ],
              [
                116.3538576460463,
                40.000177093350274
              ],
              [
                116.35382799620612,
                39.99963598052374
              ],
              [
                116.3523255245346,
                39.99960637938032
              ],
              [
                116.3508281749749,
                39.99956468124893
              ],
              [
                116.35082507060734,
                39.99956460532071
              ],
              [
                116.3492885440674,
                39.99953225475002
              ],
              [
                116.34784462164136,
                39.99946294065202
              ],
              [
                116.34685106076338,
                39.99936379248176
              ],
              [
                116.3465955191918,
                39.99933458041108
              ],
              [
                116.34655136320183,
                39.99933170582096
              ],
              [
                116.34547243000695,
                39.99931399733393
              ],
              [
                116.34368094777773,
                39.99925997204376
              ],
              [
                116.34367493127235,
                39.99925983025932
              ],
              [
                116.34263948797393,
                39.999242250355245
              ],
              [
                116.34221181415253,
                39.99923498186619
              ],
              [
                116.34126232503424,
                39.99921604263534
              ],
              [
                116.34129724182068,
                39.99975727197964
              ],
              [
                116.34219427369898,
                39.99977516472644
              ]
            ]
          ]
        ]
      }
    },
    {
      "type": "Feature",
      "id": "PUBLIC-002",
      "properties": {
        "id": "PUBLIC-002",
        "layer": "PUBLIC_SPACE",
        "source_type": "agent_generated_design",
        "confidence": "medium",
        "geometry_role": "design_proposal",
        "land_use_code": "1403",
        "space_type": "站前广场/轨道一体化",
        "name_zh": "大钟寺站四象限步行广场",
        "area_sqm_declared": 341558.3,
        "linked_green_id": null,
        "key_area_id": "PROV-KEY-003",
        "official_boundary": false,
        "boundary_precision": "provisional_rough",
        "provisional_note": "provisional 公共空间节点；正式边界与上位规划待官方数据"
      },
      "geometry": {
        "type": "Polygon",
        "coordinates": [
          [
            [
              116.344,
              39.958
            ],
            [
              116.35,
              39.958
            ],
            [
              116.35,
              39.964
            ],
            [
              116.344,
              39.964
            ],
            [
              116.344,
              39.958
            ]
          ]
        ]
      }
    },
    {
      "type": "Feature",
      "id": "PUBLIC-003",
      "properties": {
        "id": "PUBLIC-003",
        "layer": "PUBLIC_SPACE",
        "source_type": "agent_generated_design",
        "confidence": "medium",
        "geometry_role": "design_proposal",
        "land_use_code": "1403",
        "space_type": "蓝绿界面广场",
        "name_zh": "众智园清河创新界面广场",
        "area_sqm_declared": 455043.6,
        "linked_green_id": "GREEN-002",
        "key_area_id": "PROV-KEY-001",
        "official_boundary": false,
        "boundary_precision": "provisional_rough",
        "provisional_note": "provisional 公共空间节点；正式边界与上位规划待官方数据"
      },
      "geometry": {
        "type": "Polygon",
        "coordinates": [
          [
            [
              116.344,
              40.014
            ],
            [
              116.352,
              40.014
            ],
            [
              116.352,
              40.02
            ],
            [
              116.344,
              40.02
            ],
            [
              116.344,
              40.014
            ]
          ]
        ]
      }
    },
    {
      "type": "Feature",
      "id": "PUBLIC-004",
      "properties": {
        "id": "PUBLIC-004",
        "layer": "PUBLIC_SPACE",
        "source_type": "agent_generated_design",
        "confidence": "medium",
        "geometry_role": "design_proposal",
        "land_use_code": "1403",
        "space_type": "近校缝合广场",
        "name_zh": "原点社区近校缝合广场",
        "area_sqm_declared": 331939.0,
        "linked_green_id": "GREEN-004",
        "key_area_id": "PROV-KEY-002",
        "official_boundary": false,
        "boundary_precision": "provisional_rough",
        "provisional_note": "provisional 公共空间节点；正式边界与上位规划待官方数据"
      },
      "geometry": {
        "type": "Polygon",
        "coordinates": [
          [
            [
              116.345,
              39.985
            ],
            [
              116.35,
              39.985
            ],
            [
              116.35,
              39.992
            ],
            [
              116.345,
              39.992
            ],
            [
              116.345,
              39.985
            ]
          ]
        ]
      }
    },
    {
      "type": "Feature",
      "id": "PUBLIC-005",
      "properties": {
        "id": "PUBLIC-005",
        "layer": "PUBLIC_SPACE",
        "source_type": "agent_generated_design",
        "confidence": "medium",
        "geometry_role": "design_proposal",
        "land_use_code": "1403",
        "space_type": "跨环路慢行节点",
        "name_zh": "遗址公园北端跨环慢行节点",
        "area_sqm_declared": 469218.0,
        "linked_green_id": "GREEN-001",
        "key_area_id": "PROV-KEY-001",
        "official_boundary": false,
        "boundary_precision": "provisional_rough",
        "provisional_note": "provisional 公共空间节点；正式边界与上位规划待官方数据"
      },
      "geometry": {
        "type": "Polygon",
        "coordinates": [
          [
            [
              116.343,
              40.021
            ],
            [
              116.352,
              40.021
            ],
            [
              116.352,
              40.0265
            ],
            [
              116.343,
              40.0265
            ],
            [
              116.343,
              40.021
            ]
          ]
        ]
      }
    }
  ]
}
