{
  "type": "FeatureCollection",
  "name": "site_boundary_upgraded",
  "features": [
    {
      "type": "Feature",
      "id": "SITE-001",
      "properties": {
        "id": "SITE-001",
        "layer": "SITE_BOUNDARY",
        "scope_id": "overall_design_area",
        "name_zh": "总体设计范围粗略替代边界",
        "source_type": "agent_inferred_from_public_data",
        "confidence": "medium",
        "geometry_role": "provisional_constraint",
        "official_boundary": false,
        "boundary_precision": "provisional_text_constrained",
        "source_id": "PROVISIONAL-BOUNDARY-UPGRADED-TEXT-CONSTRAINED",
        "source_title": "依据公告文字四至（北五环路;学院路/西土城路;西直门外大街;大钟寺东路/荷清路）插值，未使用 OSM/GIS 实测数据",
        "area_sqm_declared": 11400000,
        "area_sqm_calculated": 11412842.042,
        "usage_note": "Densified from text 四至 constraints. Vertices interpolated along named road corridors. Replace with official GIS data from qualification documents. Do NOT use for precise area calculation."
      },
      "geometry": {
        "type": "Polygon",
        "coordinates": [
          [
            [
              116.3407,
              39.939
            ],
            [
              116.34232222222222,
              39.939
            ],
            [
              116.34394444444445,
              39.939
            ],
            [
              116.34556666666667,
              39.939
            ],
            [
              116.3471888888889,
              39.939
            ],
            [
              116.3488111111111,
              39.939
            ],
            [
              116.35043333333333,
              39.939
            ],
            [
              116.35205555555555,
              39.939
            ],
            [
              116.35367777777778,
              39.939
            ],
            [
              116.3553,
              39.939
            ],
            [
              116.3553,
              39.94188888888889
            ],
            [
              116.3553,
              39.94477777777778
            ],
            [
              116.3553,
              39.94766666666667
            ],
            [
              116.3553,
              39.95055555555556
            ],
            [
              116.3553,
              39.95344444444444
            ],
            [
              116.3553,
              39.95633333333333
            ],
            [
              116.3553,
              39.95922222222222
            ],
            [
              116.3553,
              39.96211111111111
            ],
            [
              116.3553,
              39.965
            ],
            [
              116.35507777777778,
              39.96777777777778
            ],
            [
              116.35485555555556,
              39.970555555555556
            ],
            [
              116.35463333333334,
              39.973333333333336
            ],
            [
              116.35441111111112,
              39.976111111111116
            ],
            [
              116.35418888888888,
              39.97888888888889
            ],
            [
              116.35396666666666,
              39.98166666666667
            ],
            [
              116.35374444444444,
              39.98444444444445
            ],
            [
              116.35352222222222,
              39.98722222222222
            ],
            [
              116.3533,
              39.99
            ],
            [
              116.35352222222222,
              39.994055555555555
            ],
            [
              116.35374444444444,
              39.998111111111115
            ],
            [
              116.35396666666666,
              40.00216666666667
            ],
            [
              116.35418888888888,
              40.00622222222222
            ],
            [
              116.35441111111112,
              40.01027777777778
            ],
            [
              116.35463333333334,
              40.01433333333333
            ],
            [
              116.35485555555556,
              40.018388888888886
            ],
            [
              116.35507777777778,
              40.022444444444446
            ],
            [
              116.3553,
              40.0265
            ],
            [
              116.3539,
              40.0265
            ],
            [
              116.3525,
              40.0265
            ],
            [
              116.3511,
              40.0265
            ],
            [
              116.3497,
              40.0265
            ],
            [
              116.3483,
              40.0265
            ],
            [
              116.34689999999999,
              40.0265
            ],
            [
              116.34549999999999,
              40.0265
            ],
            [
              116.3441,
              40.0265
            ],
            [
              116.3427,
              40.0265
            ],
            [
              116.34258888888888,
              40.02422222222222
            ],
            [
              116.34247777777777,
              40.02194444444444
            ],
            [
              116.34236666666666,
              40.019666666666666
            ],
            [
              116.34225555555555,
              40.01738888888889
            ],
            [
              116.34214444444444,
              40.01511111111111
            ],
            [
              116.34203333333333,
              40.01283333333333
            ],
            [
              116.34192222222222,
              40.010555555555555
            ],
            [
              116.34181111111111,
              40.00827777777778
            ],
            [
              116.3417,
              40.006
            ],
            [
              116.34147777777778,
              40.00255555555555
            ],
            [
              116.34125555555555,
              39.99911111111111
            ],
            [
              116.34103333333333,
              39.995666666666665
            ],
            [
              116.34081111111111,
              39.992222222222225
            ],
            [
              116.34058888888889,
              39.98877777777778
            ],
            [
              116.34036666666667,
              39.98533333333334
            ],
            [
              116.34014444444445,
              39.98188888888889
            ],
            [
              116.33992222222221,
              39.97844444444445
            ],
            [
              116.3397,
              39.975
            ],
            [
              116.3398111111111,
              39.971000000000004
            ],
            [
              116.33992222222221,
              39.967
            ],
            [
              116.34003333333332,
              39.963
            ],
            [
              116.34014444444443,
              39.959
            ],
            [
              116.34025555555556,
              39.955
            ],
            [
              116.34036666666667,
              39.951
            ],
            [
              116.34047777777778,
              39.947
            ],
            [
              116.34058888888889,
              39.943
            ],
            [
              116.3407,
              39.939
            ]
          ]
        ]
      }
    }
  ]
}
